ShuntNumber,ShuntName,PnaShunt,PssShunt,NspShunt,SectionNumber,Type,SusceptanceStepSize,SusceptanceAtMinBankOutput,SusceptanceAtMaxBankOutput,ConductanceAtMinBankOutput,ConductanceAtMaxBankOutput,LocalControlTuningFactor,ControlSectionNumber,HighControlLimit,LowControlLimit,MinShiftWeightFactor,MinShiftTarget,LocalControlStatus,OptimizationStatus,MwInversion,MwMeasOverrideStatus,MwReplacementValue,CmeMwUsage,MvInversion,MvMeasOverrideStatus,MvReplacementValue,CmeMvUsage,ControlDelay,FlaShuntZeroSeqSusc,FlaShuntZeroSeqCond,AssetLabel,DefaultMwSchedule,DefaultMvSchedule,ScheduleDataFlag,ExModelRetentionFlag,DmsTransformFlag,CommentText1,CommentText2,CommentText3,ShuntResponseLeadTime,ShuntResponseRateOfIncrease,ShuntResponseRateOfDecrease,ConnectionStatusIndicatorRef,BusNumberRef,ControlBusNumberRef,MwTelemetryRef,MvTelemetryRef,MwStandardDeviation,MwInversionFlag,MwCmeUsage,MwOverrideStatus,Mw_ReplacementValue,SetOrder4,MwAnalogPointRef,MwCtBreakerRef,MvStandardDeviation,MvInversionFlag,MvCmeUsage,MvOverrideStatus,Mv_ReplacementValue,SetOrder5,MvAnalogPointRef,MvCtBreakerRef,AmpStandardDeviation,AmpInversionFlag,AmpCmeUsage,AmpOverrideStatus,Amp_ReplacementValue,SetOrder7,AmpAnalogPointRef,AmpCtBreakerRef,ShuntSwitchName,NormalControlSwitchState,NormalIsolatorSwitchState,DefaultControlSwitchState,DefaultIsolatorSwitchState,IsolatorScadaOpenState,IsolatorScadaCloseState,CntlBrkrScadaOpenState,CntlBrkrScadaCloseState,SetOrder8,ControlSwitchStatusTelemetryRef,IsolatorSwitchStatusTelemetryRef,ControlSwitchStateTransition,IsolatorSwitchStateTransition,HighMVArLimitRef,LowMVArLimitRef,LeadingMVArReservesRef,LaggingMVArReservesRef,ControlModeTelemetryRef,SinglePhTransCurRef,SinglePhSubtransCurRef,ThreePhTransCurRef,ThreePhSubtransCurRef,
9,COLUMBINE CAP 1,No,Yes,Yes,114,Variable,4.8,0,4.8,0,0,1,114,13.0935,12.0959,1,0,OnInBaseCaseAndCa,On,NULL,NULL,NULL,NULL,NULL,NULL,NULL,NULL,120,NULL,NULL,NULL,NULL,4.8,Yes,NULL,Yes,NULL,NULL,NULL,NULL,NULL,NULL,331158,4018,4018,NULL,NULL,NULL,NULL,NULL,NULL,NULL,NULL,NULL,NULL,3,+,In/Out,Normal,NULL,5,5463,NULL,10,+,In/Out,Block,NULL,7,142392,NULL,NO 7 CAPS SW,Open,NULL,Open,NULL,NULL,NULL,0,1,1,35262,NULL,1,NULL,NULL,NULL,NULL,NULL,121935,NULL,NULL,NULL,NULL,
21,ISABELLA CAP 1A,Yes,Yes,Yes,111,Fixed,3.6,0,3.6,0,0,1,111,72.45,66.93,1,0,Off,Off,NULL,NULL,NULL,NULL,NULL,NULL,NULL,NULL,120,NULL,NULL,NULL,NULL,3.6,Yes,NULL,Yes,NULL,NULL,NULL,NULL,NULL,NULL,301319,1026,1026,NULL,NULL,NULL,NULL,NULL,NULL,NULL,NULL,NULL,NULL,NULL,NULL,NULL,NULL,NULL,NULL,NULL,NULL,NULL,NULL,NULL,NULL,NULL,NULL,NULL,NULL,NULL,NULL,NULL,NULL,NULL,NULL,NULL,NULL,NULL,NULL,NULL,NULL,NULL,NULL,NULL,NULL,NULL,NULL,NULL,NULL,NULL,NULL,NULL,
34,EARLIMART CAP 2,No,Yes,Yes,218,Variable,1.5,0,1.5,0,0,1,218,13.125,12.125,1,0,Off,Off,NULL,NULL,NULL,NULL,NULL,NULL,NULL,NULL,120,NULL,NULL,NULL,NULL,1.5,Yes,NULL,Yes,NULL,NULL,NULL,NULL,NULL,NULL,302317,2020,2020,NULL,NULL,NULL,NULL,NULL,NULL,NULL,NULL,NULL,NULL,NULL,NULL,NULL,NULL,NULL,NULL,NULL,NULL,NULL,NULL,NULL,NULL,NULL,NULL,NULL,NULL,NO.2 CAPS SW,Closed,NULL,Closed,NULL,NULL,NULL,0,1,8,224286,NULL,1,NULL,NULL,NULL,NULL,NULL,224288,NULL,NULL,NULL,NULL,
35,POPLAR CAP 3,No,Yes,Yes,116,Variable,4.8,0,4.8,0,0,1,999,13.0935,12.0959,1,0,Off,Off,NULL,NULL,NULL,NULL,NULL,NULL,NULL,NULL,120,NULL,NULL,NULL,NULL,4.8,Yes,NULL,Yes,NULL,NULL,NULL,NULL,NULL,NULL,302321,1123,1123,NULL,NULL,NULL,NULL,NULL,NULL,NULL,NULL,NULL,NULL,NULL,NULL,NULL,NULL,NULL,NULL,NULL,NULL,10,+,Out,Normal,NULL,212,78343,NULL,NO.3 CAP CB,Open,NULL,Open,NULL,NULL,NULL,0,1,8,45399,NULL,1,NULL,NULL,NULL,NULL,NULL,45401,NULL,NULL,NULL,NULL,
49,WALNUT CAP 5,Yes,Yes,Yes,177,Fixed,46.8,0,46.8,0,0,1,177,72.45,66.93,1,0,Off,Off,NULL,NULL,NULL,NULL,NULL,NULL,NULL,NULL,120,NULL,NULL,NULL,NULL,46.8,Yes,NULL,Yes,NULL,NULL,NULL,NULL,NULL,NULL,NULL,140,140,NULL,NULL,NULL,NULL,NULL,NULL,NULL,NULL,NULL,NULL,NULL,NULL,NULL,NULL,NULL,NULL,NULL,NULL,10,+,Out,Block,NULL,1,188828,NULL,NULL,NULL,NULL,NULL,NULL,NULL,NULL,NULL,NULL,NULL,NULL,NULL,NULL,NULL,NULL,NULL,NULL,NULL,NULL,NULL,NULL,NULL,NULL,
50,WALNUT CAP 4,Yes,Yes,Yes,178,Fixed,28.8,0,28.8,0,0,1,178,72.45,66.93,1,0,Off,Off,NULL,NULL,NULL,NULL,NULL,NULL,NULL,NULL,120,NULL,NULL,NULL,NULL,28.8,Yes,NULL,Yes,NULL,NULL,NULL,NULL,NULL,NULL,NULL,140,140,NULL,NULL,NULL,NULL,NULL,NULL,NULL,NULL,NULL,NULL,NULL,NULL,NULL,NULL,NULL,NULL,NULL,NULL,10,+,Out,Block,NULL,1,188824,NULL,NULL,NULL,NULL,NULL,NULL,NULL,NULL,NULL,NULL,NULL,NULL,NULL,NULL,NULL,NULL,NULL,NULL,NULL,NULL,NULL,NULL,NULL,NULL,
51,WALNUT CAP 3,Yes,Yes,Yes,176,Fixed,27,0,27,0,0,1,176,72.45,66.93,1,0,Off,Off,NULL,NULL,NULL,NULL,NULL,NULL,NULL,NULL,120,NULL,NULL,NULL,NULL,27,Yes,NULL,Yes,NULL,NULL,NULL,NULL,NULL,NULL,NULL,140,140,NULL,NULL,NULL,NULL,NULL,NULL,NULL,NULL,NULL,NULL,NULL,NULL,NULL,NULL,NULL,NULL,NULL,NULL,10,+,Out,Block,NULL,1,188820,NULL,NULL,NULL,NULL,NULL,NULL,NULL,NULL,NULL,NULL,NULL,NULL,NULL,NULL,NULL,NULL,NULL,NULL,NULL,NULL,NULL,NULL,NULL,NULL,
52,CORTEZ CAP 1,Yes,Yes,Yes,101,Fixed,10.5,0,10.5,0,0,1,101,72.45,66.93,1,0,Off,Off,NULL,NULL,NULL,NULL,NULL,NULL,NULL,NULL,120,NULL,NULL,NULL,NULL,10.5,Yes,NULL,Yes,NULL,NULL,NULL,NULL,NULL,NULL,NULL,143,143,NULL,NULL,NULL,NULL,NULL,NULL,NULL,NULL,NULL,NULL,NULL,NULL,NULL,NULL,NULL,NULL,NULL,NULL,NULL,NULL,NULL,NULL,NULL,NULL,NULL,NULL,NULL,NULL,NULL,NULL,NULL,NULL,NULL,NULL,NULL,NULL,NULL,NULL,NULL,NULL,NULL,NULL,NULL,NULL,NULL,NULL,NULL,NULL,NULL,
53,INDUSTRY CAP 3,Yes,Yes,Yes,115,Fixed,26.1,0,26.1,0,0,1,115,72.45,66.93,1,0,Off,Off,NULL,NULL,NULL,NULL,NULL,NULL,NULL,NULL,120,NULL,NULL,NULL,NULL,26.1,Yes,NULL,Yes,NULL,NULL,NULL,NULL,NULL,NULL,NULL,147,147,NULL,NULL,NULL,NULL,NULL,NULL,NULL,NULL,NULL,NULL,3,+,In/Out,Normal,NULL,2,1180,NULL,10,+,Out,Block,NULL,9081,203028,NULL,NULL,NULL,NULL,NULL,NULL,NULL,NULL,NULL,NULL,NULL,NULL,NULL,NULL,NULL,NULL,NULL,NULL,NULL,NULL,NULL,NULL,NULL,NULL,
73,VILLA PARK CAP 1AB_PSS,No,Yes,No,20,Variable,29.7,0,59.4,0,0,1,999,72.45,66.93,1,0,Off,Off,NULL,NULL,NULL,NULL,NULL,NULL,NULL,NULL,120,NULL,NULL,NULL,NULL,28.8,Yes,NULL,Yes,NULL,NULL,NULL,NULL,NULL,NULL,NULL,86,86,NULL,NULL,NULL,NULL,NULL,NULL,NULL,NULL,NULL,NULL,NULL,NULL,NULL,NULL,NULL,NULL,NULL,NULL,NULL,NULL,NULL,NULL,NULL,NULL,NULL,NULL,NO.1 CAPS CB!NO.1B CAP SW,Open!Open,NULL!NULL,Open!Open,NULL!NULL,NULL!NULL,NULL!NULL,0!0,1!1,8!9,197695!197696,NULL!NULL,1!1,NULL!NULL,NULL,NULL,NULL,NULL,87148,NULL,NULL,NULL,NULL,
74,VILLA PARK CAP 2AB_PSS,No,Yes,No,70,Variable,29.7,0,59.4,0,0,1,50,72.45,66.93,1,0,Off,Off,NULL,NULL,NULL,NULL,NULL,NULL,NULL,NULL,120,NULL,NULL,NULL,NULL,59.4,Yes,NULL,Yes,NULL,NULL,NULL,NULL,NULL,NULL,NULL,86,86,NULL,NULL,NULL,NULL,NULL,NULL,NULL,NULL,NULL,NULL,NULL,NULL,NULL,NULL,NULL,NULL,NULL,NULL,NULL,NULL,NULL,NULL,NULL,NULL,NULL,NULL,NO.2 CAPS CB!NO.2B CAP SW,Open!Open,NULL!NULL,Open!Open,NULL!NULL,NULL!NULL,NULL!NULL,0!0,1!1,8!9,197707!197708,NULL!NULL,1!1,NULL!NULL,NULL,NULL,NULL,NULL,87150,NULL,NULL,NULL,NULL,
75,VILLA PARK CAP 7AB_PSS,No,Yes,No,73,Variable,28.8,0,57.6,0,0,1,19,72.45,66.93,1,0,Off,Off,NULL,NULL,NULL,NULL,NULL,NULL,NULL,NULL,120,NULL,NULL,NULL,NULL,57.6,Yes,NULL,Yes,NULL,NULL,NULL,NULL,NULL,NULL,NULL,86,86,NULL,NULL,NULL,NULL,NULL,NULL,NULL,NULL,NULL,NULL,NULL,NULL,NULL,NULL,NULL,NULL,NULL,NULL,NULL,NULL,NULL,NULL,NULL,NULL,NULL,NULL,NO.7A CAP SW!NO.7B CAP SW,Open!Open,NULL!NULL,Open!Open,NULL!NULL,NULL!NULL,NULL!NULL,0!0,1!1,5!9,197719!197720,NULL!NULL,1!1,NULL!NULL,NULL,NULL,NULL,NULL,87152,NULL,NULL,NULL,NULL,
168,SOLEMINT CAP 2,No,Yes,Yes,613,Fixed,4.8,0,4.8,0,0,1,997,16.48,15.52,1,0,Off,Off,NULL,NULL,NULL,NULL,NULL,NULL,NULL,NULL,120,NULL,NULL,NULL,NULL,4.8,Yes,NULL,Yes,NULL,NULL,NULL,NULL,NULL,NULL,304508,4029,4029,NULL,NULL,NULL,NULL,NULL,NULL,NULL,NULL,NULL,NULL,3,+,In/Out,Normal,NULL,1,227045,NULL,NULL,NULL,NULL,NULL,NULL,NULL,NULL,NULL,NULL,NULL,NULL,NULL,NULL,NULL,NULL,NULL,NULL,NULL,NULL,NULL,NULL,NULL,NULL,NULL,NULL,NULL,NULL,NULL,NULL,NULL,NULL,
192,VALLEY CAP 4B,Yes,Yes,Yes,150,Fixed,46.8,0,46.8,0,0,1,53,120.75,111.55,1,0,Off,Off,NULL,NULL,NULL,NULL,NULL,NULL,NULL,NULL,120,NULL,NULL,NULL,NULL,46.8,Yes,NULL,Yes,NULL,NULL,NULL,NULL,NULL,NULL,NULL,538,538,NULL,NULL,NULL,NULL,NULL,NULL,NULL,NULL,NULL,NULL,NULL,NULL,NULL,NULL,NULL,NULL,NULL,NULL,NULL,NULL,NULL,NULL,NULL,NULL,NULL,NULL,NULL,NULL,NULL,NULL,NULL,NULL,NULL,NULL,NULL,NULL,NULL,NULL,NULL,NULL,NULL,NULL,NULL,NULL,NULL,NULL,NULL,NULL,NULL,
220,VALLEY RCT 41,Yes,Yes,Yes,602,Fixed,45,-45,0,0,0,1,652,14.49,13.386,1,0,Off,Off,NULL,NULL,NULL,NULL,NULL,NULL,NULL,NULL,120,NULL,NULL,NULL,NULL,-45,Yes,NULL,Yes,NULL,NULL,NULL,NULL,NULL,NULL,NULL,539,539,NULL,NULL,NULL,NULL,NULL,NULL,NULL,NULL,NULL,NULL,NULL,NULL,NULL,NULL,NULL,NULL,NULL,NULL,10,+,Out,Block,NULL,7,180793,NULL,NULL,NULL,NULL,NULL,NULL,NULL,NULL,NULL,NULL,NULL,NULL,NULL,NULL,NULL,NULL,NULL,NULL,NULL,NULL,NULL,NULL,NULL,NULL,
221,VALLEY RCT 42,Yes,Yes,Yes,603,Fixed,45,-45,0,0,0,1,652,14.49,13.386,1,0,Off,Off,NULL,NULL,NULL,NULL,NULL,NULL,NULL,NULL,120,NULL,NULL,NULL,NULL,-45,Yes,NULL,Yes,NULL,NULL,NULL,NULL,NULL,NULL,NULL,539,539,NULL,NULL,NULL,NULL,NULL,NULL,NULL,NULL,NULL,NULL,NULL,NULL,NULL,NULL,NULL,NULL,NULL,NULL,10,+,Out,Block,NULL,7,180796,NULL,NULL,NULL,NULL,NULL,NULL,NULL,NULL,NULL,NULL,NULL,NULL,NULL,NULL,NULL,NULL,NULL,NULL,NULL,NULL,NULL,NULL,NULL,NULL,
222,VALLEY CAP 1,No,Yes,Yes,127,Variable,6,0,6,0,0,1,127,13.0935,12.0959,1,0,Off,Off,NULL,NULL,NULL,NULL,NULL,NULL,NULL,NULL,120,NULL,NULL,NULL,NULL,6,Yes,NULL,Yes,NULL,NULL,NULL,NULL,NULL,NULL,321182,540,540,NULL,NULL,NULL,NULL,NULL,NULL,NULL,NULL,NULL,NULL,NULL,NULL,NULL,NULL,NULL,NULL,NULL,NULL,10,+,Out,Block,NULL,2919,185999,NULL,NO.1 12KV CAP CB,Closed,NULL,Closed,NULL,NULL,NULL,0,1,8,211570,NULL,1,NULL,NULL,NULL,NULL,NULL,226905,NULL,NULL,NULL,NULL,
223,VALLEY CAP 2,Yes,Yes,Yes,106,Fixed,46.8,0,46.8,0,0,1,2,120.75,111.55,1,0,Off,Off,NULL,NULL,NULL,NULL,NULL,NULL,NULL,NULL,120,NULL,NULL,NULL,NULL,46.8,Yes,NULL,Yes,NULL,NULL,NULL,NULL,NULL,NULL,NULL,542,542,NULL,NULL,NULL,NULL,NULL,NULL,NULL,NULL,NULL,NULL,3,+,In/Out,Normal,NULL,2920,186034,NULL,10,+,Out,Block,NULL,2921,186033,NULL,NULL,NULL,NULL,NULL,NULL,NULL,NULL,NULL,NULL,NULL,NULL,NULL,NULL,NULL,NULL,NULL,NULL,NULL,NULL,NULL,NULL,NULL,NULL,
224,VALLEY        3A,No,No,No,316,Fixed,46.8,0,46.8,0,0,1,114,120.75,111.55,1,0,Off,Off,NULL,NULL,NULL,NULL,NULL,NULL,NULL,NULL,120,NULL,NULL,NULL,NULL,46.8,Yes,NULL,No,NULL,NULL,NULL,NULL,NULL,NULL,NULL,542,542,NULL,NULL,NULL,NULL,NULL,NULL,NULL,NULL,NULL,NULL,NULL,NULL,NULL,NULL,NULL,NULL,NULL,NULL,NULL,NULL,NULL,NULL,NULL,NULL,NULL,NULL,NULL,NULL,NULL,NULL,NULL,NULL,NULL,NULL,NULL,NULL,NULL,NULL,NULL,NULL,NULL,NULL,NULL,NULL,NULL,NULL,NULL,NULL,NULL,
225,VALLEY CAP 3AB,Yes,Yes,Yes,116,Variable,46.8,0,93.6,0,0,1,999,531,523,1,0,OnInBaseCaseAndCa,Off,NULL,NULL,NULL,NULL,NULL,NULL,NULL,NULL,120,NULL,NULL,NULL,NULL,46.8,Yes,NULL,Yes,NULL,NULL,NULL,NULL,NULL,NULL,NULL,542,537,NULL,NULL,NULL,NULL,NULL,NULL,NULL,NULL,NULL,NULL,NULL,NULL,NULL,NULL,NULL,NULL,NULL,NULL,NULL,NULL,NULL,NULL,NULL,NULL,NULL,NULL,3A CAP CB 1052!3B CAP CB,Open!Open,NULL!NULL,Open!Open,NULL!NULL,NULL!NULL,NULL!NULL,0!0,1!1,1!2,211652!211653,NULL!NULL,1!1,NULL!NULL,NULL,NULL,NULL,NULL,239704,NULL,NULL,NULL,NULL,
226,ALESSANDRO CAP 3A,Yes,Yes,Yes,10,Fixed,28.8,0,28.8,0,0,1,10,120.75,111.55,1,0,Off,Off,NULL,NULL,NULL,NULL,NULL,NULL,NULL,NULL,120,NULL,NULL,NULL,NULL,28.8,Yes,NULL,Yes,NULL,NULL,NULL,NULL,NULL,NULL,NULL,544,544,NULL,NULL,NULL,NULL,NULL,NULL,NULL,NULL,NULL,NULL,NULL,NULL,NULL,NULL,NULL,NULL,NULL,NULL,NULL,NULL,NULL,NULL,NULL,NULL,NULL,NULL,NULL,NULL,NULL,NULL,NULL,NULL,NULL,NULL,NULL,NULL,NULL,NULL,NULL,NULL,NULL,NULL,NULL,NULL,NULL,NULL,NULL,NULL,NULL,
227,AULD CAP 2,Yes,Yes,Yes,10,Fixed,45,0,45,0,0,1,9,120.75,111.55,1,0,Off,Off,NULL,NULL,NULL,NULL,NULL,NULL,NULL,NULL,120,NULL,NULL,NULL,NULL,45,Yes,NULL,Yes,NULL,NULL,NULL,NULL,NULL,NULL,NULL,545,545,NULL,NULL,NULL,NULL,NULL,NULL,NULL,NULL,NULL,NULL,3,+,In/Out,Normal,NULL,1,175206,NULL,10,+,Out,Block,NULL,2,203364,NULL,NULL,NULL,NULL,NULL,NULL,NULL,NULL,NULL,NULL,NULL,NULL,NULL,NULL,NULL,NULL,NULL,NULL,NULL,NULL,NULL,NULL,NULL,NULL,
228,NEWCOMB CAP 3,Yes,Yes,Yes,52,Variable,29.7,0,29.7,0,0,1,999,120.75,111.55,1,0,Off,Off,NULL,NULL,NULL,NULL,NULL,NULL,NULL,NULL,120,NULL,NULL,NULL,NULL,29.7,Yes,NULL,Yes,NULL,NULL,NULL,NULL,NULL,NULL,NULL,554,554,NULL,NULL,NULL,NULL,NULL,NULL,NULL,NULL,NULL,NULL,3,+,In/Out,Normal,NULL,5,175186,NULL,10,+,Out,Block,NULL,7,205444,NULL,CAP 3 CB,Open,NULL,Open,NULL,NULL,NULL,0,1,1,37769,NULL,1,NULL,NULL,NULL,NULL,NULL,37771,NULL,NULL,NULL,NULL,
292,WHEATLAND CAP 3,Yes,No,Yes,110,Fixed,14.4,0,14.4,0,0,1,110,72.45,66.93,1,0,Off,Off,NULL,NULL,NULL,NULL,NULL,NULL,NULL,NULL,120,NULL,NULL,NULL,NULL,14.4,Yes,NULL,Yes,NULL,NULL,NULL,NULL,NULL,NULL,312879,1049,1049,NULL,NULL,NULL,NULL,NULL,NULL,NULL,NULL,NULL,NULL,NULL,NULL,NULL,NULL,NULL,NULL,NULL,NULL,NULL,NULL,NULL,NULL,NULL,NULL,NULL,NULL,NULL,NULL,NULL,NULL,NULL,NULL,NULL,NULL,NULL,NULL,NULL,NULL,NULL,NULL,NULL,NULL,NULL,NULL,NULL,NULL,NULL,NULL,NULL,
293,VESTAL CAP 3,Yes,No,Yes,301,Fixed,14.4,0,14.4,0,0,1,301,72.45,66.93,1,0,Off,Off,NULL,NULL,NULL,NULL,NULL,NULL,NULL,NULL,120,NULL,NULL,NULL,NULL,14.4,Yes,NULL,Yes,NULL,NULL,NULL,NULL,NULL,NULL,312871,1009,1009,NULL,NULL,NULL,NULL,NULL,NULL,NULL,NULL,NULL,NULL,NULL,NULL,NULL,NULL,NULL,NULL,NULL,NULL,NULL,NULL,NULL,NULL,NULL,NULL,NULL,NULL,NULL,NULL,NULL,NULL,NULL,NULL,NULL,NULL,NULL,NULL,NULL,NULL,NULL,NULL,NULL,NULL,NULL,NULL,NULL,NULL,NULL,NULL,NULL,
303,SAUGUS CAP 1,Yes,No,Yes,171,Fixed,28.8,0,28.8,0,0,1,171,70.14,64.796,1,0,OnInBaseCaseAndCa,On,NULL,NULL,NULL,NULL,NULL,NULL,NULL,NULL,120,NULL,NULL,NULL,NULL,28.8,Yes,NULL,Yes,NULL,NULL,NULL,NULL,NULL,NULL,312865,754,754,NULL,NULL,NULL,NULL,NULL,NULL,NULL,NULL,NULL,NULL,NULL,NULL,NULL,NULL,NULL,NULL,NULL,NULL,NULL,NULL,NULL,NULL,NULL,NULL,NULL,NULL,NULL,NULL,NULL,NULL,NULL,NULL,NULL,NULL,NULL,NULL,NULL,NULL,NULL,NULL,NULL,NULL,NULL,NULL,NULL,NULL,NULL,NULL,NULL,
306,SANTA SUSANA CAP 1,No,Yes,Yes,131,Variable,3,0,3,0,0,1,131,17.43,16.102,1,0,Off,Off,NULL,NULL,NULL,NULL,NULL,NULL,NULL,NULL,120,NULL,NULL,NULL,NULL,3,Yes,NULL,Yes,NULL,NULL,NULL,NULL,NULL,NULL,330344,771,771,NULL,NULL,NULL,NULL,NULL,NULL,NULL,NULL,NULL,NULL,NULL,NULL,NULL,NULL,NULL,NULL,NULL,NULL,NULL,NULL,NULL,NULL,NULL,NULL,NULL,NULL,NO.1 CAPS SW,Closed,NULL,Closed,NULL,NULL,NULL,0,1,8,79837,NULL,1,NULL,NULL,NULL,NULL,NULL,79839,NULL,NULL,NULL,NULL,
307,SANTA SUSANA CAP 3,No,Yes,Yes,132,Variable,3,0,3,0,0,1,132,17.43,16.102,1,0,Off,Off,NULL,NULL,NULL,NULL,NULL,NULL,NULL,NULL,120,NULL,NULL,NULL,NULL,3,Yes,NULL,Yes,NULL,NULL,NULL,NULL,NULL,NULL,330345,771,771,NULL,NULL,NULL,NULL,NULL,NULL,NULL,NULL,NULL,NULL,NULL,NULL,NULL,NULL,NULL,NULL,NULL,NULL,NULL,NULL,NULL,NULL,NULL,NULL,NULL,NULL,NO.3 CAPS SW,Closed,NULL,Closed,NULL,NULL,NULL,0,1,8,79849,NULL,1,NULL,NULL,NULL,NULL,NULL,79851,NULL,NULL,NULL,NULL,
308,SANTA SUSANA CAP 2A,No,Yes,Yes,134,Variable,4.2,0,4.2,0,0,1,134,17.43,16.102,1,0,Off,Off,NULL,NULL,NULL,NULL,NULL,NULL,NULL,NULL,120,NULL,NULL,NULL,NULL,4.2,Yes,NULL,Yes,NULL,NULL,NULL,NULL,NULL,NULL,330346,771,771,NULL,NULL,NULL,NULL,NULL,NULL,NULL,NULL,NULL,NULL,NULL,NULL,NULL,NULL,NULL,NULL,NULL,NULL,NULL,NULL,NULL,NULL,NULL,NULL,NULL,NULL,NO.2A CAPS SW,Closed,NULL,Closed,NULL,NULL,NULL,0,1,8,79841,NULL,1,NULL,NULL,NULL,NULL,NULL,79843,NULL,NULL,NULL,NULL,
309,SANTA SUSANA CAP 2B,No,Yes,Yes,135,Variable,4.2,0,4.2,0,0,1,135,17.43,16.102,1,0,Off,Off,NULL,NULL,NULL,NULL,NULL,NULL,NULL,NULL,120,NULL,NULL,NULL,NULL,4.2,Yes,NULL,Yes,NULL,NULL,NULL,NULL,NULL,NULL,330347,771,771,NULL,NULL,NULL,NULL,NULL,NULL,NULL,NULL,NULL,NULL,NULL,NULL,NULL,NULL,NULL,NULL,NULL,NULL,NULL,NULL,NULL,NULL,NULL,NULL,NULL,NULL,NO.2B CAPS SW,Closed,NULL,Closed,NULL,NULL,NULL,0,1,8,79845,NULL,1,NULL,NULL,NULL,NULL,NULL,79847,NULL,NULL,NULL,NULL,
312,VESTAL CAP 2,Yes,No,Yes,302,Fixed,14.4,0,14.4,0,0,1,302,72.45,66.93,1,0,Off,Off,NULL,NULL,NULL,NULL,NULL,NULL,NULL,NULL,120,NULL,NULL,NULL,NULL,14.4,Yes,NULL,Yes,NULL,NULL,NULL,NULL,NULL,NULL,312872,1009,1009,NULL,NULL,NULL,NULL,NULL,NULL,NULL,NULL,NULL,NULL,NULL,NULL,NULL,NULL,NULL,NULL,NULL,NULL,NULL,NULL,NULL,NULL,NULL,NULL,NULL,NULL,NULL,NULL,NULL,NULL,NULL,NULL,NULL,NULL,NULL,NULL,NULL,NULL,NULL,NULL,NULL,NULL,NULL,NULL,NULL,NULL,NULL,NULL,NULL,
319,VIEJO CAP 1_PSS,No,Yes,No,7,Variable,28.8,0,28.8,0,0,1,7,72.45,66.93,1,0,Off,Off,NULL,NULL,NULL,NULL,NULL,NULL,NULL,NULL,120,NULL,NULL,NULL,NULL,28.8,Yes,NULL,Yes,NULL,NULL,NULL,NULL,NULL,NULL,NULL,658,658,NULL,NULL,NULL,NULL,NULL,NULL,NULL,NULL,NULL,NULL,NULL,NULL,NULL,NULL,NULL,NULL,NULL,NULL,NULL,NULL,NULL,NULL,NULL,NULL,NULL,NULL,NO.1 CAPS CB,Closed,NULL,Closed,NULL,NULL,NULL,0,1,8,193484,NULL,1,NULL,NULL,NULL,NULL,NULL,87457,NULL,NULL,NULL,NULL,
321,VIEJO CAP 2_PSS,No,Yes,No,56,Variable,28.8,0,28.8,0,0,1,56,72.45,66.93,1,0,Off,Off,NULL,NULL,NULL,NULL,NULL,NULL,NULL,NULL,120,NULL,NULL,NULL,NULL,28.8,Yes,NULL,Yes,NULL,NULL,NULL,NULL,NULL,NULL,NULL,658,658,NULL,NULL,NULL,NULL,NULL,NULL,NULL,NULL,NULL,NULL,NULL,NULL,NULL,NULL,NULL,NULL,NULL,NULL,NULL,NULL,NULL,NULL,NULL,NULL,NULL,NULL,NO.2 CAPS CB,Closed,NULL,Closed,NULL,NULL,NULL,0,1,8,193491,NULL,1,NULL,NULL,NULL,NULL,NULL,87459,NULL,NULL,NULL,NULL,
322,VALLEY CAP 4A,Yes,Yes,Yes,132,Fixed,46.8,0,46.8,0,0,1,53,120.75,111.55,1,0,Off,Off,NULL,NULL,NULL,NULL,NULL,NULL,NULL,NULL,120,NULL,NULL,NULL,NULL,46.8,Yes,NULL,Yes,NULL,NULL,NULL,NULL,NULL,NULL,NULL,538,538,NULL,NULL,NULL,NULL,NULL,NULL,NULL,NULL,NULL,NULL,NULL,NULL,NULL,NULL,NULL,NULL,NULL,NULL,NULL,NULL,NULL,NULL,NULL,NULL,NULL,NULL,NULL,NULL,NULL,NULL,NULL,NULL,NULL,NULL,NULL,NULL,NULL,NULL,NULL,NULL,NULL,NULL,NULL,NULL,NULL,NULL,NULL,NULL,NULL,
325,SPRNGVILLE RCT 1B,Yes,Yes,Yes,131,Fixed,22.5,-22.5,0,0,0,1,131,72.45,66.93,1,0,Off,Off,NULL,NULL,NULL,NULL,NULL,NULL,NULL,NULL,120,NULL,NULL,NULL,NULL,-22.5,Yes,NULL,Yes,NULL,NULL,NULL,NULL,NULL,NULL,NULL,987,987,NULL,NULL,NULL,NULL,NULL,NULL,NULL,NULL,NULL,NULL,NULL,NULL,NULL,NULL,NULL,NULL,NULL,NULL,NULL,NULL,NULL,NULL,NULL,NULL,NULL,NULL,NULL,NULL,NULL,NULL,NULL,NULL,NULL,NULL,NULL,NULL,NULL,NULL,NULL,NULL,NULL,NULL,NULL,NULL,NULL,NULL,NULL,NULL,NULL,
328,SPRINGVILLE CAP 2A,Yes,Yes,Yes,137,Fixed,28.8,0,28.8,0,0,1,137,72.45,66.93,1,0,Off,Off,NULL,NULL,NULL,NULL,NULL,NULL,NULL,NULL,120,NULL,NULL,NULL,NULL,28.8,Yes,NULL,Yes,NULL,NULL,NULL,NULL,NULL,NULL,NULL,987,987,NULL,NULL,NULL,NULL,NULL,NULL,NULL,NULL,NULL,NULL,NULL,NULL,NULL,NULL,NULL,NULL,NULL,NULL,NULL,NULL,NULL,NULL,NULL,NULL,NULL,NULL,NULL,NULL,NULL,NULL,NULL,NULL,NULL,NULL,NULL,NULL,NULL,NULL,NULL,NULL,NULL,NULL,NULL,NULL,NULL,NULL,NULL,NULL,NULL,
329,SPRNGVILLE RCT 2B,Yes,Yes,Yes,135,Fixed,22.5,-22.5,0,0,0,1,135,72.45,66.93,1,0,Off,Off,NULL,NULL,NULL,NULL,NULL,NULL,NULL,NULL,120,NULL,NULL,NULL,NULL,-22.5,Yes,NULL,Yes,NULL,NULL,NULL,NULL,NULL,NULL,NULL,987,987,NULL,NULL,NULL,NULL,NULL,NULL,NULL,NULL,NULL,NULL,NULL,NULL,NULL,NULL,NULL,NULL,NULL,NULL,NULL,NULL,NULL,NULL,NULL,NULL,NULL,NULL,NULL,NULL,NULL,NULL,NULL,NULL,NULL,NULL,NULL,NULL,NULL,NULL,NULL,NULL,NULL,NULL,NULL,NULL,NULL,NULL,NULL,NULL,NULL,
333,SKYLARK CAP 3,Yes,Yes,Yes,114,Fixed,28.8,0,28.8,0,0,1,114,72.45,66.93,1,0,Off,Off,NULL,NULL,NULL,NULL,NULL,NULL,NULL,NULL,120,NULL,NULL,NULL,NULL,28.8,Yes,NULL,Yes,NULL,NULL,NULL,NULL,NULL,NULL,NULL,557,2,NULL,NULL,NULL,NULL,NULL,NULL,NULL,NULL,NULL,NULL,3,+,In/Out,Normal,NULL,8904,183768,NULL,10,+,Out,Block,NULL,8916,175007,NULL,NULL,NULL,NULL,NULL,NULL,NULL,NULL,NULL,NULL,NULL,NULL,NULL,NULL,NULL,NULL,NULL,NULL,NULL,NULL,NULL,NULL,NULL,NULL,
337,WALNUT CAP 8,Yes,Yes,Yes,31,Fixed,28.8,0,28.8,0,0,1,31,72.45,66.93,1,0,Off,Off,NULL,NULL,NULL,NULL,NULL,NULL,NULL,NULL,120,NULL,NULL,NULL,NULL,28.8,Yes,NULL,Yes,NULL,NULL,NULL,NULL,NULL,NULL,NULL,140,140,NULL,NULL,NULL,NULL,NULL,NULL,NULL,NULL,NULL,NULL,NULL,NULL,NULL,NULL,NULL,NULL,NULL,NULL,10,+,Out,Block,NULL,1,175227,NULL,NULL,NULL,NULL,NULL,NULL,NULL,NULL,NULL,NULL,NULL,NULL,NULL,NULL,NULL,NULL,NULL,NULL,NULL,NULL,NULL,NULL,NULL,NULL,
338,PAUBA CAP 3,Yes,Yes,Yes,111,Variable,28.8,0,28.8,0,0,1,999,120.75,111.55,1,0,Off,Off,NULL,NULL,NULL,NULL,NULL,NULL,NULL,NULL,120,NULL,NULL,NULL,NULL,28.8,Yes,NULL,Yes,NULL,NULL,NULL,NULL,NULL,NULL,NULL,556,556,NULL,NULL,NULL,NULL,NULL,NULL,NULL,NULL,NULL,NULL,NULL,NULL,NULL,NULL,NULL,NULL,NULL,NULL,10,+,Out,Block,NULL,8898,181882,NULL,CAP 3 CB,Open,NULL,Open,NULL,NULL,NULL,0,1,1,37555,NULL,1,NULL,NULL,NULL,NULL,NULL,37557,NULL,NULL,NULL,NULL,
354,CAL CEMENT CAP 1,Yes,Yes,Yes,112,Fixed,18,0,18,0,0,1,112,72.45,66.93,1,0,Off,Off,NULL,NULL,NULL,NULL,NULL,NULL,NULL,NULL,120,NULL,NULL,NULL,NULL,18,Yes,NULL,Yes,NULL,NULL,NULL,NULL,NULL,NULL,NULL,862,862,NULL,NULL,NULL,NULL,NULL,NULL,NULL,NULL,NULL,NULL,NULL,NULL,NULL,NULL,NULL,NULL,NULL,NULL,NULL,NULL,NULL,NULL,NULL,NULL,NULL,NULL,NULL,NULL,NULL,NULL,NULL,NULL,NULL,NULL,NULL,NULL,NULL,NULL,NULL,NULL,NULL,NULL,NULL,NULL,NULL,NULL,NULL,NULL,NULL,
355,GOLDTOWN CAP 2,Yes,Yes,Yes,101,Fixed,12.6,0,12.6,0,0,1,101,70.56,65.184,1,0,Off,Off,NULL,NULL,NULL,NULL,NULL,NULL,NULL,NULL,120,NULL,NULL,NULL,NULL,12.6,Yes,NULL,Yes,NULL,NULL,NULL,NULL,NULL,NULL,NULL,868,868,NULL,NULL,NULL,NULL,NULL,NULL,NULL,NULL,NULL,NULL,3,+,In/Out,Normal,NULL,5,225804,NULL,10,+,Out,Block,NULL,7,225802,NULL,NULL,NULL,NULL,NULL,NULL,NULL,NULL,NULL,NULL,NULL,NULL,NULL,NULL,NULL,NULL,NULL,NULL,NULL,NULL,NULL,NULL,NULL,NULL,
357,MONOLITH CAP 2C,Yes,Yes,Yes,14,Fixed,14.4,0,14.4,0,0,1,14,68.775,63.535,1,0,Off,Off,NULL,NULL,NULL,NULL,NULL,NULL,NULL,NULL,120,NULL,NULL,NULL,NULL,14.4,Yes,NULL,Yes,NULL,NULL,NULL,NULL,NULL,NULL,301270,873,873,NULL,NULL,NULL,NULL,NULL,NULL,NULL,NULL,NULL,NULL,NULL,NULL,NULL,NULL,NULL,NULL,NULL,NULL,NULL,NULL,NULL,NULL,NULL,NULL,NULL,NULL,NULL,NULL,NULL,NULL,NULL,NULL,NULL,NULL,NULL,NULL,NULL,NULL,NULL,NULL,NULL,NULL,NULL,NULL,NULL,NULL,NULL,NULL,NULL,
361,VINCENT RCT 11,Yes,Yes,Yes,601,Fixed,45,-45,0,0,0,1,1,14.49,13.386,1,0,Off,Off,NULL,NULL,NULL,NULL,NULL,NULL,NULL,NULL,120,NULL,NULL,NULL,NULL,-45,Yes,NULL,Yes,NULL,NULL,NULL,NULL,NULL,NULL,NULL,898,898,NULL,NULL,NULL,NULL,NULL,NULL,NULL,NULL,NULL,NULL,NULL,NULL,NULL,NULL,NULL,NULL,NULL,NULL,10,+,Out,Block,NULL,1,7583,NULL,NULL,NULL,NULL,NULL,NULL,NULL,NULL,NULL,NULL,NULL,NULL,NULL,NULL,NULL,NULL,NULL,NULL,NULL,NULL,NULL,NULL,NULL,NULL,
362,VINCENT RCT 12,Yes,Yes,Yes,602,Fixed,45,-45,0,0,0,1,1,14.49,13.386,1,0,Off,Off,NULL,NULL,NULL,NULL,NULL,NULL,NULL,NULL,120,NULL,NULL,NULL,NULL,-45,Yes,NULL,Yes,NULL,NULL,NULL,NULL,NULL,NULL,NULL,898,898,NULL,NULL,NULL,NULL,NULL,NULL,NULL,NULL,NULL,NULL,NULL,NULL,NULL,NULL,NULL,NULL,NULL,NULL,10,+,Out,Block,NULL,1,7584,NULL,NULL,NULL,NULL,NULL,NULL,NULL,NULL,NULL,NULL,NULL,NULL,NULL,NULL,NULL,NULL,NULL,NULL,NULL,NULL,NULL,NULL,NULL,NULL,
363,VINCENT RCT 13,Yes,Yes,Yes,603,Fixed,45,-45,0,0,0,1,1,14.49,13.386,1,0,Off,Off,NULL,NULL,NULL,NULL,NULL,NULL,NULL,NULL,120,NULL,NULL,NULL,NULL,-45,Yes,NULL,Yes,NULL,NULL,NULL,NULL,NULL,NULL,NULL,898,898,NULL,NULL,NULL,NULL,NULL,NULL,NULL,NULL,NULL,NULL,NULL,NULL,NULL,NULL,NULL,NULL,NULL,NULL,10,+,Out,Block,NULL,1,7585,NULL,NULL,NULL,NULL,NULL,NULL,NULL,NULL,NULL,NULL,NULL,NULL,NULL,NULL,NULL,NULL,NULL,NULL,NULL,NULL,NULL,NULL,NULL,NULL,
364,VINCENT RCT 14,Yes,Yes,Yes,604,Fixed,45,-45,0,0,0,1,1,14.49,13.386,1,0,Off,Off,NULL,NULL,NULL,NULL,NULL,NULL,NULL,NULL,120,NULL,NULL,NULL,NULL,-45,Yes,NULL,Yes,NULL,NULL,NULL,NULL,NULL,NULL,NULL,898,898,NULL,NULL,NULL,NULL,NULL,NULL,NULL,NULL,NULL,NULL,NULL,NULL,NULL,NULL,NULL,NULL,NULL,NULL,10,+,Out,Block,NULL,1,7586,NULL,NULL,NULL,NULL,NULL,NULL,NULL,NULL,NULL,NULL,NULL,NULL,NULL,NULL,NULL,NULL,NULL,NULL,NULL,NULL,NULL,NULL,NULL,NULL,
365,VINCENT RCT 22,Yes,Yes,Yes,608,Fixed,45,-45,0,0,0,1,2,14.49,13.386,1,0,Off,Off,NULL,NULL,NULL,NULL,NULL,NULL,NULL,NULL,120,NULL,NULL,NULL,NULL,-45,Yes,NULL,Yes,NULL,NULL,NULL,NULL,NULL,NULL,NULL,898,898,NULL,NULL,NULL,NULL,NULL,NULL,NULL,NULL,NULL,NULL,NULL,NULL,NULL,NULL,NULL,NULL,NULL,NULL,10,+,Out,Block,NULL,1,7587,NULL,NULL,NULL,NULL,NULL,NULL,NULL,NULL,NULL,NULL,NULL,NULL,NULL,NULL,NULL,NULL,NULL,NULL,NULL,NULL,NULL,NULL,NULL,NULL,
366,VINCENT RCT 23,Yes,Yes,Yes,609,Fixed,45,-45,0,0,0,1,2,14.49,13.386,1,0,Off,Off,NULL,NULL,NULL,NULL,NULL,NULL,NULL,NULL,120,NULL,NULL,NULL,NULL,-45,Yes,NULL,Yes,NULL,NULL,NULL,NULL,NULL,NULL,NULL,898,898,NULL,NULL,NULL,NULL,NULL,NULL,NULL,NULL,NULL,NULL,NULL,NULL,NULL,NULL,NULL,NULL,NULL,NULL,10,+,Out,Block,NULL,1,7588,NULL,NULL,NULL,NULL,NULL,NULL,NULL,NULL,NULL,NULL,NULL,NULL,NULL,NULL,NULL,NULL,NULL,NULL,NULL,NULL,NULL,NULL,NULL,NULL,
367,LAKEVIEW CAP 5,Yes,Yes,Yes,110,Fixed,28.8,0,28.8,0,0,1,107,120.75,111.55,1,0,Off,Off,NULL,NULL,NULL,NULL,NULL,NULL,NULL,NULL,120,NULL,NULL,NULL,NULL,28.8,Yes,NULL,Yes,NULL,NULL,NULL,NULL,NULL,NULL,NULL,1473,1473,NULL,NULL,NULL,NULL,NULL,NULL,NULL,NULL,NULL,NULL,3,+,In/Out,Normal,NULL,1,191990,NULL,10,+,Out,Block,NULL,8898,191988,NULL,NULL,NULL,NULL,NULL,NULL,NULL,NULL,NULL,NULL,NULL,NULL,NULL,NULL,NULL,NULL,NULL,NULL,NULL,NULL,NULL,NULL,NULL,NULL,
368,VINCENT RCT 24,Yes,Yes,Yes,610,Fixed,45,-45,0,0,0,1,2,14.49,13.386,1,0,Off,Off,NULL,NULL,NULL,NULL,NULL,NULL,NULL,NULL,120,NULL,NULL,NULL,NULL,-45,Yes,NULL,Yes,NULL,NULL,NULL,NULL,NULL,NULL,NULL,898,898,NULL,NULL,NULL,NULL,NULL,NULL,NULL,NULL,NULL,NULL,NULL,NULL,NULL,NULL,NULL,NULL,NULL,NULL,10,+,Out,Block,NULL,1,7589,NULL,NULL,NULL,NULL,NULL,NULL,NULL,NULL,NULL,NULL,NULL,NULL,NULL,NULL,NULL,NULL,NULL,NULL,NULL,NULL,NULL,NULL,NULL,NULL,
369,VINCENT RCT 25,Yes,Yes,Yes,611,Fixed,45,-45,0,0,0,1,2,14.49,13.386,1,0,Off,Off,NULL,NULL,NULL,NULL,NULL,NULL,NULL,NULL,120,NULL,NULL,NULL,NULL,-45,Yes,NULL,Yes,NULL,NULL,NULL,NULL,NULL,NULL,NULL,898,898,NULL,NULL,NULL,NULL,NULL,NULL,NULL,NULL,NULL,NULL,NULL,NULL,NULL,NULL,NULL,NULL,NULL,NULL,10,+,Out,Block,NULL,1,7590,NULL,NULL,NULL,NULL,NULL,NULL,NULL,NULL,NULL,NULL,NULL,NULL,NULL,NULL,NULL,NULL,NULL,NULL,NULL,NULL,NULL,NULL,NULL,NULL,
370,VINCENT RCT 41,Yes,Yes,Yes,605,Fixed,45,-45,0,0,0,1,4,14.49,13.386,1,0,Off,Off,NULL,NULL,NULL,NULL,NULL,NULL,NULL,NULL,120,NULL,NULL,NULL,NULL,-45,Yes,NULL,Yes,NULL,NULL,NULL,NULL,NULL,NULL,NULL,898,898,NULL,NULL,NULL,NULL,NULL,NULL,NULL,NULL,NULL,NULL,NULL,NULL,NULL,NULL,NULL,NULL,NULL,NULL,10,+,Out,Block,NULL,1,7591,NULL,NULL,NULL,NULL,NULL,NULL,NULL,NULL,NULL,NULL,NULL,NULL,NULL,NULL,NULL,NULL,NULL,NULL,NULL,NULL,NULL,NULL,NULL,NULL,
371,VINCENT RCT 42,Yes,Yes,Yes,606,Fixed,45,-45,0,0,0,1,4,14.49,13.386,1,0,Off,Off,NULL,NULL,NULL,NULL,NULL,NULL,NULL,NULL,120,NULL,NULL,NULL,NULL,-45,Yes,NULL,Yes,NULL,NULL,NULL,NULL,NULL,NULL,NULL,898,898,NULL,NULL,NULL,NULL,NULL,NULL,NULL,NULL,NULL,NULL,NULL,NULL,NULL,NULL,NULL,NULL,NULL,NULL,10,+,Out,Block,NULL,1,7592,NULL,NULL,NULL,NULL,NULL,NULL,NULL,NULL,NULL,NULL,NULL,NULL,NULL,NULL,NULL,NULL,NULL,NULL,NULL,NULL,NULL,NULL,NULL,NULL,
372,VINCENT RCT 43,Yes,Yes,Yes,612,Fixed,45,-45,0,0,0,1,4,14.49,13.386,1,0,Off,Off,NULL,NULL,NULL,NULL,NULL,NULL,NULL,NULL,120,NULL,NULL,NULL,NULL,-45,Yes,NULL,Yes,NULL,NULL,NULL,NULL,NULL,NULL,NULL,898,898,NULL,NULL,NULL,NULL,NULL,NULL,NULL,NULL,NULL,NULL,NULL,NULL,NULL,NULL,NULL,NULL,NULL,NULL,10,+,Out,Block,NULL,1,7593,NULL,NULL,NULL,NULL,NULL,NULL,NULL,NULL,NULL,NULL,NULL,NULL,NULL,NULL,NULL,NULL,NULL,NULL,NULL,NULL,NULL,NULL,NULL,NULL,
373,VINCENT RCT 44,Yes,Yes,Yes,613,Fixed,45,-45,0,0,0,1,4,14.49,13.386,1,0,Off,Off,NULL,NULL,NULL,NULL,NULL,NULL,NULL,NULL,120,NULL,NULL,NULL,NULL,-45,Yes,NULL,Yes,NULL,NULL,NULL,NULL,NULL,NULL,NULL,898,898,NULL,NULL,NULL,NULL,NULL,NULL,NULL,NULL,NULL,NULL,NULL,NULL,NULL,NULL,NULL,NULL,NULL,NULL,10,+,Out,Block,NULL,1,7594,NULL,NULL,NULL,NULL,NULL,NULL,NULL,NULL,NULL,NULL,NULL,NULL,NULL,NULL,NULL,NULL,NULL,NULL,NULL,NULL,NULL,NULL,NULL,NULL,
374,VINCENT PSD RCT,Yes,Yes,Yes,614,Fixed,.01,-.01,0,0,0,1,3,14.49,13.386,1,0,Off,Off,NULL,NULL,NULL,NULL,NULL,NULL,NULL,NULL,120,NULL,NULL,NULL,NULL,.01,Yes,NULL,Yes,NULL,NULL,NULL,NULL,NULL,NULL,NULL,898,898,NULL,NULL,NULL,NULL,NULL,NULL,NULL,NULL,NULL,NULL,NULL,NULL,NULL,NULL,NULL,NULL,NULL,NULL,NULL,NULL,NULL,NULL,NULL,NULL,NULL,NULL,NULL,NULL,NULL,NULL,NULL,NULL,NULL,NULL,NULL,NULL,NULL,NULL,NULL,NULL,NULL,NULL,NULL,NULL,NULL,NULL,NULL,NULL,NULL,
389,ISABELLA CAP 1B,Yes,Yes,Yes,114,Fixed,3.6,0,3.6,0,0,1,114,72.45,66.93,1,0,Off,Off,NULL,NULL,NULL,NULL,NULL,NULL,NULL,NULL,120,NULL,NULL,NULL,NULL,3.6,Yes,NULL,Yes,NULL,NULL,NULL,NULL,NULL,NULL,301320,1026,1026,NULL,NULL,NULL,NULL,NULL,NULL,NULL,NULL,NULL,NULL,NULL,NULL,NULL,NULL,NULL,NULL,NULL,NULL,NULL,NULL,NULL,NULL,NULL,NULL,NULL,NULL,NULL,NULL,NULL,NULL,NULL,NULL,NULL,NULL,NULL,NULL,NULL,NULL,NULL,NULL,NULL,NULL,NULL,NULL,NULL,NULL,NULL,NULL,NULL,
393,STRATHMORE CAP 2,No,Yes,Yes,16,Variable,4.8,0,4.8,0,0,1,16,13.0935,12.0959,1,0,Off,Off,NULL,NULL,NULL,NULL,NULL,NULL,NULL,NULL,120,NULL,NULL,NULL,NULL,4.8,Yes,NULL,Yes,NULL,NULL,NULL,NULL,NULL,NULL,302219,4226,4226,NULL,NULL,NULL,NULL,NULL,NULL,NULL,NULL,NULL,NULL,3,+,In/Out,Normal,NULL,1,35181,NULL,10,+,Out,Block,NULL,7,35179,NULL,NO.2 CAP 12KV BK CB,Closed,NULL,Closed,NULL,NULL,NULL,0,1,8,98885,NULL,1,NULL,NULL,NULL,NULL,NULL,98983,NULL,NULL,NULL,NULL,
404,SAUGUS CAP 7,Yes,No,Yes,192,Fixed,28.8,0,28.8,0,0,1,192,70.14,64.796,1,0,Off,On,NULL,NULL,NULL,NULL,NULL,NULL,NULL,NULL,120,NULL,NULL,NULL,NULL,28.8,Yes,NULL,Yes,NULL,NULL,NULL,NULL,NULL,NULL,312866,754,754,NULL,NULL,NULL,NULL,NULL,NULL,NULL,NULL,NULL,NULL,NULL,NULL,NULL,NULL,NULL,NULL,NULL,NULL,NULL,NULL,NULL,NULL,NULL,NULL,NULL,NULL,NULL,NULL,NULL,NULL,NULL,NULL,NULL,NULL,NULL,NULL,NULL,NULL,NULL,NULL,NULL,NULL,NULL,NULL,NULL,NULL,NULL,NULL,NULL,
409,IMP VLY BK 82 R1,Yes,Yes,Yes,102,Fixed,45,-45,0,0,0,1,102,12.6,11.64,1,0,Off,Off,NULL,NULL,NULL,NULL,NULL,NULL,NULL,NULL,120,NULL,NULL,NULL,NULL,-45,Yes,NULL,Yes,NULL,NULL,NULL,NULL,NULL,NULL,NULL,1555,1555,NULL,NULL,NULL,NULL,NULL,NULL,NULL,NULL,NULL,NULL,NULL,NULL,NULL,NULL,NULL,NULL,NULL,NULL,NULL,NULL,NULL,NULL,NULL,NULL,NULL,NULL,NULL,NULL,NULL,NULL,NULL,NULL,NULL,NULL,NULL,NULL,NULL,NULL,NULL,NULL,NULL,NULL,NULL,NULL,NULL,NULL,NULL,NULL,NULL,
421,SPRINGVILLE CAP 1A,Yes,Yes,Yes,129,Fixed,28.8,0,28.8,0,0,1,129,72.45,66.93,1,0,Off,Off,NULL,NULL,NULL,NULL,NULL,NULL,NULL,NULL,120,NULL,NULL,NULL,NULL,28.8,Yes,NULL,Yes,NULL,NULL,NULL,NULL,NULL,NULL,NULL,987,987,NULL,NULL,NULL,NULL,NULL,NULL,NULL,NULL,NULL,NULL,NULL,NULL,NULL,NULL,NULL,NULL,NULL,NULL,NULL,NULL,NULL,NULL,NULL,NULL,NULL,NULL,NULL,NULL,NULL,NULL,NULL,NULL,NULL,NULL,NULL,NULL,NULL,NULL,NULL,NULL,NULL,NULL,NULL,NULL,NULL,NULL,NULL,NULL,NULL,
424,PORTERVILLE CAP 3,No,Yes,Yes,137,Variable,4.8,0,4.8,0,0,1,137,12.6,11.64,1,0,Off,Off,NULL,NULL,NULL,NULL,NULL,NULL,NULL,NULL,120,NULL,NULL,NULL,NULL,4.8,Yes,NULL,Yes,NULL,NULL,NULL,NULL,NULL,NULL,321485,998,998,NULL,NULL,NULL,NULL,NULL,NULL,NULL,NULL,NULL,NULL,3,+,In/Out,Normal,NULL,11,140975,NULL,NULL,NULL,NULL,NULL,NULL,NULL,NULL,NULL,NO.3 12KV CAP CB,Closed,NULL,Closed,NULL,NULL,NULL,0,1,8,159202,NULL,1,NULL,NULL,NULL,NULL,NULL,159142,NULL,NULL,NULL,NULL,
425,PORTERVILLE CAP 4A,No,Yes,Yes,140,Variable,3.6,0,3.6,0,0,1,140,12.6,11.64,1,0,Off,Off,NULL,NULL,NULL,NULL,NULL,NULL,NULL,NULL,120,NULL,NULL,NULL,NULL,3.6,Yes,NULL,Yes,NULL,NULL,NULL,NULL,NULL,NULL,321486,998,998,NULL,NULL,NULL,NULL,NULL,NULL,NULL,NULL,NULL,NULL,3,+,In/Out,Normal,NULL,11,140976,NULL,NULL,NULL,NULL,NULL,NULL,NULL,NULL,NULL,NO.4A 12KV CAP CB,Closed,NULL,Closed,NULL,NULL,NULL,0,1,8,159203,NULL,1,NULL,NULL,NULL,NULL,NULL,159143,NULL,NULL,NULL,NULL,
426,PORTERVILLE CAP 4B,No,Yes,Yes,142,Variable,3.6,0,3.6,0,0,1,142,12.6,11.64,1,0,Off,Off,NULL,NULL,NULL,NULL,NULL,NULL,NULL,NULL,120,NULL,NULL,NULL,NULL,3.6,Yes,NULL,Yes,NULL,NULL,NULL,NULL,NULL,NULL,321487,998,998,NULL,NULL,NULL,NULL,NULL,NULL,NULL,NULL,NULL,NULL,3,+,In/Out,Normal,NULL,11,140977,NULL,NULL,NULL,NULL,NULL,NULL,NULL,NULL,NULL,NO.4B 12KV CAP CB,Closed,NULL,Closed,NULL,NULL,NULL,0,1,8,159204,NULL,1,NULL,NULL,NULL,NULL,NULL,159144,NULL,NULL,NULL,NULL,
427,PORTERVILLE CAP 2,No,Yes,Yes,120,Variable,2.1,0,2.1,0,0,1,120,4.41,4.074,1,0,Off,Off,NULL,NULL,NULL,NULL,NULL,NULL,NULL,NULL,120,NULL,NULL,NULL,NULL,2.1,Yes,NULL,Yes,NULL,NULL,NULL,NULL,NULL,NULL,321488,999,999,NULL,NULL,NULL,NULL,NULL,NULL,NULL,NULL,NULL,NULL,3,+,In/Out,Block,NULL,1,141013,NULL,NULL,NULL,NULL,NULL,NULL,NULL,NULL,NULL,NO.2 4KV CAP CB,Closed,NULL,Closed,NULL,NULL,NULL,0,1,8,159201,NULL,1,NULL,NULL,NULL,NULL,NULL,159141,NULL,NULL,NULL,NULL,
431,POPLAR CAP 1,No,Yes,Yes,612,Variable,4.8,0,4.8,0,0,1,999,13.0935,12.0959,1,0,Off,Off,NULL,NULL,NULL,NULL,NULL,NULL,NULL,NULL,120,NULL,NULL,NULL,NULL,4.8,Yes,NULL,Yes,NULL,NULL,NULL,NULL,NULL,NULL,327717,1123,1123,NULL,NULL,NULL,NULL,NULL,NULL,NULL,NULL,NULL,NULL,NULL,NULL,NULL,NULL,NULL,NULL,NULL,NULL,10,+,Out,Normal,NULL,212,78340,NULL,NO.1 CAP CB,Open,NULL,Open,NULL,NULL,NULL,0,1,8,160685,NULL,1,NULL,NULL,NULL,NULL,NULL,16914,NULL,NULL,NULL,NULL,
434,MODENA CAP 2,No,Yes,Yes,621,Variable,4.8,0,4.8,0,0,1,999,12.6,11.64,1,0,Off,Off,NULL,NULL,NULL,NULL,NULL,NULL,NULL,NULL,120,NULL,NULL,NULL,NULL,4.8,Yes,NULL,Yes,NULL,NULL,NULL,NULL,NULL,NULL,322987,1125,1125,NULL,NULL,NULL,NULL,NULL,NULL,NULL,NULL,NULL,NULL,NULL,NULL,NULL,NULL,NULL,NULL,NULL,NULL,10,+,Out,Block,NULL,2,121043,NULL,N1 CAP CB,Open,NULL,Open,NULL,NULL,NULL,0,1,1,179454,NULL,1,NULL,NULL,NULL,NULL,NULL,179456,NULL,NULL,NULL,NULL,
435,MODENA CAP 1,No,Yes,Yes,611,Variable,6,0,6,0,0,1,500,12.6,11.64,1,0,Off,Off,NULL,NULL,NULL,NULL,NULL,NULL,NULL,NULL,120,NULL,NULL,NULL,NULL,6,Yes,NULL,Yes,NULL,NULL,NULL,NULL,NULL,NULL,322988,1125,1125,NULL,NULL,NULL,NULL,NULL,NULL,NULL,NULL,NULL,NULL,NULL,NULL,NULL,NULL,NULL,NULL,NULL,NULL,10,+,Out,Block,NULL,1,121040,NULL,N1 CAP CB,Open,NULL,Open,NULL,NULL,NULL,0,1,1,179447,NULL,1,NULL,NULL,NULL,NULL,NULL,179449,NULL,NULL,NULL,NULL,
436,MODENA CAP 3,No,Yes,Yes,632,Variable,4.8,0,4.8,0,0,1,997,12.6,11.64,1,0,Off,Off,NULL,NULL,NULL,NULL,NULL,NULL,NULL,NULL,120,NULL,NULL,NULL,NULL,4.8,Yes,NULL,Yes,NULL,NULL,NULL,NULL,NULL,NULL,322989,1125,1125,NULL,NULL,NULL,NULL,NULL,NULL,NULL,NULL,NULL,NULL,NULL,NULL,NULL,NULL,NULL,NULL,NULL,NULL,10,+,Out,Block,NULL,3,95168,NULL,N1 CAP CB,Open,NULL,Open,NULL,NULL,NULL,0,1,1,87329,NULL,1,NULL,NULL,NULL,NULL,NULL,87331,NULL,NULL,NULL,NULL,
438,VIEJO CAP 5_PSS,No,Yes,No,122,Variable,28.8,0,28.8,0,0,1,122,72.45,66.93,1,0,Off,Off,NULL,NULL,NULL,NULL,NULL,NULL,NULL,NULL,120,NULL,NULL,NULL,NULL,28.8,Yes,NULL,Yes,NULL,NULL,NULL,NULL,NULL,NULL,NULL,658,658,NULL,NULL,NULL,NULL,NULL,NULL,NULL,NULL,NULL,NULL,NULL,NULL,NULL,NULL,NULL,NULL,NULL,NULL,NULL,NULL,NULL,NULL,NULL,NULL,NULL,NULL,NO.5 CAPS CB,Closed,NULL,Closed,NULL,NULL,NULL,0,1,8,8919,NULL,1,NULL,NULL,NULL,NULL,NULL,8921,NULL,NULL,NULL,NULL,
440,BLISS CAP 5A,Yes,Yes,Yes,115,Fixed,12.6,0,12.6,0,0,1,115,72.45,66.93,1,0,Off,Off,NULL,NULL,NULL,NULL,NULL,NULL,NULL,NULL,120,NULL,NULL,NULL,NULL,12.6,Yes,NULL,Yes,NULL,NULL,NULL,NULL,NULL,NULL,NULL,990,990,NULL,NULL,NULL,NULL,NULL,NULL,NULL,NULL,NULL,NULL,NULL,NULL,NULL,NULL,NULL,NULL,NULL,NULL,NULL,NULL,NULL,NULL,NULL,NULL,NULL,NULL,NULL,NULL,NULL,NULL,NULL,NULL,NULL,NULL,NULL,NULL,NULL,NULL,NULL,NULL,NULL,NULL,NULL,NULL,NULL,NULL,NULL,NULL,NULL,
441,BLISS CAP 5B,Yes,Yes,Yes,118,Fixed,12.6,0,12.6,0,0,1,118,72.45,66.93,1,0,Off,Off,NULL,NULL,NULL,NULL,NULL,NULL,NULL,NULL,120,NULL,NULL,NULL,NULL,12.6,Yes,NULL,Yes,NULL,NULL,NULL,NULL,NULL,NULL,NULL,990,990,NULL,NULL,NULL,NULL,NULL,NULL,NULL,NULL,NULL,NULL,NULL,NULL,NULL,NULL,NULL,NULL,NULL,NULL,NULL,NULL,NULL,NULL,NULL,NULL,NULL,NULL,NULL,NULL,NULL,NULL,NULL,NULL,NULL,NULL,NULL,NULL,NULL,NULL,NULL,NULL,NULL,NULL,NULL,NULL,NULL,NULL,NULL,NULL,NULL,
442,BLISS CAP 1,No,Yes,Yes,124,Variable,4.8,0,4.8,0,0,1,124,13.0935,12.0959,1,0,Off,Off,NULL,NULL,NULL,NULL,NULL,NULL,NULL,NULL,120,NULL,NULL,NULL,NULL,4.8,Yes,NULL,Yes,NULL,NULL,NULL,NULL,NULL,NULL,327224,1180,1180,NULL,NULL,NULL,NULL,NULL,NULL,NULL,NULL,NULL,NULL,NULL,NULL,NULL,NULL,NULL,NULL,NULL,NULL,3,+,In/Out,Normal,NULL,22,216385,NULL,CAP 1 CB,Open,NULL,Open,NULL,NULL,NULL,0,1,10,9620,NULL,1,NULL,NULL,NULL,NULL,NULL,265635,NULL,NULL,NULL,NULL,
443,BLISS CAP 4,No,Yes,Yes,126,Variable,4.8,0,4.8,0,0,1,126,13.0935,12.0959,1,0,Off,Off,NULL,NULL,NULL,NULL,NULL,NULL,NULL,NULL,120,NULL,NULL,NULL,NULL,4.8,Yes,NULL,Yes,NULL,NULL,NULL,NULL,NULL,NULL,327225,1180,1180,NULL,NULL,NULL,NULL,NULL,NULL,NULL,NULL,NULL,NULL,NULL,NULL,NULL,NULL,NULL,NULL,NULL,NULL,3,+,In/Out,Normal,NULL,22,216389,NULL,CAP 4 CB,Open,NULL,Open,NULL,NULL,NULL,0,1,11,265637,NULL,1,NULL,NULL,NULL,NULL,NULL,265639,NULL,NULL,NULL,NULL,
456,FOGARTY CAP 5,Yes,Yes,Yes,802,Fixed,46.8,0,46.8,0,0,1,802,120.75,111.55,1,0,Off,Off,NULL,NULL,NULL,NULL,NULL,NULL,NULL,NULL,120,NULL,NULL,NULL,NULL,46.8,Yes,NULL,Yes,NULL,NULL,NULL,NULL,NULL,NULL,NULL,1190,1190,NULL,NULL,NULL,NULL,NULL,NULL,NULL,NULL,NULL,NULL,3,-,In/Out,Normal,NULL,1,217204,NULL,10,+,Out,Block,NULL,2,217202,NULL,NULL,NULL,NULL,NULL,NULL,NULL,NULL,NULL,NULL,NULL,NULL,NULL,NULL,NULL,NULL,NULL,NULL,NULL,NULL,NULL,NULL,NULL,NULL,
458,TIPTON CAP 1,No,Yes,Yes,601,Variable,4.8,0,4.8,0,0,1,601,12.6,11.64,1,0,Off,Off,NULL,NULL,NULL,NULL,NULL,NULL,NULL,NULL,120,NULL,NULL,NULL,NULL,4.8,Yes,NULL,Yes,NULL,NULL,NULL,NULL,NULL,NULL,327467,1194,1194,NULL,NULL,NULL,NULL,NULL,NULL,NULL,NULL,NULL,NULL,NULL,NULL,NULL,NULL,NULL,NULL,NULL,NULL,10,+,In/Out,Normal,NULL,13,216736,NULL,CAP 1 CB,Closed,NULL,Closed,NULL,NULL,NULL,0,1,10,154180,NULL,1,NULL,NULL,NULL,NULL,NULL,154207,NULL,NULL,NULL,NULL,
459,TIPTON CAP 4,No,Yes,Yes,603,Variable,4.8,0,4.8,0,0,1,603,12.6,11.64,1,0,Off,Off,NULL,NULL,NULL,NULL,NULL,NULL,NULL,NULL,120,NULL,NULL,NULL,NULL,4.8,Yes,NULL,Yes,NULL,NULL,NULL,NULL,NULL,NULL,327468,1194,1194,NULL,NULL,NULL,NULL,NULL,NULL,NULL,NULL,NULL,NULL,NULL,NULL,NULL,NULL,NULL,NULL,NULL,NULL,10,+,In/Out,Normal,NULL,13,216740,NULL,CAP 4 CB,Closed,NULL,Closed,NULL,NULL,NULL,0,1,11,266436,NULL,1,NULL,NULL,NULL,NULL,NULL,266438,NULL,NULL,NULL,NULL,
467,BUNKER CAP 4,Yes,Yes,Yes,116,Fixed,46.8,0,46.8,0,0,1,999,120.75,111.55,1,0,Off,Off,NULL,NULL,NULL,NULL,NULL,NULL,NULL,NULL,120,NULL,NULL,NULL,NULL,46.8,Yes,NULL,Yes,NULL,NULL,NULL,NULL,NULL,NULL,NULL,546,546,NULL,NULL,NULL,NULL,NULL,NULL,NULL,NULL,NULL,NULL,3,+,In/Out,Normal,NULL,1,216489,NULL,10,+,Out,Block,NULL,1,216487,NULL,NULL,NULL,NULL,NULL,NULL,NULL,NULL,NULL,NULL,NULL,NULL,NULL,NULL,NULL,NULL,NULL,NULL,NULL,NULL,NULL,NULL,NULL,NULL,
469,POPLAR CAP 2,Yes,Yes,Yes,138,Fixed,10.8,0,10.8,0,0,1,138,72.45,66.93,1,0,Off,Off,NULL,NULL,NULL,NULL,NULL,NULL,NULL,NULL,120,NULL,NULL,NULL,NULL,10.8,Yes,NULL,Yes,NULL,NULL,NULL,NULL,NULL,NULL,302232,1039,1039,NULL,NULL,NULL,NULL,NULL,NULL,NULL,NULL,NULL,NULL,NULL,NULL,NULL,NULL,NULL,NULL,NULL,NULL,NULL,NULL,NULL,NULL,NULL,NULL,NULL,NULL,NULL,NULL,NULL,NULL,NULL,NULL,NULL,NULL,NULL,NULL,NULL,NULL,NULL,NULL,NULL,NULL,NULL,NULL,NULL,NULL,NULL,NULL,NULL,
470,NELSON CAP 2,No,Yes,Yes,603,Fixed,6,0,6,0,0,1,999,37.95,31.05,1,0,Off,Off,NULL,NULL,NULL,NULL,NULL,NULL,NULL,NULL,120,NULL,NULL,NULL,NULL,6,Yes,NULL,Yes,NULL,NULL,NULL,NULL,NULL,NULL,321185,662,662,NULL,NULL,NULL,NULL,NULL,NULL,NULL,NULL,NULL,NULL,NULL,NULL,NULL,NULL,NULL,NULL,NULL,NULL,3,+,In/Out,Normal,NULL,22,NULL,NULL,NULL,NULL,NULL,NULL,NULL,NULL,NULL,NULL,NULL,NULL,NULL,NULL,NULL,NULL,NULL,NULL,NULL,NULL,NULL,NULL,NULL,NULL,NULL,
471,VALLEY RCT 51,Yes,Yes,Yes,201,Fixed,45,-45,0,0,0,1,201,14.49,13.386,1,0,Off,Off,NULL,NULL,NULL,NULL,NULL,NULL,NULL,NULL,120,NULL,NULL,NULL,NULL,-45,Yes,NULL,Yes,NULL,NULL,NULL,NULL,NULL,NULL,NULL,539,539,NULL,NULL,NULL,NULL,NULL,NULL,NULL,NULL,NULL,NULL,NULL,NULL,NULL,NULL,NULL,NULL,NULL,NULL,NULL,NULL,NULL,NULL,NULL,NULL,NULL,NULL,NULL,NULL,NULL,NULL,NULL,NULL,NULL,NULL,NULL,NULL,NULL,NULL,NULL,NULL,NULL,NULL,NULL,NULL,NULL,NULL,NULL,NULL,NULL,
472,VALLEY RCT 52,Yes,Yes,Yes,203,Fixed,45,-45,0,0,0,1,203,14.49,13.386,1,0,Off,Off,NULL,NULL,NULL,NULL,NULL,NULL,NULL,NULL,120,NULL,NULL,NULL,NULL,-45,Yes,NULL,Yes,NULL,NULL,NULL,NULL,NULL,NULL,NULL,539,539,NULL,NULL,NULL,NULL,NULL,NULL,NULL,NULL,NULL,NULL,NULL,NULL,NULL,NULL,NULL,NULL,NULL,NULL,NULL,NULL,NULL,NULL,NULL,NULL,NULL,NULL,NULL,NULL,NULL,NULL,NULL,NULL,NULL,NULL,NULL,NULL,NULL,NULL,NULL,NULL,NULL,NULL,NULL,NULL,NULL,NULL,NULL,NULL,NULL,
478,TRITON CAP 5,Yes,Yes,Yes,107,Fixed,46.8,0,46.8,0,0,1,107,120.75,111.55,1,0,Off,Off,NULL,NULL,NULL,NULL,NULL,NULL,NULL,NULL,120,NULL,NULL,NULL,NULL,46.8,Yes,NULL,Yes,NULL,NULL,NULL,NULL,NULL,NULL,NULL,1290,1290,NULL,NULL,NULL,NULL,NULL,NULL,NULL,NULL,NULL,NULL,3,+,In/Out,Normal,NULL,1,219544,NULL,10,+,Out,Block,NULL,8898,219542,NULL,NULL,NULL,NULL,NULL,NULL,NULL,NULL,NULL,NULL,NULL,NULL,NULL,NULL,NULL,NULL,NULL,NULL,NULL,NULL,NULL,NULL,NULL,NULL,
482,WINDHUB RCT 12,Yes,Yes,Yes,602,Fixed,45,-45,0,0,0,1,4,14.49,13.386,1,0,Off,Off,NULL,NULL,NULL,NULL,NULL,NULL,NULL,NULL,120,NULL,NULL,NULL,NULL,-45,Yes,NULL,Yes,NULL,NULL,NULL,NULL,NULL,NULL,NULL,1257,1257,NULL,NULL,NULL,NULL,NULL,NULL,NULL,NULL,NULL,NULL,NULL,NULL,NULL,NULL,NULL,NULL,NULL,NULL,10,+,Out,Block,NULL,12,220230,NULL,NULL,NULL,NULL,NULL,NULL,NULL,NULL,NULL,NULL,NULL,NULL,NULL,NULL,NULL,NULL,NULL,NULL,NULL,NULL,NULL,NULL,NULL,NULL,
485,SUNCREST RCT 8,Yes,Yes,Yes,108,Fixed,45,-45,0,0,0,1,108,12.6,11.64,1,0,Off,Off,NULL,NULL,NULL,NULL,NULL,NULL,NULL,NULL,120,NULL,NULL,NULL,NULL,-45,Yes,NULL,Yes,NULL,NULL,NULL,NULL,NULL,NULL,NULL,1264,1264,NULL,NULL,NULL,NULL,NULL,NULL,NULL,NULL,NULL,NULL,NULL,NULL,NULL,NULL,NULL,NULL,NULL,NULL,NULL,NULL,NULL,NULL,NULL,NULL,NULL,NULL,NULL,NULL,NULL,NULL,NULL,NULL,NULL,NULL,NULL,NULL,NULL,NULL,NULL,NULL,NULL,NULL,NULL,NULL,NULL,NULL,NULL,NULL,NULL,
488,WINDHUB RCT 31,Yes,Yes,Yes,301,Fixed,45,-45,0,0,0,1,3,14.49,13.386,1,0,Off,Off,NULL,NULL,NULL,NULL,NULL,NULL,NULL,NULL,120,NULL,NULL,NULL,NULL,-45,Yes,NULL,Yes,NULL,NULL,NULL,NULL,NULL,NULL,NULL,1257,1257,NULL,NULL,NULL,NULL,NULL,NULL,NULL,NULL,NULL,NULL,NULL,NULL,NULL,NULL,NULL,NULL,NULL,NULL,10,+,Out,Block,NULL,1,216292,NULL,NULL,NULL,NULL,NULL,NULL,NULL,NULL,NULL,NULL,NULL,NULL,NULL,NULL,NULL,NULL,NULL,NULL,NULL,NULL,NULL,NULL,NULL,NULL,
489,WINDHUB RCT 32,Yes,Yes,Yes,302,Fixed,45,-45,0,0,0,1,3,14.49,13.386,1,0,Off,Off,NULL,NULL,NULL,NULL,NULL,NULL,NULL,NULL,120,NULL,NULL,NULL,NULL,-45,Yes,NULL,Yes,NULL,NULL,NULL,NULL,NULL,NULL,NULL,1257,1257,NULL,NULL,NULL,NULL,NULL,NULL,NULL,NULL,NULL,NULL,NULL,NULL,NULL,NULL,NULL,NULL,NULL,NULL,10,+,Out,Block,NULL,1,216289,NULL,NULL,NULL,NULL,NULL,NULL,NULL,NULL,NULL,NULL,NULL,NULL,NULL,NULL,NULL,NULL,NULL,NULL,NULL,NULL,NULL,NULL,NULL,NULL,
490,WINDHUB RCT 33,Yes,Yes,Yes,303,Fixed,45,-45,0,0,0,1,3,14.49,13.386,1,0,Off,Off,NULL,NULL,NULL,NULL,NULL,NULL,NULL,NULL,120,NULL,NULL,NULL,NULL,-45,Yes,NULL,Yes,NULL,NULL,NULL,NULL,NULL,NULL,NULL,1257,1257,NULL,NULL,NULL,NULL,NULL,NULL,NULL,NULL,NULL,NULL,NULL,NULL,NULL,NULL,NULL,NULL,NULL,NULL,10,+,Out,Block,NULL,1,216286,NULL,NULL,NULL,NULL,NULL,NULL,NULL,NULL,NULL,NULL,NULL,NULL,NULL,NULL,NULL,NULL,NULL,NULL,NULL,NULL,NULL,NULL,NULL,NULL,
491,WINDHUB RCT 34,Yes,Yes,Yes,304,Fixed,45,-45,0,0,0,1,3,14.49,13.386,1,0,Off,Off,NULL,NULL,NULL,NULL,NULL,NULL,NULL,NULL,120,NULL,NULL,NULL,NULL,-45,Yes,NULL,Yes,NULL,NULL,NULL,NULL,NULL,NULL,NULL,1257,1257,NULL,NULL,NULL,NULL,NULL,NULL,NULL,NULL,NULL,NULL,NULL,NULL,NULL,NULL,NULL,NULL,NULL,NULL,NULL,NULL,NULL,NULL,NULL,NULL,NULL,NULL,NULL,NULL,NULL,NULL,NULL,NULL,NULL,NULL,NULL,NULL,NULL,NULL,NULL,NULL,NULL,NULL,NULL,NULL,NULL,NULL,NULL,NULL,NULL,
492,WINDHUB RCT 41,Yes,Yes,Yes,401,Fixed,45,-45,0,0,0,1,4,14.49,13.386,1,0,Off,Off,NULL,NULL,NULL,NULL,NULL,NULL,NULL,NULL,120,NULL,NULL,NULL,NULL,-45,Yes,NULL,Yes,NULL,NULL,NULL,NULL,NULL,NULL,NULL,1257,1257,NULL,NULL,NULL,NULL,NULL,NULL,NULL,NULL,NULL,NULL,NULL,NULL,NULL,NULL,NULL,NULL,NULL,NULL,10,+,Out,Block,NULL,1,216295,NULL,NULL,NULL,NULL,NULL,NULL,NULL,NULL,NULL,NULL,NULL,NULL,NULL,NULL,NULL,NULL,NULL,NULL,NULL,NULL,NULL,NULL,NULL,NULL,
493,WINDHUB RCT 42,Yes,Yes,Yes,402,Fixed,45,-45,0,0,0,1,4,14.49,13.386,1,0,Off,Off,NULL,NULL,NULL,NULL,NULL,NULL,NULL,NULL,120,NULL,NULL,NULL,NULL,-45,Yes,NULL,Yes,NULL,NULL,NULL,NULL,NULL,NULL,NULL,1257,1257,NULL,NULL,NULL,NULL,NULL,NULL,NULL,NULL,NULL,NULL,NULL,NULL,NULL,NULL,NULL,NULL,NULL,NULL,10,+,Out,Block,NULL,1,216298,NULL,NULL,NULL,NULL,NULL,NULL,NULL,NULL,NULL,NULL,NULL,NULL,NULL,NULL,NULL,NULL,NULL,NULL,NULL,NULL,NULL,NULL,NULL,NULL,
494,WINDHUB RCT 43,Yes,Yes,Yes,403,Fixed,45,-45,0,0,0,1,4,14.49,13.386,1,0,Off,Off,NULL,NULL,NULL,NULL,NULL,NULL,NULL,NULL,120,NULL,NULL,NULL,NULL,-45,Yes,NULL,Yes,NULL,NULL,NULL,NULL,NULL,NULL,NULL,1257,1257,NULL,NULL,NULL,NULL,NULL,NULL,NULL,NULL,NULL,NULL,NULL,NULL,NULL,NULL,NULL,NULL,NULL,NULL,10,+,Out,Block,NULL,1,216301,NULL,NULL,NULL,NULL,NULL,NULL,NULL,NULL,NULL,NULL,NULL,NULL,NULL,NULL,NULL,NULL,NULL,NULL,NULL,NULL,NULL,NULL,NULL,NULL,
495,WINDHUB RCT 22,Yes,Yes,Yes,611,Fixed,45,-45,0,0,0,1,4,14.49,13.386,1,0,Off,Off,NULL,NULL,NULL,NULL,NULL,NULL,NULL,NULL,120,NULL,NULL,NULL,NULL,-45,Yes,NULL,Yes,NULL,NULL,NULL,NULL,NULL,NULL,NULL,1257,1257,NULL,NULL,NULL,NULL,NULL,NULL,NULL,NULL,NULL,NULL,NULL,NULL,NULL,NULL,NULL,NULL,NULL,NULL,10,+,Out,Block,NULL,22,220239,NULL,NULL,NULL,NULL,NULL,NULL,NULL,NULL,NULL,NULL,NULL,NULL,NULL,NULL,NULL,NULL,NULL,NULL,NULL,NULL,NULL,NULL,NULL,NULL,
498,SUNCREST RCT 7,Yes,Yes,Yes,107,Fixed,45,-45,0,0,0,1,108,12.6,11.64,1,0,Off,Off,NULL,NULL,NULL,NULL,NULL,NULL,NULL,NULL,120,NULL,NULL,NULL,NULL,-45,Yes,NULL,Yes,NULL,NULL,NULL,NULL,NULL,NULL,NULL,1264,1264,NULL,NULL,NULL,NULL,NULL,NULL,NULL,NULL,NULL,NULL,NULL,NULL,NULL,NULL,NULL,NULL,NULL,NULL,NULL,NULL,NULL,NULL,NULL,NULL,NULL,NULL,NULL,NULL,NULL,NULL,NULL,NULL,NULL,NULL,NULL,NULL,NULL,NULL,NULL,NULL,NULL,NULL,NULL,NULL,NULL,NULL,NULL,NULL,NULL,
499,SUNCREST RCT 6,Yes,Yes,Yes,106,Fixed,45,-45,0,0,0,1,106,12.6,11.64,1,0,Off,Off,NULL,NULL,NULL,NULL,NULL,NULL,NULL,NULL,120,NULL,NULL,NULL,NULL,-45,Yes,NULL,Yes,NULL,NULL,NULL,NULL,NULL,NULL,NULL,1264,1264,NULL,NULL,NULL,NULL,NULL,NULL,NULL,NULL,NULL,NULL,NULL,NULL,NULL,NULL,NULL,NULL,NULL,NULL,NULL,NULL,NULL,NULL,NULL,NULL,NULL,NULL,NULL,NULL,NULL,NULL,NULL,NULL,NULL,NULL,NULL,NULL,NULL,NULL,NULL,NULL,NULL,NULL,NULL,NULL,NULL,NULL,NULL,NULL,NULL,
500,SUNCREST RCT 5,Yes,Yes,Yes,105,Fixed,45,-45,0,0,0,1,105,12.6,11.64,1,0,Off,Off,NULL,NULL,NULL,NULL,NULL,NULL,NULL,NULL,120,NULL,NULL,NULL,NULL,-45,Yes,NULL,Yes,NULL,NULL,NULL,NULL,NULL,NULL,NULL,1264,1264,NULL,NULL,NULL,NULL,NULL,NULL,NULL,NULL,NULL,NULL,NULL,NULL,NULL,NULL,NULL,NULL,NULL,NULL,NULL,NULL,NULL,NULL,NULL,NULL,NULL,NULL,NULL,NULL,NULL,NULL,NULL,NULL,NULL,NULL,NULL,NULL,NULL,NULL,NULL,NULL,NULL,NULL,NULL,NULL,NULL,NULL,NULL,NULL,NULL,
501,SUNCREST RCT 4,Yes,Yes,Yes,104,Fixed,45,-45,0,0,0,1,104,12.6,11.64,1,0,Off,Off,NULL,NULL,NULL,NULL,NULL,NULL,NULL,NULL,120,NULL,NULL,NULL,NULL,-45,Yes,NULL,Yes,NULL,NULL,NULL,NULL,NULL,NULL,NULL,1264,1264,NULL,NULL,NULL,NULL,NULL,NULL,NULL,NULL,NULL,NULL,NULL,NULL,NULL,NULL,NULL,NULL,NULL,NULL,NULL,NULL,NULL,NULL,NULL,NULL,NULL,NULL,NULL,NULL,NULL,NULL,NULL,NULL,NULL,NULL,NULL,NULL,NULL,NULL,NULL,NULL,NULL,NULL,NULL,NULL,NULL,NULL,NULL,NULL,NULL,
502,SUNCREST RCT 3,Yes,Yes,Yes,103,Fixed,45,-45,0,0,0,1,103,12.6,11.64,1,0,Off,Off,NULL,NULL,NULL,NULL,NULL,NULL,NULL,NULL,120,NULL,NULL,NULL,NULL,-45,Yes,NULL,Yes,NULL,NULL,NULL,NULL,NULL,NULL,NULL,1264,1264,NULL,NULL,NULL,NULL,NULL,NULL,NULL,NULL,NULL,NULL,NULL,NULL,NULL,NULL,NULL,NULL,NULL,NULL,NULL,NULL,NULL,NULL,NULL,NULL,NULL,NULL,NULL,NULL,NULL,NULL,NULL,NULL,NULL,NULL,NULL,NULL,NULL,NULL,NULL,NULL,NULL,NULL,NULL,NULL,NULL,NULL,NULL,NULL,NULL,
503,SUNCREST RCT 2,Yes,Yes,Yes,102,Fixed,45,-45,0,0,0,1,102,12.6,11.64,1,0,Off,Off,NULL,NULL,NULL,NULL,NULL,NULL,NULL,NULL,120,NULL,NULL,NULL,NULL,-45,Yes,NULL,Yes,NULL,NULL,NULL,NULL,NULL,NULL,NULL,1264,1264,NULL,NULL,NULL,NULL,NULL,NULL,NULL,NULL,NULL,NULL,NULL,NULL,NULL,NULL,NULL,NULL,NULL,NULL,NULL,NULL,NULL,NULL,NULL,NULL,NULL,NULL,NULL,NULL,NULL,NULL,NULL,NULL,NULL,NULL,NULL,NULL,NULL,NULL,NULL,NULL,NULL,NULL,NULL,NULL,NULL,NULL,NULL,NULL,NULL,
504,SUNCREST RCT 1,Yes,Yes,Yes,101,Fixed,45,-45,0,0,0,1,101,12.6,11.64,1,0,Off,Off,NULL,NULL,NULL,NULL,NULL,NULL,NULL,NULL,120,NULL,NULL,NULL,NULL,-45,Yes,NULL,Yes,NULL,NULL,NULL,NULL,NULL,NULL,NULL,1264,1264,NULL,NULL,NULL,NULL,NULL,NULL,NULL,NULL,NULL,NULL,NULL,NULL,NULL,NULL,NULL,NULL,NULL,NULL,NULL,NULL,NULL,NULL,NULL,NULL,NULL,NULL,NULL,NULL,NULL,NULL,NULL,NULL,NULL,NULL,NULL,NULL,NULL,NULL,NULL,NULL,NULL,NULL,NULL,NULL,NULL,NULL,NULL,NULL,NULL,
507,WHIRLWIND RCT 11,Yes,Yes,Yes,11,Fixed,45,-45,0,0,0,1,11,14.49,13.386,1,0,Off,Off,NULL,NULL,NULL,NULL,NULL,NULL,NULL,NULL,120,NULL,NULL,NULL,NULL,-45,Yes,NULL,Yes,NULL,NULL,NULL,NULL,NULL,NULL,NULL,1265,1265,NULL,NULL,NULL,NULL,NULL,NULL,NULL,NULL,NULL,NULL,NULL,NULL,NULL,NULL,NULL,NULL,NULL,NULL,10,+,Out,Block,NULL,1,217600,NULL,NULL,NULL,NULL,NULL,NULL,NULL,NULL,NULL,NULL,NULL,NULL,NULL,NULL,NULL,NULL,NULL,NULL,NULL,NULL,NULL,NULL,NULL,NULL,
508,WHIRLWIND RCT 12,Yes,Yes,Yes,12,Fixed,45,-45,0,0,0,1,11,14.49,13.386,1,0,Off,Off,NULL,NULL,NULL,NULL,NULL,NULL,NULL,NULL,120,NULL,NULL,NULL,NULL,-45,Yes,NULL,Yes,NULL,NULL,NULL,NULL,NULL,NULL,NULL,1265,1265,NULL,NULL,NULL,NULL,NULL,NULL,NULL,NULL,NULL,NULL,NULL,NULL,NULL,NULL,NULL,NULL,NULL,NULL,10,+,Out,Block,NULL,1,217603,NULL,NULL,NULL,NULL,NULL,NULL,NULL,NULL,NULL,NULL,NULL,NULL,NULL,NULL,NULL,NULL,NULL,NULL,NULL,NULL,NULL,NULL,NULL,NULL,
509,WHIRLWIND RCT 13,Yes,Yes,Yes,13,Fixed,45,-45,0,0,0,1,13,14.49,13.386,1,0,Off,Off,NULL,NULL,NULL,NULL,NULL,NULL,NULL,NULL,120,NULL,NULL,NULL,NULL,-45,Yes,NULL,Yes,NULL,NULL,NULL,NULL,NULL,NULL,NULL,1265,1265,NULL,NULL,NULL,NULL,NULL,NULL,NULL,NULL,NULL,NULL,NULL,NULL,NULL,NULL,NULL,NULL,NULL,NULL,10,+,Out,Block,NULL,1,217606,NULL,NULL,NULL,NULL,NULL,NULL,NULL,NULL,NULL,NULL,NULL,NULL,NULL,NULL,NULL,NULL,NULL,NULL,NULL,NULL,NULL,NULL,NULL,NULL,
513,WINDHUB RCT 13,Yes,Yes,Yes,604,Fixed,45,-45,0,0,0,1,4,14.49,13.386,1,0,Off,Off,NULL,NULL,NULL,NULL,NULL,NULL,NULL,NULL,120,NULL,NULL,NULL,NULL,-45,Yes,NULL,Yes,NULL,NULL,NULL,NULL,NULL,NULL,NULL,1257,1257,NULL,NULL,NULL,NULL,NULL,NULL,NULL,NULL,NULL,NULL,NULL,NULL,NULL,NULL,NULL,NULL,NULL,NULL,10,+,Out,Block,NULL,13,220233,NULL,NULL,NULL,NULL,NULL,NULL,NULL,NULL,NULL,NULL,NULL,NULL,NULL,NULL,NULL,NULL,NULL,NULL,NULL,NULL,NULL,NULL,NULL,NULL,
517,WINDHUB RCT 14,Yes,Yes,Yes,606,Fixed,45,-45,0,0,0,1,4,14.49,13.386,1,0,Off,Off,NULL,NULL,NULL,NULL,NULL,NULL,NULL,NULL,120,NULL,NULL,NULL,NULL,-45,Yes,NULL,Yes,NULL,NULL,NULL,NULL,NULL,NULL,NULL,1257,1257,NULL,NULL,NULL,NULL,NULL,NULL,NULL,NULL,NULL,NULL,NULL,NULL,NULL,NULL,NULL,NULL,NULL,NULL,10,+,Out,Block,NULL,14,220236,NULL,NULL,NULL,NULL,NULL,NULL,NULL,NULL,NULL,NULL,NULL,NULL,NULL,NULL,NULL,NULL,NULL,NULL,NULL,NULL,NULL,NULL,NULL,NULL,
518,WINDHUB RCT 23,Yes,Yes,Yes,613,Fixed,45,-45,0,0,0,1,4,14.49,13.386,1,0,Off,Off,NULL,NULL,NULL,NULL,NULL,NULL,NULL,NULL,120,NULL,NULL,NULL,NULL,-45,Yes,NULL,Yes,NULL,NULL,NULL,NULL,NULL,NULL,NULL,1257,1257,NULL,NULL,NULL,NULL,NULL,NULL,NULL,NULL,NULL,NULL,NULL,NULL,NULL,NULL,NULL,NULL,NULL,NULL,10,+,Out,Block,NULL,23,220242,NULL,NULL,NULL,NULL,NULL,NULL,NULL,NULL,NULL,NULL,NULL,NULL,NULL,NULL,NULL,NULL,NULL,NULL,NULL,NULL,NULL,NULL,NULL,NULL,
519,WINDHUB RCT 24,Yes,Yes,Yes,615,Fixed,45,-45,0,0,0,1,4,14.49,13.386,1,0,Off,Off,NULL,NULL,NULL,NULL,NULL,NULL,NULL,NULL,120,NULL,NULL,NULL,NULL,-45,Yes,NULL,Yes,NULL,NULL,NULL,NULL,NULL,NULL,NULL,1257,1257,NULL,NULL,NULL,NULL,NULL,NULL,NULL,NULL,NULL,NULL,NULL,NULL,NULL,NULL,NULL,NULL,NULL,NULL,10,+,Out,Block,NULL,24,220245,NULL,NULL,NULL,NULL,NULL,NULL,NULL,NULL,NULL,NULL,NULL,NULL,NULL,NULL,NULL,NULL,NULL,NULL,NULL,NULL,NULL,NULL,NULL,NULL,
528,LAKEVIEW CAP 6,Yes,Yes,Yes,112,Fixed,28.8,0,28.8,0,0,1,107,120.75,111.55,1,0,Off,Off,NULL,NULL,NULL,NULL,NULL,NULL,NULL,NULL,120,NULL,NULL,NULL,NULL,28.8,Yes,NULL,Yes,NULL,NULL,NULL,NULL,NULL,NULL,NULL,1473,1473,NULL,NULL,NULL,NULL,NULL,NULL,NULL,NULL,NULL,NULL,3,+,In/Out,Normal,NULL,1,191996,NULL,10,+,Out,Block,NULL,8898,191994,NULL,NULL,NULL,NULL,NULL,NULL,NULL,NULL,NULL,NULL,NULL,NULL,NULL,NULL,NULL,NULL,NULL,NULL,NULL,NULL,NULL,NULL,NULL,NULL,
532,MARIPOSA CAP 2,Yes,Yes,Yes,60,Fixed,14.4,0,14.4,0,0,1,60,72.45,66.93,1,0,Off,Off,NULL,NULL,NULL,NULL,NULL,NULL,NULL,NULL,120,NULL,NULL,NULL,NULL,14.4,Yes,NULL,Yes,NULL,NULL,NULL,NULL,NULL,NULL,NULL,1034,1034,NULL,NULL,NULL,NULL,NULL,NULL,NULL,NULL,NULL,NULL,3,+,In/Out,Normal,NULL,100,191619,NULL,10,+,Out,Block,NULL,102,191617,NULL,NULL,NULL,NULL,NULL,NULL,NULL,NULL,NULL,NULL,NULL,NULL,NULL,NULL,NULL,NULL,NULL,NULL,NULL,NULL,NULL,NULL,NULL,NULL,
534,FILLMORE NO. 2 CAP,No,Yes,Yes,151,Variable,3,0,3,0,0,1,151,17,16,1,0,Off,Off,NULL,NULL,NULL,NULL,NULL,NULL,NULL,NULL,120,NULL,NULL,NULL,NULL,3,Yes,NULL,Yes,NULL,NULL,NULL,NULL,NULL,NULL,303032,438,438,NULL,NULL,NULL,NULL,NULL,NULL,NULL,NULL,NULL,NULL,NULL,NULL,NULL,NULL,NULL,NULL,NULL,NULL,10,+,Out,Block,NULL,13,69873,NULL,NO. 2 CAPACITOR CB,Closed,NULL,Closed,NULL,NULL,NULL,0,1,1,71807,NULL,1,NULL,NULL,NULL,NULL,NULL,71809,NULL,NULL,NULL,NULL,
557,WINDHUB CAP 3_PSS,No,Yes,No,306,Variable,28.8,0,28.8,0,0,1,306,72.45,66.93,1,0,Off,Off,NULL,NULL,NULL,NULL,NULL,NULL,NULL,NULL,120,NULL,NULL,NULL,NULL,28.8,Yes,NULL,Yes,NULL,NULL,NULL,NULL,NULL,NULL,NULL,2393,2393,NULL,NULL,NULL,NULL,NULL,NULL,NULL,NULL,NULL,NULL,NULL,NULL,NULL,NULL,NULL,NULL,NULL,NULL,NULL,NULL,NULL,NULL,NULL,NULL,NULL,NULL,NO.3 CAPS CB,Closed,NULL,Closed,NULL,NULL,NULL,0,1,8,284449,NULL,1,NULL,NULL,NULL,NULL,NULL,284452,NULL,NULL,NULL,NULL,
558,WINDHUB CAP 4_PSS,No,Yes,No,406,Variable,28.8,0,28.8,0,0,1,406,72.45,66.93,1,0,Off,Off,NULL,NULL,NULL,NULL,NULL,NULL,NULL,NULL,120,NULL,NULL,NULL,NULL,28.8,Yes,NULL,Yes,NULL,NULL,NULL,NULL,NULL,NULL,NULL,2393,2393,NULL,NULL,NULL,NULL,NULL,NULL,NULL,NULL,NULL,NULL,NULL,NULL,NULL,NULL,NULL,NULL,NULL,NULL,NULL,NULL,NULL,NULL,NULL,NULL,NULL,NULL,NO.4 CAPS CB,Closed,NULL,Closed,NULL,NULL,NULL,0,1,8,284466,NULL,1,NULL,NULL,NULL,NULL,NULL,284469,NULL,NULL,NULL,NULL,
559,WINDHUB CAP 5_PSS,No,Yes,No,506,Variable,28.8,0,28.8,0,0,1,506,72.45,66.93,1,0,Off,Off,NULL,NULL,NULL,NULL,NULL,NULL,NULL,NULL,120,NULL,NULL,NULL,NULL,28.8,Yes,NULL,Yes,NULL,NULL,NULL,NULL,NULL,NULL,NULL,2393,2393,NULL,NULL,NULL,NULL,NULL,NULL,NULL,NULL,NULL,NULL,NULL,NULL,NULL,NULL,NULL,NULL,NULL,NULL,NULL,NULL,NULL,NULL,NULL,NULL,NULL,NULL,NO.5 CAPS CB,Closed,NULL,Closed,NULL,NULL,NULL,0,1,8,284483,NULL,1,NULL,NULL,NULL,NULL,NULL,284486,NULL,NULL,NULL,NULL,
562,EASTCO RCTR 13,Yes,Yes,Yes,123,Fixed,45,-45,0,0,0,1,123,12.6,11.64,1,0,Off,Off,NULL,NULL,NULL,NULL,NULL,NULL,NULL,NULL,120,NULL,NULL,NULL,NULL,-45,Yes,NULL,Yes,NULL,NULL,NULL,NULL,NULL,NULL,NULL,1360,1360,NULL,NULL,NULL,NULL,NULL,NULL,NULL,NULL,NULL,NULL,NULL,NULL,NULL,NULL,NULL,NULL,NULL,NULL,NULL,NULL,NULL,NULL,NULL,NULL,NULL,NULL,NULL,NULL,NULL,NULL,NULL,NULL,NULL,NULL,NULL,NULL,NULL,NULL,NULL,NULL,NULL,NULL,NULL,NULL,NULL,NULL,NULL,NULL,NULL,
563,EASTCO RCTR 14,Yes,Yes,Yes,124,Fixed,45,-45,0,0,0,1,124,12.6,11.64,1,0,Off,Off,NULL,NULL,NULL,NULL,NULL,NULL,NULL,NULL,120,NULL,NULL,NULL,NULL,-45,Yes,NULL,Yes,NULL,NULL,NULL,NULL,NULL,NULL,NULL,1360,1360,NULL,NULL,NULL,NULL,NULL,NULL,NULL,NULL,NULL,NULL,NULL,NULL,NULL,NULL,NULL,NULL,NULL,NULL,NULL,NULL,NULL,NULL,NULL,NULL,NULL,NULL,NULL,NULL,NULL,NULL,NULL,NULL,NULL,NULL,NULL,NULL,NULL,NULL,NULL,NULL,NULL,NULL,NULL,NULL,NULL,NULL,NULL,NULL,NULL,
569,EASTCO RCTR 15,Yes,Yes,Yes,125,Fixed,45,-45,0,0,0,1,125,12.6,11.64,1,0,Off,Off,NULL,NULL,NULL,NULL,NULL,NULL,NULL,NULL,120,NULL,NULL,NULL,NULL,-45,Yes,NULL,Yes,NULL,NULL,NULL,NULL,NULL,NULL,NULL,1360,1360,NULL,NULL,NULL,NULL,NULL,NULL,NULL,NULL,NULL,NULL,NULL,NULL,NULL,NULL,NULL,NULL,NULL,NULL,NULL,NULL,NULL,NULL,NULL,NULL,NULL,NULL,NULL,NULL,NULL,NULL,NULL,NULL,NULL,NULL,NULL,NULL,NULL,NULL,NULL,NULL,NULL,NULL,NULL,NULL,NULL,NULL,NULL,NULL,NULL,
570,EASTCO RCTR 16,Yes,Yes,Yes,126,Fixed,45,-45,0,0,0,1,126,12.6,11.64,1,0,Off,Off,NULL,NULL,NULL,NULL,NULL,NULL,NULL,NULL,120,NULL,NULL,NULL,NULL,-45,Yes,NULL,Yes,NULL,NULL,NULL,NULL,NULL,NULL,NULL,1360,1360,NULL,NULL,NULL,NULL,NULL,NULL,NULL,NULL,NULL,NULL,NULL,NULL,NULL,NULL,NULL,NULL,NULL,NULL,NULL,NULL,NULL,NULL,NULL,NULL,NULL,NULL,NULL,NULL,NULL,NULL,NULL,NULL,NULL,NULL,NULL,NULL,NULL,NULL,NULL,NULL,NULL,NULL,NULL,NULL,NULL,NULL,NULL,NULL,NULL,
581,WELDON CAP 2A,Yes,Yes,Yes,114,Fixed,5.4,0,5.4,0,0,1,114,72.45,66.93,1,0,Off,Off,NULL,NULL,NULL,NULL,NULL,NULL,NULL,NULL,120,NULL,NULL,Was 10.8 MVAR, Is 5.4 MVAR,NULL,5.4,Yes,NULL,Yes,NULL,NULL,NULL,NULL,NULL,NULL,301279,1047,1047,NULL,NULL,NULL,NULL,NULL,NULL,NULL,NULL,NULL,NULL,NULL,NULL,NULL,NULL,NULL,NULL,NULL,NULL,NULL,NULL,NULL,NULL,NULL,NULL,NULL,NULL,NULL,NULL,NULL,NULL,NULL,NULL,NULL,NULL,NULL,NULL,NULL,NULL,NULL,NULL,NULL,NULL,NULL,NULL,NULL,NULL,NULL,NULL,NULL,
582,WELDON CAP 2B,Yes,Yes,Yes,113,Fixed,5.4,0,5.4,0,0,1,113,72.45,66.93,1,0,Off,Off,NULL,NULL,NULL,NULL,NULL,NULL,NULL,NULL,120,NULL,NULL,Was 10.8 MVAR, Is 5.4 MVAR,NULL,5.4,Yes,NULL,Yes,NULL,NULL,NULL,NULL,NULL,NULL,301280,1047,1047,NULL,NULL,NULL,NULL,NULL,NULL,NULL,NULL,NULL,NULL,NULL,NULL,NULL,NULL,NULL,NULL,NULL,NULL,NULL,NULL,NULL,NULL,NULL,NULL,NULL,NULL,NULL,NULL,NULL,NULL,NULL,NULL,NULL,NULL,NULL,NULL,NULL,NULL,NULL,NULL,NULL,NULL,NULL,NULL,NULL,NULL,NULL,NULL,NULL,
584,WHIRLWIND RCT 31,Yes,Yes,Yes,312,Fixed,45,-45,0,0,0,1,312,14.49,13.386,1,0,Off,Off,NULL,NULL,NULL,NULL,NULL,NULL,NULL,NULL,120,NULL,NULL,NULL,NULL,-45,Yes,NULL,Yes,NULL,NULL,NULL,NULL,NULL,NULL,NULL,1367,1367,NULL,NULL,NULL,NULL,NULL,NULL,NULL,NULL,NULL,NULL,NULL,NULL,NULL,NULL,NULL,NULL,NULL,NULL,10,+,Out,Block,NULL,1,226042,NULL,NULL,NULL,NULL,NULL,NULL,NULL,NULL,NULL,NULL,NULL,NULL,NULL,NULL,NULL,NULL,NULL,NULL,NULL,NULL,NULL,NULL,NULL,NULL,
585,WHIRLWIND RCT 32,Yes,Yes,Yes,322,Fixed,45,-45,0,0,0,1,322,14.49,13.386,1,0,Off,Off,NULL,NULL,NULL,NULL,NULL,NULL,NULL,NULL,120,NULL,NULL,NULL,NULL,-45,Yes,NULL,Yes,NULL,NULL,NULL,NULL,NULL,NULL,NULL,1367,1367,NULL,NULL,NULL,NULL,NULL,NULL,NULL,NULL,NULL,NULL,NULL,NULL,NULL,NULL,NULL,NULL,NULL,NULL,10,+,Out,Block,NULL,1,226045,NULL,NULL,NULL,NULL,NULL,NULL,NULL,NULL,NULL,NULL,NULL,NULL,NULL,NULL,NULL,NULL,NULL,NULL,NULL,NULL,NULL,NULL,NULL,NULL,
586,WHIRLWIND RCT 33,Yes,Yes,Yes,332,Fixed,45,-45,0,0,0,1,332,14.49,13.386,1,0,Off,Off,NULL,NULL,NULL,NULL,NULL,NULL,NULL,NULL,120,NULL,NULL,NULL,NULL,-45,Yes,NULL,Yes,NULL,NULL,NULL,NULL,NULL,NULL,NULL,1367,1367,NULL,NULL,NULL,NULL,NULL,NULL,NULL,NULL,NULL,NULL,NULL,NULL,NULL,NULL,NULL,NULL,NULL,NULL,10,+,Out,Block,NULL,1,226048,NULL,NULL,NULL,NULL,NULL,NULL,NULL,NULL,NULL,NULL,NULL,NULL,NULL,NULL,NULL,NULL,NULL,NULL,NULL,NULL,NULL,NULL,NULL,NULL,
587,WHIRLWIND RCT 34,Yes,Yes,Yes,342,Fixed,45,-45,0,0,0,1,342,14.49,13.386,1,0,Off,Off,NULL,NULL,NULL,NULL,NULL,NULL,NULL,NULL,120,NULL,NULL,NULL,NULL,-45,Yes,NULL,Yes,NULL,NULL,NULL,NULL,NULL,NULL,NULL,1367,1367,NULL,NULL,NULL,NULL,NULL,NULL,NULL,NULL,NULL,NULL,NULL,NULL,NULL,NULL,NULL,NULL,NULL,NULL,10,+,Out,Block,NULL,1,226051,NULL,NULL,NULL,NULL,NULL,NULL,NULL,NULL,NULL,NULL,NULL,NULL,NULL,NULL,NULL,NULL,NULL,NULL,NULL,NULL,NULL,NULL,NULL,NULL,
588,WHIRLWIND RCT 35,Yes,Yes,Yes,352,Fixed,45,-45,0,0,0,1,352,14.49,13.386,1,0,Off,Off,NULL,NULL,NULL,NULL,NULL,NULL,NULL,NULL,120,NULL,NULL,NULL,NULL,-45,Yes,NULL,Yes,NULL,NULL,NULL,NULL,NULL,NULL,NULL,1367,1367,NULL,NULL,NULL,NULL,NULL,NULL,NULL,NULL,NULL,NULL,NULL,NULL,NULL,NULL,NULL,NULL,NULL,NULL,10,+,Out,Block,NULL,1,226054,NULL,NULL,NULL,NULL,NULL,NULL,NULL,NULL,NULL,NULL,NULL,NULL,NULL,NULL,NULL,NULL,NULL,NULL,NULL,NULL,NULL,NULL,NULL,NULL,
598,MIGUL RCTR 1,Yes,Yes,Yes,601,Fixed,45,-45,0,0,0,1,601,12.6,11.64,1,0,Off,Off,NULL,NULL,NULL,NULL,NULL,NULL,NULL,NULL,120,NULL,NULL,NULL,NULL,-45,Yes,NULL,Yes,NULL,NULL,NULL,NULL,NULL,NULL,NULL,1206,1206,NULL,NULL,NULL,NULL,NULL,NULL,NULL,NULL,NULL,NULL,NULL,NULL,NULL,NULL,NULL,NULL,NULL,NULL,NULL,NULL,NULL,NULL,NULL,NULL,NULL,NULL,NULL,NULL,NULL,NULL,NULL,NULL,NULL,NULL,NULL,NULL,NULL,NULL,NULL,NULL,NULL,NULL,NULL,NULL,NULL,NULL,NULL,NULL,NULL,
599,MIGUL RCTR 2,Yes,Yes,Yes,602,Fixed,45,-45,0,0,0,1,602,12.6,11.64,1,0,Off,Off,NULL,NULL,NULL,NULL,NULL,NULL,NULL,NULL,120,NULL,NULL,NULL,NULL,-45,Yes,NULL,Yes,NULL,NULL,NULL,NULL,NULL,NULL,NULL,1206,1206,NULL,NULL,NULL,NULL,NULL,NULL,NULL,NULL,NULL,NULL,NULL,NULL,NULL,NULL,NULL,NULL,NULL,NULL,NULL,NULL,NULL,NULL,NULL,NULL,NULL,NULL,NULL,NULL,NULL,NULL,NULL,NULL,NULL,NULL,NULL,NULL,NULL,NULL,NULL,NULL,NULL,NULL,NULL,NULL,NULL,NULL,NULL,NULL,NULL,
600,MIGUL RCTR 3,Yes,Yes,Yes,603,Fixed,45,-45,0,0,0,1,603,12.6,11.64,1,0,Off,Off,NULL,NULL,NULL,NULL,NULL,NULL,NULL,NULL,120,NULL,NULL,NULL,NULL,-45,Yes,NULL,Yes,NULL,NULL,NULL,NULL,NULL,NULL,NULL,1206,1206,NULL,NULL,NULL,NULL,NULL,NULL,NULL,NULL,NULL,NULL,NULL,NULL,NULL,NULL,NULL,NULL,NULL,NULL,NULL,NULL,NULL,NULL,NULL,NULL,NULL,NULL,NULL,NULL,NULL,NULL,NULL,NULL,NULL,NULL,NULL,NULL,NULL,NULL,NULL,NULL,NULL,NULL,NULL,NULL,NULL,NULL,NULL,NULL,NULL,
601,MIGUL RCTR 4,Yes,Yes,Yes,604,Fixed,45,-45,0,0,0,1,604,12.6,11.64,1,0,Off,Off,NULL,NULL,NULL,NULL,NULL,NULL,NULL,NULL,120,NULL,NULL,NULL,NULL,-45,Yes,NULL,Yes,NULL,NULL,NULL,NULL,NULL,NULL,NULL,1206,1206,NULL,NULL,NULL,NULL,NULL,NULL,NULL,NULL,NULL,NULL,NULL,NULL,NULL,NULL,NULL,NULL,NULL,NULL,NULL,NULL,NULL,NULL,NULL,NULL,NULL,NULL,NULL,NULL,NULL,NULL,NULL,NULL,NULL,NULL,NULL,NULL,NULL,NULL,NULL,NULL,NULL,NULL,NULL,NULL,NULL,NULL,NULL,NULL,NULL,
622,VALLEY RCT 12,Yes,Yes,Yes,604,Fixed,45,-45,0,0,0,1,653,14.49,13.386,1,0,Off,Off,NULL,NULL,NULL,NULL,NULL,NULL,NULL,NULL,120,NULL,NULL,NULL,NULL,-45,Yes,NULL,Yes,NULL,NULL,NULL,NULL,NULL,NULL,NULL,539,539,NULL,NULL,NULL,NULL,NULL,NULL,NULL,NULL,NULL,NULL,NULL,NULL,NULL,NULL,NULL,NULL,NULL,NULL,10,+,Out,Block,NULL,7,181630,NULL,NULL,NULL,NULL,NULL,NULL,NULL,NULL,NULL,NULL,NULL,NULL,NULL,NULL,NULL,NULL,NULL,NULL,NULL,NULL,NULL,NULL,NULL,NULL,
623,VALLEY RCT 11,Yes,Yes,Yes,605,Fixed,45,-45,0,0,0,1,653,14.49,13.386,1,0,Off,Off,NULL,NULL,NULL,NULL,NULL,NULL,NULL,NULL,120,NULL,NULL,NULL,NULL,-45,Yes,NULL,Yes,NULL,NULL,NULL,NULL,NULL,NULL,NULL,539,539,NULL,NULL,NULL,NULL,NULL,NULL,NULL,NULL,NULL,NULL,NULL,NULL,NULL,NULL,NULL,NULL,NULL,NULL,10,+,Out,Block,NULL,7,185760,NULL,NULL,NULL,NULL,NULL,NULL,NULL,NULL,NULL,NULL,NULL,NULL,NULL,NULL,NULL,NULL,NULL,NULL,NULL,NULL,NULL,NULL,NULL,NULL,
657,PIXLEY CAP 3,Yes,Yes,Yes,113,Fixed,14.4,0,14.4,0,0,1,999,72.45,66.93,1,0,Off,Off,NULL,NULL,NULL,NULL,NULL,NULL,NULL,NULL,120,NULL,NULL,NULL,NULL,14.4,Yes,NULL,Yes,NULL,NULL,NULL,NULL,NULL,NULL,NULL,1037,1037,NULL,NULL,NULL,NULL,NULL,NULL,NULL,NULL,NULL,NULL,3,+,In/Out,Normal,NULL,1,6450,NULL,10,+,Out,Block,NULL,2,6448,NULL,NULL,NULL,NULL,NULL,NULL,NULL,NULL,NULL,NULL,NULL,NULL,NULL,NULL,NULL,NULL,NULL,NULL,NULL,NULL,NULL,NULL,NULL,NULL,
668,NATURAL CAP 1,Yes,No,Yes,103,Fixed,14.4,0,14.4,0,0,1,103,70.14,64.796,1,0,OnInBaseCaseAndCa,On,NULL,NULL,NULL,NULL,NULL,NULL,NULL,NULL,120,NULL,NULL,NULL,NULL,14.4,Yes,NULL,Yes,NULL,NULL,NULL,NULL,NULL,NULL,312851,1551,1551,NULL,NULL,NULL,NULL,NULL,NULL,NULL,NULL,NULL,NULL,NULL,NULL,NULL,NULL,NULL,NULL,NULL,NULL,NULL,NULL,NULL,NULL,NULL,NULL,NULL,NULL,NULL,NULL,NULL,NULL,NULL,NULL,NULL,NULL,NULL,NULL,NULL,NULL,NULL,NULL,NULL,NULL,NULL,NULL,244157,NULL,NULL,NULL,NULL,
669,NATURAL CAP 2,Yes,No,Yes,113,Fixed,14.4,0,14.4,0,0,1,113,70.14,64.796,1,0,OnInBaseCaseAndCa,On,NULL,NULL,NULL,NULL,NULL,NULL,NULL,NULL,120,NULL,NULL,NULL,NULL,14.4,Yes,NULL,Yes,NULL,NULL,NULL,NULL,NULL,NULL,312852,1551,1551,NULL,NULL,NULL,NULL,NULL,NULL,NULL,NULL,NULL,NULL,NULL,NULL,NULL,NULL,NULL,NULL,NULL,NULL,NULL,NULL,NULL,NULL,NULL,NULL,NULL,NULL,NULL,NULL,NULL,NULL,NULL,NULL,NULL,NULL,NULL,NULL,NULL,NULL,NULL,NULL,NULL,NULL,NULL,NULL,NULL,NULL,NULL,NULL,NULL,
670,IMP VLY BK 82 R2,Yes,Yes,Yes,202,Fixed,45,-45,0,0,0,1,202,12.6,11.64,1,0,Off,Off,NULL,NULL,NULL,NULL,NULL,NULL,NULL,NULL,120,NULL,NULL,NULL,NULL,-45,Yes,NULL,Yes,NULL,NULL,NULL,NULL,NULL,NULL,NULL,1555,1555,NULL,NULL,NULL,NULL,NULL,NULL,NULL,NULL,NULL,NULL,NULL,NULL,NULL,NULL,NULL,NULL,NULL,NULL,NULL,NULL,NULL,NULL,NULL,NULL,NULL,NULL,NULL,NULL,NULL,NULL,NULL,NULL,NULL,NULL,NULL,NULL,NULL,NULL,NULL,NULL,NULL,NULL,NULL,NULL,NULL,NULL,NULL,NULL,NULL,
671,IMP VLY BK 82 R3,Yes,Yes,Yes,302,Fixed,45,-45,0,0,0,1,302,12.6,11.64,1,0,Off,Off,NULL,NULL,NULL,NULL,NULL,NULL,NULL,NULL,120,NULL,NULL,NULL,NULL,-45,Yes,NULL,Yes,NULL,NULL,NULL,NULL,NULL,NULL,NULL,1555,1555,NULL,NULL,NULL,NULL,NULL,NULL,NULL,NULL,NULL,NULL,NULL,NULL,NULL,NULL,NULL,NULL,NULL,NULL,NULL,NULL,NULL,NULL,NULL,NULL,NULL,NULL,NULL,NULL,NULL,NULL,NULL,NULL,NULL,NULL,NULL,NULL,NULL,NULL,NULL,NULL,NULL,NULL,NULL,NULL,NULL,NULL,NULL,NULL,NULL,
672,IMP VLY BK 82 R4,Yes,Yes,Yes,402,Fixed,45,-45,0,0,0,1,402,12.6,11.64,1,0,Off,Off,NULL,NULL,NULL,NULL,NULL,NULL,NULL,NULL,120,NULL,NULL,NULL,NULL,-45,Yes,NULL,Yes,NULL,NULL,NULL,NULL,NULL,NULL,NULL,1555,1555,NULL,NULL,NULL,NULL,NULL,NULL,NULL,NULL,NULL,NULL,NULL,NULL,NULL,NULL,NULL,NULL,NULL,NULL,NULL,NULL,NULL,NULL,NULL,NULL,NULL,NULL,NULL,NULL,NULL,NULL,NULL,NULL,NULL,NULL,NULL,NULL,NULL,NULL,NULL,NULL,NULL,NULL,NULL,NULL,NULL,NULL,NULL,NULL,NULL,
673,WHIRLWIND RCT 41,Yes,Yes,Yes,412,Fixed,45,-45,0,0,0,1,412,14.49,13.386,1,0,Off,Off,NULL,NULL,NULL,NULL,NULL,NULL,NULL,NULL,120,NULL,NULL,NULL,NULL,-45,Yes,NULL,Yes,NULL,NULL,NULL,NULL,NULL,NULL,NULL,1507,1507,NULL,NULL,NULL,NULL,NULL,NULL,NULL,NULL,NULL,NULL,NULL,NULL,NULL,NULL,NULL,NULL,NULL,NULL,10,+,Out,Block,NULL,1,125685,NULL,NULL,NULL,NULL,NULL,NULL,NULL,NULL,NULL,NULL,NULL,NULL,NULL,NULL,NULL,NULL,NULL,NULL,NULL,NULL,NULL,NULL,NULL,NULL,
674,LAKEVIEW CAP 1,No,Yes,Yes,1,Variable,4.8,0,4.8,0,0,1,1,13.0935,12.0959,1,0,Off,Off,NULL,NULL,NULL,NULL,NULL,NULL,NULL,NULL,120,NULL,NULL,NULL,NULL,0,Yes,NULL,Yes,NULL,NULL,NULL,NULL,NULL,NULL,321399,1474,1474,NULL,NULL,NULL,NULL,NULL,NULL,NULL,NULL,NULL,NULL,3,+,In/Out,Block,NULL,2910,NULL,NULL,NULL,NULL,NULL,NULL,NULL,NULL,NULL,NULL,NO.1 CAPS CB,Closed,NULL,Closed,NULL,NULL,NULL,0,1,8,222709,NULL,1,NULL,NULL,NULL,NULL,NULL,222711,NULL,NULL,NULL,NULL,
675,LAKEVIEW CAP 2,No,Yes,Yes,12,Variable,4.8,0,4.8,0,0,1,12,13.0935,12.0959,1,0,Off,Off,NULL,NULL,NULL,NULL,NULL,NULL,NULL,NULL,120,NULL,NULL,NULL,NULL,0,Yes,NULL,Yes,NULL,NULL,NULL,NULL,NULL,NULL,321400,1474,1474,NULL,NULL,NULL,NULL,NULL,NULL,NULL,NULL,NULL,NULL,3,+,In/Out,Block,NULL,2910,NULL,NULL,NULL,NULL,NULL,NULL,NULL,NULL,NULL,NULL,NO.2 CAPS CB,Closed,NULL,Closed,NULL,NULL,NULL,0,1,8,222714,NULL,1,NULL,NULL,NULL,NULL,NULL,222716,NULL,NULL,NULL,NULL,
681,WHIRLWIND RCT 42,Yes,Yes,Yes,422,Fixed,45,-45,0,0,0,1,422,14.49,13.386,1,0,Off,Off,NULL,NULL,NULL,NULL,NULL,NULL,NULL,NULL,120,NULL,NULL,NULL,NULL,-45,Yes,NULL,Yes,NULL,NULL,NULL,NULL,NULL,NULL,NULL,1507,1507,NULL,NULL,NULL,NULL,NULL,NULL,NULL,NULL,NULL,NULL,NULL,NULL,NULL,NULL,NULL,NULL,NULL,NULL,10,+,Out,Block,NULL,2,125688,NULL,NULL,NULL,NULL,NULL,NULL,NULL,NULL,NULL,NULL,NULL,NULL,NULL,NULL,NULL,NULL,NULL,NULL,NULL,NULL,NULL,NULL,NULL,NULL,
682,WHIRLWIND RCT 43,Yes,Yes,Yes,432,Fixed,45,-45,0,0,0,1,432,14.49,13.386,1,0,Off,Off,NULL,NULL,NULL,NULL,NULL,NULL,NULL,NULL,120,NULL,NULL,NULL,NULL,-45,Yes,NULL,Yes,NULL,NULL,NULL,NULL,NULL,NULL,NULL,1507,1507,NULL,NULL,NULL,NULL,NULL,NULL,NULL,NULL,NULL,NULL,NULL,NULL,NULL,NULL,NULL,NULL,NULL,NULL,10,+,Out,Block,NULL,3,125691,NULL,NULL,NULL,NULL,NULL,NULL,NULL,NULL,NULL,NULL,NULL,NULL,NULL,NULL,NULL,NULL,NULL,NULL,NULL,NULL,NULL,NULL,NULL,NULL,
684,MAYBERRY CAP 3,No,Yes,Yes,602,Variable,3,0,3,0,0,1,602,12.36,11.64,1,0,Off,Off,NULL,NULL,NULL,NULL,NULL,NULL,NULL,NULL,120,NULL,NULL,NULL,NULL,3,Yes,NULL,Yes,NULL,NULL,NULL,NULL,NULL,NULL,320831,3299,3299,NULL,NULL,NULL,NULL,NULL,NULL,NULL,NULL,NULL,NULL,NULL,NULL,NULL,NULL,NULL,NULL,NULL,NULL,3,+,In/Out,Normal,NULL,12,3671,NULL,CAP CB 3,Closed,NULL,Closed,NULL,NULL,NULL,0,1,13,12406,NULL,1,NULL,NULL,NULL,NULL,NULL,12407,NULL,NULL,NULL,NULL,
687,SAUGUS CAP 3AB_PSS,No,Yes,No,102,Variable,29.3,0,58.6,0,0,1,203,70.14,64.796,1,0,Off,On,NULL,NULL,NULL,NULL,NULL,NULL,NULL,NULL,120,NULL,NULL,NULL,NULL,58.6,Yes,NULL,Yes,NULL,NULL,NULL,NULL,NULL,NULL,NULL,754,754,NULL,NULL,NULL,NULL,NULL,NULL,NULL,NULL,NULL,NULL,NULL,NULL,NULL,NULL,NULL,NULL,NULL,NULL,NULL,NULL,NULL,NULL,NULL,NULL,NULL,NULL,NO.3A CAPS CB!NO.3B CAPS SW,Closed!Closed,NULL!NULL,Closed!Closed,NULL!NULL,NULL!NULL,NULL!NULL,0!0,1!1,8!9,59577!8311,NULL!NULL,1!1,NULL!NULL,NULL,NULL,NULL,NULL,58573,NULL,NULL,NULL,NULL,
688,SAUGUS CAP 5AB_PSS,No,Yes,No,801,Variable,28.8,0,57.6,0,0,1,176,70.14,64.796,1,0,Off,On,NULL,NULL,NULL,NULL,NULL,NULL,NULL,NULL,120,NULL,NULL,NULL,NULL,57.6,Yes,NULL,Yes,NULL,NULL,NULL,NULL,NULL,NULL,NULL,754,754,NULL,NULL,NULL,NULL,NULL,NULL,NULL,NULL,NULL,NULL,NULL,NULL,NULL,NULL,NULL,NULL,NULL,NULL,NULL,NULL,NULL,NULL,NULL,NULL,NULL,NULL,NO.5A CAP CB!NO.5B CAP CB,Closed!Closed,NULL!NULL,Closed!Closed,NULL!NULL,NULL!NULL,NULL!NULL,0!0,1!1,8!9,67426!92185,NULL!NULL,1!1,NULL!NULL,NULL,NULL,NULL,NULL,67432,NULL,NULL,NULL,NULL,
690,SAUGUS CAP 6AB_PSS,No,Yes,No,800,Variable,28.8,0,57.6,0,0,1,800,70.14,64.796,1,0,Off,On,NULL,NULL,NULL,NULL,NULL,NULL,NULL,NULL,120,NULL,NULL,NULL,NULL,57.6,Yes,NULL,Yes,NULL,NULL,NULL,NULL,NULL,NULL,NULL,754,754,NULL,NULL,NULL,NULL,NULL,NULL,NULL,NULL,NULL,NULL,NULL,NULL,NULL,NULL,NULL,NULL,NULL,NULL,NULL,NULL,NULL,NULL,NULL,NULL,NULL,NULL,NO.6A CAP CB!NO.6B CAP CB,Closed!Closed,NULL!NULL,Closed!Closed,NULL!NULL,NULL!NULL,NULL!NULL,0!0,1!1,8!9,78677!57537,NULL!NULL,1!1,NULL!NULL,NULL,NULL,NULL,NULL,67433,NULL,NULL,NULL,NULL,
692,ISABELLA CAP 2,Yes,Yes,Yes,119,Fixed,3.6,0,3.6,0,0,1,119,72.45,66.93,1,0,Off,Off,NULL,NULL,NULL,NULL,NULL,NULL,NULL,NULL,120,NULL,NULL,NULL,NULL,3.6,Yes,NULL,Yes,NULL,NULL,NULL,NULL,NULL,NULL,301321,1026,1026,NULL,NULL,NULL,NULL,NULL,NULL,NULL,NULL,NULL,NULL,3,+,In/Out,Normal,NULL,1,189845,NULL,10,+,Out,Block,NULL,1,189842,NULL,NULL,NULL,NULL,NULL,NULL,NULL,NULL,NULL,NULL,NULL,NULL,NULL,NULL,NULL,NULL,NULL,NULL,NULL,NULL,NULL,NULL,NULL,NULL,
701,POPLAR CAP 2A,Yes,Yes,Yes,141,Fixed,10.8,0,10.8,0,0,1,141,72.45,66.93,1,0,Off,Off,NULL,NULL,NULL,NULL,NULL,NULL,NULL,NULL,120,NULL,NULL,NULL,NULL,10.8,Yes,NULL,Yes,NULL,NULL,NULL,NULL,NULL,NULL,302231,1039,1039,NULL,NULL,NULL,NULL,NULL,NULL,NULL,NULL,NULL,NULL,NULL,NULL,NULL,NULL,NULL,NULL,NULL,NULL,NULL,NULL,NULL,NULL,NULL,NULL,NULL,NULL,NULL,NULL,NULL,NULL,NULL,NULL,NULL,NULL,NULL,NULL,NULL,NULL,NULL,NULL,NULL,NULL,NULL,NULL,NULL,NULL,NULL,NULL,NULL,
712,CANYON CAP 5,Yes,Yes,Yes,5,Fixed,28.8,0,28.8,0,0,1,5,72.45,66.93,1,0,Off,Off,NULL,NULL,NULL,NULL,NULL,NULL,NULL,NULL,120,NULL,NULL,NULL,NULL,28.8,Yes,NULL,Yes,NULL,NULL,NULL,NULL,NULL,NULL,NULL,92,92,NULL,NULL,NULL,NULL,NULL,NULL,NULL,NULL,NULL,NULL,3,+,In/Out,Normal,NULL,500,95344,NULL,10,+,Out,Block,NULL,501,95342,NULL,NULL,NULL,NULL,NULL,NULL,NULL,NULL,NULL,NULL,NULL,NULL,NULL,NULL,NULL,NULL,NULL,NULL,NULL,NULL,NULL,NULL,NULL,NULL,
717,FILLMORE NO. 1 CAP,No,Yes,Yes,150,Variable,3,0,3,0,0,1,150,17,16,1,0,Off,Off,NULL,NULL,NULL,NULL,NULL,NULL,NULL,NULL,120,NULL,NULL,NULL,NULL,3,Yes,NULL,Yes,NULL,NULL,NULL,NULL,NULL,NULL,330348,438,438,NULL,NULL,NULL,NULL,NULL,NULL,NULL,NULL,NULL,NULL,NULL,NULL,NULL,NULL,NULL,NULL,NULL,NULL,10,+,Out,Block,NULL,2,69869,NULL,NO. 1 CAPACITOR CB,Closed,NULL,Closed,NULL,NULL,NULL,0,1,1,71799,NULL,1,NULL,NULL,NULL,NULL,NULL,71801,NULL,NULL,NULL,NULL,
720,TIPTON CAP 3,Yes,Yes,Yes,202,Fixed,10.8,0,10.8,0,0,1,999,72.45,66.93,1,0,Off,Off,NULL,NULL,NULL,NULL,NULL,NULL,NULL,NULL,120,NULL,NULL,NULL,NULL,10.8,Yes,NULL,Yes,NULL,NULL,NULL,NULL,NULL,NULL,311713,1002,1002,NULL,NULL,NULL,NULL,NULL,NULL,NULL,NULL,NULL,NULL,3,+,In/Out,Normal,NULL,1,10229,NULL,10,+,Out,Block,NULL,5,10193,NULL,NULL,NULL,NULL,NULL,NULL,NULL,NULL,NULL,NULL,NULL,NULL,NULL,NULL,NULL,NULL,NULL,NULL,NULL,NULL,NULL,NULL,NULL,NULL,
721,TENAJA CAP 5,Yes,Yes,Yes,602,Fixed,46.8,0,46.8,0,0,1,202,120.75,111.55,1,0,Off,Off,NULL,NULL,NULL,NULL,NULL,NULL,NULL,NULL,120,NULL,NULL,NULL,NULL,46.8,Yes,NULL,Yes,NULL,NULL,NULL,NULL,NULL,NULL,301267,1109,1109,NULL,NULL,NULL,NULL,NULL,NULL,NULL,NULL,NULL,NULL,3,+,In/Out,Block,NULL,1,214113,NULL,10,+,Out,Block,NULL,1,214111,NULL,NULL,NULL,NULL,NULL,NULL,NULL,NULL,NULL,NULL,NULL,NULL,NULL,NULL,NULL,NULL,NULL,NULL,NULL,NULL,NULL,NULL,NULL,NULL,
731,ISABELLA CAP 3,No,Yes,Yes,113,Variable,3,0,3,0,0,1,113,13.0935,12.0959,1,0,Off,Off,NULL,NULL,NULL,NULL,NULL,NULL,NULL,NULL,120,NULL,NULL,NULL,NULL,3,Yes,NULL,Yes,NULL,NULL,NULL,NULL,NULL,NULL,301323,4127,4127,NULL,NULL,NULL,NULL,NULL,NULL,NULL,NULL,NULL,NULL,3,+,In/Out,Block,NULL,1,65670,NULL,10,+,Out,Block,NULL,1,65668,NULL,NO.3 CAP BK 12KV CB 342,Closed,NULL,Closed,NULL,NULL,NULL,0,1,8,206656,NULL,1,NULL,NULL,NULL,NULL,NULL,206787,NULL,NULL,NULL,NULL,
732,BANDUCCI CAP 1,No,Yes,Yes,113,Variable,4.8,0,4.8,0,0,1,113,13.0935,12.0959,1,0,Off,Off,NULL,NULL,NULL,NULL,NULL,NULL,NULL,NULL,120,NULL,NULL,NULL,NULL,4.8,Yes,NULL,Yes,NULL,NULL,NULL,NULL,NULL,NULL,301326,1578,1578,NULL,NULL,NULL,NULL,NULL,NULL,NULL,NULL,NULL,NULL,NULL,NULL,NULL,NULL,NULL,NULL,NULL,NULL,10,+,Out,Block,NULL,1,109806,NULL,NO.1 CAPS 12KV CB,Closed,NULL,Closed,NULL,NULL,NULL,0,1,8,66366,NULL,1,NULL,NULL,NULL,NULL,NULL,66368,NULL,NULL,NULL,NULL,
733,BANDUCCI CAP 4,No,Yes,Yes,115,Variable,4.8,0,4.8,0,0,1,115,13.0935,12.0959,1,0,Off,Off,NULL,NULL,NULL,NULL,NULL,NULL,NULL,NULL,120,NULL,NULL,NULL,NULL,4.8,Yes,NULL,Yes,NULL,NULL,NULL,NULL,NULL,NULL,301327,1578,1578,NULL,NULL,NULL,NULL,NULL,NULL,NULL,NULL,NULL,NULL,NULL,NULL,NULL,NULL,NULL,NULL,NULL,NULL,10,+,Out,Block,NULL,1,109810,NULL,NO.4 CAPS 12KV CB,Closed,NULL,Closed,NULL,NULL,NULL,0,1,8,66371,NULL,1,NULL,NULL,NULL,NULL,NULL,66373,NULL,NULL,NULL,NULL,
767,SAUGUS CAP 3A,Yes,No,Yes,102,Fixed,29.3,0,29.3,0,0,1,203,70.14,64.796,1,0,Off,On,NULL,NULL,NULL,NULL,NULL,NULL,NULL,NULL,120,NULL,NULL,NULL,NULL,29.3,Yes,NULL,Yes,NULL,NULL,NULL,NULL,NULL,NULL,302368,754,754,NULL,NULL,NULL,NULL,NULL,NULL,NULL,NULL,NULL,NULL,NULL,NULL,NULL,NULL,NULL,NULL,NULL,NULL,NULL,NULL,NULL,NULL,NULL,NULL,NULL,NULL,NULL,NULL,NULL,NULL,NULL,NULL,NULL,NULL,NULL,NULL,NULL,NULL,NULL,NULL,NULL,NULL,NULL,NULL,NULL,NULL,NULL,NULL,NULL,
768,SAUGUS CAP 3B,Yes,No,Yes,203,Fixed,29.3,0,29.3,0,0,1,203,70.14,64.796,1,0,Off,On,NULL,NULL,NULL,NULL,NULL,NULL,NULL,NULL,120,NULL,NULL,NULL,NULL,29.3,Yes,NULL,Yes,NULL,NULL,NULL,NULL,NULL,NULL,302369,754,754,NULL,NULL,NULL,NULL,NULL,NULL,NULL,NULL,NULL,NULL,NULL,NULL,NULL,NULL,NULL,NULL,NULL,NULL,NULL,NULL,NULL,NULL,NULL,NULL,NULL,NULL,NULL,NULL,NULL,NULL,NULL,NULL,NULL,NULL,NULL,NULL,NULL,NULL,NULL,NULL,NULL,NULL,NULL,NULL,NULL,NULL,NULL,NULL,NULL,
769,SAUGUS CAP 5A,Yes,No,Yes,801,Fixed,28.8,0,28.8,0,0,1,176,70.14,64.796,1,0,Off,On,NULL,NULL,NULL,NULL,NULL,NULL,NULL,NULL,120,NULL,NULL,NULL,NULL,28.8,Yes,NULL,Yes,NULL,NULL,NULL,NULL,NULL,NULL,302370,754,754,NULL,NULL,NULL,NULL,NULL,NULL,NULL,NULL,NULL,NULL,NULL,NULL,NULL,NULL,NULL,NULL,NULL,NULL,NULL,NULL,NULL,NULL,NULL,NULL,NULL,NULL,NULL,NULL,NULL,NULL,NULL,NULL,NULL,NULL,NULL,NULL,NULL,NULL,NULL,NULL,NULL,NULL,NULL,NULL,NULL,NULL,NULL,NULL,NULL,
770,SAUGUS CAP 5B,Yes,No,Yes,189,Fixed,28.8,0,28.8,0,0,1,176,70.14,64.796,1,0,Off,On,NULL,NULL,NULL,NULL,NULL,NULL,NULL,NULL,120,NULL,NULL,NULL,NULL,28.8,Yes,NULL,Yes,NULL,NULL,NULL,NULL,NULL,NULL,302371,754,754,NULL,NULL,NULL,NULL,NULL,NULL,NULL,NULL,NULL,NULL,NULL,NULL,NULL,NULL,NULL,NULL,NULL,NULL,NULL,NULL,NULL,NULL,NULL,NULL,NULL,NULL,NULL,NULL,NULL,NULL,NULL,NULL,NULL,NULL,NULL,NULL,NULL,NULL,NULL,NULL,NULL,NULL,NULL,NULL,NULL,NULL,NULL,NULL,NULL,
771,SAUGUS CAP 6A,Yes,No,Yes,800,Fixed,28.8,0,28.8,0,0,1,800,70.14,64.796,1,0,Off,On,NULL,NULL,NULL,NULL,NULL,NULL,NULL,NULL,120,NULL,NULL,NULL,NULL,57.6,Yes,NULL,Yes,NULL,NULL,NULL,NULL,NULL,NULL,302372,754,754,NULL,NULL,NULL,NULL,NULL,NULL,NULL,NULL,NULL,NULL,NULL,NULL,NULL,NULL,NULL,NULL,NULL,NULL,NULL,NULL,NULL,NULL,NULL,NULL,NULL,NULL,NULL,NULL,NULL,NULL,NULL,NULL,NULL,NULL,NULL,NULL,NULL,NULL,NULL,NULL,NULL,NULL,NULL,NULL,NULL,NULL,NULL,NULL,NULL,
772,SAUGUS CAP 6B,Yes,No,Yes,187,Fixed,28.8,0,28.8,0,0,1,800,70.14,64.796,1,0,Off,On,NULL,NULL,NULL,NULL,NULL,NULL,NULL,NULL,120,NULL,NULL,NULL,NULL,57.6,Yes,NULL,Yes,NULL,NULL,NULL,NULL,NULL,NULL,302373,754,754,NULL,NULL,NULL,NULL,NULL,NULL,NULL,NULL,NULL,NULL,NULL,NULL,NULL,NULL,NULL,NULL,NULL,NULL,NULL,NULL,NULL,NULL,NULL,NULL,NULL,NULL,NULL,NULL,NULL,NULL,NULL,NULL,NULL,NULL,NULL,NULL,NULL,NULL,NULL,NULL,NULL,NULL,NULL,NULL,NULL,NULL,NULL,NULL,NULL,
775,VILLA PARK CAP 1A,Yes,No,Yes,20,Variable,29.7,0,29.7,0,0,1,999,72.45,66.93,1,0,Off,Off,NULL,NULL,NULL,NULL,NULL,NULL,NULL,NULL,120,NULL,NULL,NULL,NULL,29.7,Yes,NULL,Yes,NULL,NULL,NULL,NULL,NULL,NULL,302375,86,86,NULL,NULL,NULL,NULL,NULL,NULL,NULL,NULL,NULL,NULL,NULL,NULL,NULL,NULL,NULL,NULL,NULL,NULL,NULL,NULL,NULL,NULL,NULL,NULL,NULL,NULL,NULL,NULL,NULL,NULL,NULL,NULL,NULL,NULL,NULL,NULL,NULL,NULL,NULL,NULL,NULL,NULL,NULL,NULL,NULL,NULL,NULL,NULL,NULL,
776,VILLA PARK CAP 1B,Yes,No,Yes,21,Variable,29.7,0,29.7,0,0,1,999,72.45,66.93,1,0,Off,Off,NULL,NULL,NULL,NULL,NULL,NULL,NULL,NULL,120,NULL,NULL,NULL,NULL,29.7,Yes,NULL,Yes,NULL,NULL,NULL,NULL,NULL,NULL,302376,86,86,NULL,NULL,NULL,NULL,NULL,NULL,NULL,NULL,NULL,NULL,NULL,NULL,NULL,NULL,NULL,NULL,NULL,NULL,NULL,NULL,NULL,NULL,NULL,NULL,NULL,NULL,NULL,NULL,NULL,NULL,NULL,NULL,NULL,NULL,NULL,NULL,NULL,NULL,NULL,NULL,NULL,NULL,NULL,NULL,NULL,NULL,NULL,NULL,NULL,
779,VILLA PARK CAP 2A,Yes,No,Yes,70,Fixed,29.7,0,29.7,0,0,1,50,72.45,66.93,1,0,Off,Off,NULL,NULL,NULL,NULL,NULL,NULL,NULL,NULL,120,NULL,NULL,NULL,NULL,29.7,Yes,NULL,Yes,NULL,NULL,NULL,NULL,NULL,NULL,302377,86,86,NULL,NULL,NULL,NULL,NULL,NULL,NULL,NULL,NULL,NULL,NULL,NULL,NULL,NULL,NULL,NULL,NULL,NULL,NULL,NULL,NULL,NULL,NULL,NULL,NULL,NULL,NULL,NULL,NULL,NULL,NULL,NULL,NULL,NULL,NULL,NULL,NULL,NULL,NULL,NULL,NULL,NULL,NULL,NULL,87150,NULL,NULL,NULL,NULL,
780,VILLA PARK CAP 2B,Yes,No,Yes,71,Fixed,29.7,0,29.7,0,0,1,50,72.45,66.93,1,0,Off,Off,NULL,NULL,NULL,NULL,NULL,NULL,NULL,NULL,120,NULL,NULL,NULL,NULL,29.7,Yes,NULL,Yes,NULL,NULL,NULL,NULL,NULL,NULL,302378,86,86,NULL,NULL,NULL,NULL,NULL,NULL,NULL,NULL,NULL,NULL,NULL,NULL,NULL,NULL,NULL,NULL,NULL,NULL,NULL,NULL,NULL,NULL,NULL,NULL,NULL,NULL,NULL,NULL,NULL,NULL,NULL,NULL,NULL,NULL,NULL,NULL,NULL,NULL,NULL,NULL,NULL,NULL,NULL,NULL,87150,NULL,NULL,NULL,NULL,
781,VILLA PARK CAP 7A,Yes,No,Yes,73,Variable,28.8,0,28.8,0,0,1,19,72.45,66.93,1,0,Off,Off,NULL,NULL,NULL,NULL,NULL,NULL,NULL,NULL,120,NULL,NULL,NULL,NULL,28.8,Yes,NULL,Yes,NULL,NULL,NULL,NULL,NULL,NULL,302380,86,86,NULL,NULL,NULL,NULL,NULL,NULL,NULL,NULL,NULL,NULL,NULL,NULL,NULL,NULL,NULL,NULL,NULL,NULL,NULL,NULL,NULL,NULL,NULL,NULL,NULL,NULL,NULL,NULL,NULL,NULL,NULL,NULL,NULL,NULL,NULL,NULL,NULL,NULL,NULL,NULL,NULL,NULL,NULL,NULL,NULL,NULL,NULL,NULL,NULL,
782,VILLA PARK CAP 7B,Yes,No,Yes,72,Variable,28.8,0,28.8,0,0,1,19,72.45,66.93,1,0,Off,Off,NULL,NULL,NULL,NULL,NULL,NULL,NULL,NULL,120,NULL,NULL,NULL,NULL,28.8,Yes,NULL,Yes,NULL,NULL,NULL,NULL,NULL,NULL,302381,86,86,NULL,NULL,NULL,NULL,NULL,NULL,NULL,NULL,NULL,NULL,NULL,NULL,NULL,NULL,NULL,NULL,NULL,NULL,NULL,NULL,NULL,NULL,NULL,NULL,NULL,NULL,NULL,NULL,NULL,NULL,NULL,NULL,NULL,NULL,NULL,NULL,NULL,NULL,NULL,NULL,NULL,NULL,NULL,NULL,NULL,NULL,NULL,NULL,NULL,
787,GAVILAN CAP 2,No,No,Yes,601,Fixed,3.6,0,3.6,0,0,1,601,33.99,32.01,1,0,Off,Off,NULL,NULL,NULL,NULL,NULL,NULL,NULL,NULL,120,NULL,NULL,NULL,NULL,3.6,Yes,NULL,No,NULL,NULL,NULL,NULL,NULL,NULL,321397,3280,3280,NULL,NULL,NULL,NULL,NULL,NULL,NULL,NULL,NULL,NULL,3,+,In/Out,Normal,NULL,1,192779,NULL,10,+,Out,Block,NULL,12,183252,NULL,NULL,NULL,NULL,NULL,NULL,NULL,NULL,NULL,NULL,NULL,NULL,NULL,NULL,NULL,NULL,NULL,NULL,NULL,NULL,NULL,NULL,NULL,NULL,
810,STADLER CAP 5,Yes,Yes,Yes,115,Fixed,46.8,0,46.8,0,0,1,115,120.75,111.55,1,0,Off,Off,NULL,NULL,NULL,NULL,NULL,NULL,NULL,NULL,120,NULL,NULL,NULL,NULL,46.8,Yes,NULL,Yes,NULL,NULL,NULL,NULL,NULL,NULL,NULL,558,558,NULL,NULL,NULL,NULL,NULL,NULL,NULL,NULL,NULL,NULL,3,+,In/Out,Normal,NULL,8919,183779,NULL,10,+,Out,Block,NULL,8920,183776,NULL,NULL,NULL,NULL,NULL,NULL,NULL,NULL,NULL,NULL,NULL,NULL,NULL,NULL,NULL,NULL,NULL,NULL,NULL,NULL,NULL,NULL,NULL,NULL,
811,MORENO CAP 1,Yes,Yes,Yes,111,Fixed,28.8,0,28.8,0,0,1,111,120.75,111.55,1,0,Off,Off,NULL,NULL,NULL,NULL,NULL,NULL,NULL,NULL,120,NULL,NULL,NULL,NULL,28.8,Yes,NULL,Yes,NULL,NULL,NULL,NULL,NULL,NULL,321359,552,552,NULL,NULL,NULL,NULL,NULL,NULL,NULL,NULL,NULL,NULL,NULL,NULL,NULL,NULL,NULL,NULL,NULL,NULL,NULL,NULL,NULL,NULL,NULL,NULL,NULL,NULL,NULL,NULL,NULL,NULL,NULL,NULL,NULL,NULL,NULL,NULL,NULL,NULL,NULL,NULL,NULL,NULL,NULL,NULL,NULL,NULL,NULL,NULL,NULL,
812,CAJALCO CAP 2,Yes,Yes,Yes,109,Fixed,28.8,0,28.8,0,0,1,109,120.75,111.55,1,0,Off,Off,NULL,NULL,NULL,NULL,NULL,NULL,NULL,NULL,120,NULL,NULL,NULL,NULL,28.8,Yes,NULL,Yes,NULL,NULL,NULL,NULL,NULL,NULL,NULL,547,547,NULL,NULL,NULL,NULL,NULL,NULL,NULL,NULL,NULL,NULL,3,+,In/Out,Normal,NULL,1,210730,NULL,10,+,Out,Block,NULL,7,210728,NULL,NULL,NULL,NULL,NULL,NULL,NULL,NULL,NULL,NULL,NULL,NULL,NULL,NULL,NULL,NULL,NULL,NULL,NULL,NULL,NULL,NULL,NULL,NULL,
813,ALESSANDRO CAP 3B,Yes,Yes,Yes,122,Fixed,28.8,0,28.8,0,0,1,122,120.75,111.55,1,0,Off,Off,NULL,NULL,NULL,NULL,NULL,NULL,NULL,NULL,120,NULL,NULL,NULL,NULL,28.8,Yes,NULL,Yes,NULL,NULL,NULL,NULL,NULL,NULL,NULL,544,544,NULL,NULL,NULL,NULL,NULL,NULL,NULL,NULL,NULL,NULL,NULL,NULL,NULL,NULL,NULL,NULL,NULL,NULL,NULL,NULL,NULL,NULL,NULL,NULL,NULL,NULL,NULL,NULL,NULL,NULL,NULL,NULL,NULL,NULL,NULL,NULL,NULL,NULL,NULL,NULL,NULL,NULL,NULL,NULL,NULL,NULL,NULL,NULL,NULL,
816,BRYAN CAP 2,No,Yes,Yes,135,Fixed,6,0,6,0,0,1,135,12.6,11.64,1,0,Off,Off,NULL,NULL,NULL,NULL,NULL,NULL,NULL,NULL,120,NULL,NULL,NULL,NULL,6,Yes,NULL,Yes,NULL,NULL,NULL,NULL,NULL,NULL,320952,90,90,NULL,NULL,3,+,In/Out,Normal,NULL,10,101408,NULL,NULL,NULL,NULL,NULL,NULL,NULL,NULL,NULL,NULL,NULL,NULL,NULL,NULL,NULL,NULL,NULL,NULL,NULL,NULL,NULL,NULL,NULL,NULL,NULL,NULL,NULL,NULL,NULL,NULL,NULL,NULL,NULL,NULL,NULL,NULL,NULL,NULL,NULL,NULL,
817,BRYAN CAP 1B,No,Yes,Yes,155,Fixed,4.8,0,4.8,0,0,1,155,12.6,11.64,1,0,Off,Off,NULL,NULL,NULL,NULL,NULL,NULL,NULL,NULL,120,NULL,NULL,NULL,NULL,4.8,Yes,NULL,Yes,NULL,NULL,NULL,NULL,NULL,NULL,320953,90,90,NULL,NULL,3,+,In/Out,Normal,NULL,10,101405,NULL,NULL,NULL,NULL,NULL,NULL,NULL,NULL,NULL,NULL,NULL,NULL,NULL,NULL,NULL,NULL,NULL,NULL,NULL,NULL,NULL,NULL,NULL,NULL,NULL,NULL,NULL,NULL,NULL,NULL,NULL,NULL,NULL,NULL,NULL,NULL,NULL,NULL,NULL,NULL,
818,BRYAN CAP 1A,No,Yes,Yes,139,Fixed,4.8,0,4.8,0,0,1,139,12.6,11.64,1,0,Off,Off,NULL,NULL,NULL,NULL,NULL,NULL,NULL,NULL,120,NULL,NULL,NULL,NULL,4.8,Yes,NULL,Yes,NULL,NULL,NULL,NULL,NULL,NULL,320954,90,90,NULL,NULL,3,+,In/Out,Normal,NULL,10,101404,NULL,NULL,NULL,NULL,NULL,NULL,NULL,NULL,NULL,NULL,NULL,NULL,NULL,NULL,NULL,NULL,NULL,NULL,NULL,NULL,NULL,NULL,NULL,NULL,NULL,NULL,NULL,NULL,NULL,NULL,NULL,NULL,NULL,NULL,NULL,NULL,NULL,NULL,NULL,NULL,
821,VALLEY CAP 7,No,Yes,Yes,201,Variable,6,0,6,0,0,1,201,13.0935,12.0959,1,0,Off,Off,NULL,NULL,NULL,NULL,NULL,NULL,NULL,NULL,120,NULL,NULL,NULL,NULL,6,Yes,NULL,Yes,NULL,NULL,NULL,NULL,NULL,NULL,321186,540,540,NULL,NULL,NULL,NULL,NULL,NULL,NULL,NULL,NULL,NULL,3,+,In/Out,Block,NULL,1,175482,NULL,10,+,Out,Block,NULL,2919,175481,NULL,NO.7 12KV CAP CB,Closed,NULL,Closed,NULL,NULL,NULL,0,1,8,226931,NULL,1,NULL,NULL,NULL,NULL,NULL,226943,NULL,NULL,NULL,NULL,
822,AULD CAP 6,No,Yes,Yes,302,Variable,4.8,0,4.8,0,0,1,302,12.978,11.9892,1,0,Off,Off,NULL,NULL,NULL,NULL,NULL,NULL,NULL,NULL,120,NULL,NULL,NULL,NULL,4.8,Yes,NULL,Yes,NULL,NULL,NULL,NULL,NULL,NULL,321187,1522,1522,NULL,NULL,NULL,NULL,NULL,NULL,NULL,NULL,NULL,NULL,NULL,NULL,NULL,NULL,NULL,NULL,NULL,NULL,10,+,Out,Block,NULL,2969,208159,NULL,NO.6 CAPS 12KV SW,Closed,NULL,Closed,NULL,NULL,NULL,0,1,8,44273,NULL,1,NULL,NULL,NULL,NULL,NULL,44275,NULL,NULL,NULL,NULL,
823,IVYGLEN CAP 3,Yes,Yes,Yes,117,Fixed,28.8,0,28.8,0,0,1,117,120.75,111.55,1,0,Off,Off,NULL,NULL,NULL,NULL,NULL,NULL,NULL,NULL,120,NULL,NULL,NULL,NULL,28.8,Yes,NULL,Yes,NULL,NULL,NULL,NULL,NULL,NULL,NULL,549,549,NULL,NULL,NULL,NULL,NULL,NULL,NULL,NULL,NULL,NULL,3,+,In/Out,Normal,NULL,1,207968,NULL,10,+,Out,Block,NULL,2969,207966,NULL,NULL,NULL,NULL,NULL,NULL,NULL,NULL,NULL,NULL,NULL,NULL,NULL,NULL,NULL,NULL,NULL,NULL,NULL,NULL,NULL,NULL,NULL,NULL,
826,NATURAL CAP 1_PSS,No,Yes,No,103,Variable,14.4,0,14.4,0,0,1,103,70.14,64.796,1,0,OnInBaseCaseAndCa,On,NULL,NULL,NULL,NULL,NULL,NULL,NULL,NULL,120,NULL,NULL,NULL,NULL,14.4,Yes,NULL,Yes,NULL,NULL,NULL,NULL,NULL,NULL,NULL,1551,1551,NULL,NULL,NULL,NULL,NULL,NULL,NULL,NULL,NULL,NULL,NULL,NULL,NULL,NULL,NULL,NULL,NULL,NULL,NULL,NULL,NULL,NULL,NULL,NULL,NULL,NULL,NO.1 CAPS CB,Closed,NULL,Closed,NULL,NULL,NULL,0,1,8,244155,NULL,1,NULL,NULL,NULL,NULL,NULL,244157,NULL,NULL,NULL,NULL,
827,NATURAL CAP 2_PSS,No,Yes,No,113,Variable,14.4,0,14.4,0,0,1,113,70.14,64.796,1,0,OnInBaseCaseAndCa,On,NULL,NULL,NULL,NULL,NULL,NULL,NULL,NULL,120,NULL,NULL,NULL,NULL,14.4,Yes,NULL,Yes,NULL,NULL,NULL,NULL,NULL,NULL,NULL,1551,1551,NULL,NULL,NULL,NULL,NULL,NULL,NULL,NULL,NULL,NULL,NULL,NULL,NULL,NULL,NULL,NULL,NULL,NULL,NULL,NULL,NULL,NULL,NULL,NULL,NULL,NULL,NO.2 CAPS CB,Closed,NULL,Closed,NULL,NULL,NULL,0,1,8,244165,NULL,1,NULL,NULL,NULL,NULL,NULL,244167,NULL,NULL,NULL,NULL,
840,TIPTON CAP 2,Yes,Yes,Yes,122,Fixed,10.8,0,10.8,0,0,1,999,72.45,66.93,1,0,Off,Off,NULL,NULL,NULL,NULL,NULL,NULL,NULL,NULL,120,NULL,NULL,NULL,NULL,10.8,Yes,NULL,Yes,NULL,NULL,NULL,NULL,NULL,NULL,311714,1002,1002,NULL,NULL,NULL,NULL,NULL,NULL,NULL,NULL,NULL,NULL,3,+,In/Out,Normal,NULL,3,1208,NULL,10,+,Out,Block,NULL,1,141191,NULL,NULL,NULL,NULL,NULL,NULL,NULL,NULL,NULL,NULL,NULL,NULL,NULL,NULL,NULL,NULL,NULL,NULL,NULL,NULL,NULL,NULL,NULL,NULL,
851,MONOLITH CAP 2B,Yes,Yes,Yes,16,Fixed,16.2,0,16.2,0,0,1,16,68.775,63.535,1,0,Off,Off,NULL,NULL,NULL,NULL,NULL,NULL,NULL,NULL,120,NULL,NULL,NULL,NULL,16.2,Yes,NULL,Yes,NULL,NULL,NULL,NULL,NULL,NULL,301269,873,873,NULL,NULL,NULL,NULL,NULL,NULL,NULL,NULL,NULL,NULL,NULL,NULL,NULL,NULL,NULL,NULL,NULL,NULL,NULL,NULL,NULL,NULL,NULL,NULL,NULL,NULL,NULL,NULL,NULL,NULL,NULL,NULL,NULL,NULL,NULL,NULL,NULL,NULL,NULL,NULL,NULL,NULL,NULL,NULL,NULL,NULL,NULL,NULL,NULL,
852,MONOLITH CAP 2A,Yes,Yes,Yes,18,Fixed,16.2,0,16.2,0,0,1,18,68.775,63.535,1,0,Off,Off,NULL,NULL,NULL,NULL,NULL,NULL,NULL,NULL,120,NULL,NULL,NULL,NULL,16.2,Yes,NULL,Yes,NULL,NULL,NULL,NULL,NULL,NULL,301268,873,873,NULL,NULL,NULL,NULL,NULL,NULL,NULL,NULL,NULL,NULL,NULL,NULL,NULL,NULL,NULL,NULL,NULL,NULL,NULL,NULL,NULL,NULL,NULL,NULL,NULL,NULL,NULL,NULL,NULL,NULL,NULL,NULL,NULL,NULL,NULL,NULL,NULL,NULL,NULL,NULL,NULL,NULL,NULL,NULL,NULL,NULL,NULL,NULL,NULL,
861,LIMESTONE CAP 4,No,Yes,Yes,641,Variable,6,0,6,0,0,1,999,13.0935,12.0959,1,0,Off,Off,NULL,NULL,NULL,NULL,NULL,NULL,NULL,NULL,120,NULL,NULL,NULL,NULL,6,Yes,NULL,Yes,NULL,NULL,NULL,NULL,NULL,NULL,324076,2036,2036,NULL,NULL,NULL,NULL,NULL,NULL,NULL,NULL,NULL,NULL,NULL,NULL,NULL,NULL,NULL,NULL,NULL,NULL,10,+,Out,Block,NULL,1,100853,NULL,NO.4 CAP CB,Open,NULL,Open,NULL,NULL,NULL,0,1,1,125206,NULL,1,NULL,NULL,NULL,NULL,NULL,125208,NULL,NULL,NULL,NULL,
862,LIMESTONE CAP 3,No,Yes,Yes,631,Variable,6,0,6,0,0,1,500,13.0935,12.0959,1,0,Off,Off,NULL,NULL,NULL,NULL,NULL,NULL,NULL,NULL,120,NULL,NULL,NULL,NULL,6,Yes,NULL,Yes,NULL,NULL,NULL,NULL,NULL,NULL,324077,2036,2036,NULL,NULL,NULL,NULL,NULL,NULL,NULL,NULL,NULL,NULL,NULL,NULL,NULL,NULL,NULL,NULL,NULL,NULL,10,+,Out,Block,NULL,1,113363,NULL,NO.3 CAP CB,Open,NULL,Open,NULL,NULL,NULL,0,1,1,134457,NULL,1,NULL,NULL,NULL,NULL,NULL,134459,NULL,NULL,NULL,NULL,
863,LIMESTONE CAP 2,No,Yes,Yes,620,Variable,6,0,6,0,0,1,997,13.0935,12.0959,1,0,Off,Off,NULL,NULL,NULL,NULL,NULL,NULL,NULL,NULL,120,NULL,NULL,NULL,NULL,6,Yes,NULL,Yes,NULL,NULL,NULL,NULL,NULL,NULL,324078,2036,2036,NULL,NULL,NULL,NULL,NULL,NULL,NULL,NULL,NULL,NULL,NULL,NULL,NULL,NULL,NULL,NULL,NULL,NULL,10,+,Out,Block,NULL,1,113359,NULL,NO.2 CAP CB,Open,NULL,Open,NULL,NULL,NULL,0,1,1,134449,NULL,1,NULL,NULL,NULL,NULL,NULL,134451,NULL,NULL,NULL,NULL,
864,LIMESTONE CAP 1,No,Yes,Yes,610,Variable,3,0,3,0,0,1,498,13.0935,12.0959,1,0,Off,Off,NULL,NULL,NULL,NULL,NULL,NULL,NULL,NULL,120,NULL,NULL,NULL,NULL,3,Yes,NULL,Yes,NULL,NULL,NULL,NULL,NULL,NULL,324079,2036,2036,NULL,NULL,NULL,NULL,NULL,NULL,NULL,NULL,NULL,NULL,NULL,NULL,NULL,NULL,NULL,NULL,NULL,NULL,10,+,Out,Block,NULL,1,113355,NULL,NO.1 CAP CB,Open,NULL,Open,NULL,NULL,NULL,0,1,1,134441,NULL,1,NULL,NULL,NULL,NULL,NULL,134443,NULL,NULL,NULL,NULL,
873,VILLA PARK CAP 8,Yes,No,Yes,172,Fixed,28.8,0,28.8,0,0,1,69,72.45,66.93,1,0,Off,Off,NULL,NULL,NULL,NULL,NULL,NULL,NULL,NULL,120,NULL,NULL,NULL,NULL,28.8,Yes,NULL,Yes,NULL,NULL,NULL,NULL,NULL,NULL,301271,86,86,NULL,NULL,NULL,NULL,NULL,NULL,NULL,NULL,NULL,NULL,NULL,NULL,NULL,NULL,NULL,NULL,NULL,NULL,NULL,NULL,NULL,NULL,NULL,NULL,NULL,NULL,NULL,NULL,NULL,NULL,NULL,NULL,NULL,NULL,NULL,NULL,NULL,NULL,NULL,NULL,NULL,NULL,NULL,NULL,NULL,NULL,NULL,NULL,NULL,
893,EL SOBRANTE CAP 1,No,No,Yes,110,Fixed,6,0,6,0,0,1,110,33.99,32.01,1,0,Off,Off,NULL,NULL,NULL,NULL,NULL,NULL,NULL,NULL,120,NULL,NULL,NULL,NULL,6,Yes,NULL,No,NULL,NULL,NULL,NULL,NULL,NULL,324734,3282,3282,NULL,NULL,NULL,NULL,NULL,NULL,NULL,NULL,NULL,NULL,NULL,NULL,NULL,NULL,NULL,NULL,NULL,NULL,NULL,NULL,NULL,NULL,NULL,NULL,NULL,NULL,NULL,NULL,NULL,NULL,NULL,NULL,NULL,NULL,NULL,NULL,NULL,NULL,NULL,NULL,NULL,NULL,NULL,NULL,NULL,NULL,NULL,NULL,NULL,
896,MORAGA CAP 2A,No,No,Yes,112,Fixed,4.5,0,4.5,0,0,1,112,33.99,32.01,1,0,Off,Off,NULL,NULL,NULL,NULL,NULL,NULL,NULL,NULL,120,NULL,NULL,NULL,0,4.5,Yes,NULL,Yes,NULL,NULL,NULL,NULL,NULL,NULL,321352,3500,3500,NULL,NULL,NULL,NULL,NULL,NULL,NULL,NULL,NULL,NULL,NULL,NULL,NULL,NULL,NULL,NULL,NULL,NULL,10,+,Out,Block,NULL,22,218452,NULL,NULL,NULL,NULL,NULL,NULL,NULL,NULL,NULL,NULL,NULL,NULL,NULL,NULL,NULL,NULL,NULL,NULL,NULL,NULL,NULL,NULL,NULL,NULL,
897,MORAGA CAP 2B,No,No,Yes,113,Fixed,4.5,0,4.5,0,0,1,113,33.99,32.01,1,0,Off,Off,NULL,NULL,NULL,NULL,NULL,NULL,NULL,NULL,120,NULL,NULL,NULL,0,4.5,Yes,NULL,Yes,NULL,NULL,NULL,NULL,NULL,NULL,321353,3500,3500,NULL,NULL,NULL,NULL,NULL,NULL,NULL,NULL,NULL,NULL,NULL,NULL,NULL,NULL,NULL,NULL,NULL,NULL,10,+,Out,Block,NULL,22,5755,NULL,NULL,NULL,NULL,NULL,NULL,NULL,NULL,NULL,NULL,NULL,NULL,NULL,NULL,NULL,NULL,NULL,NULL,NULL,NULL,NULL,NULL,NULL,NULL,
910,EARLIMART CAP 1,No,Yes,Yes,216,Variable,1.5,0,1.5,0,0,1,216,13.125,12.125,1,0,Off,Off,NULL,NULL,NULL,NULL,NULL,NULL,NULL,NULL,120,NULL,NULL,NULL,NULL,1.5,Yes,NULL,Yes,NULL,NULL,NULL,NULL,NULL,NULL,323816,2020,2020,NULL,NULL,NULL,NULL,NULL,NULL,NULL,NULL,NULL,NULL,NULL,NULL,NULL,NULL,NULL,NULL,NULL,NULL,NULL,NULL,NULL,NULL,NULL,NULL,NULL,NULL,NO.1 CAPS SW,Closed,NULL,Closed,NULL,NULL,NULL,0,1,8,161550,NULL,1,NULL,NULL,NULL,NULL,NULL,161552,NULL,NULL,NULL,NULL,
913,SAUGUS CAP 7_PSS,No,Yes,No,192,Variable,28.8,0,28.8,0,0,1,192,70.14,64.796,1,0,Off,On,NULL,NULL,NULL,NULL,NULL,NULL,NULL,NULL,120,NULL,NULL,NULL,NULL,28.8,Yes,NULL,Yes,NULL,NULL,NULL,NULL,NULL,NULL,NULL,754,754,NULL,NULL,NULL,NULL,NULL,NULL,NULL,NULL,NULL,NULL,NULL,NULL,NULL,NULL,NULL,NULL,NULL,NULL,NULL,NULL,NULL,NULL,NULL,NULL,NULL,NULL,NO.7 CAPS CB,Closed,NULL,Closed,NULL,NULL,NULL,0,1,8,78757,NULL,1,NULL,NULL,NULL,NULL,NULL,67438,NULL,NULL,NULL,NULL,
915,VIEJO CAP 1,Yes,No,Yes,7,Fixed,28.8,0,28.8,0,0,1,7,72.45,66.93,1,0,Off,Off,NULL,NULL,NULL,NULL,NULL,NULL,NULL,NULL,120,NULL,NULL,NULL,NULL,28.8,Yes,NULL,Yes,NULL,NULL,NULL,NULL,NULL,NULL,312873,658,658,NULL,NULL,NULL,NULL,NULL,NULL,NULL,NULL,NULL,NULL,NULL,NULL,NULL,NULL,NULL,NULL,NULL,NULL,NULL,NULL,NULL,NULL,NULL,NULL,NULL,NULL,NULL,NULL,NULL,NULL,NULL,NULL,NULL,NULL,NULL,NULL,NULL,NULL,NULL,NULL,NULL,NULL,NULL,NULL,NULL,NULL,NULL,NULL,NULL,
916,VIEJO CAP 2,Yes,No,Yes,56,Fixed,28.8,0,28.8,0,0,1,56,72.45,66.93,1,0,Off,Off,NULL,NULL,NULL,NULL,NULL,NULL,NULL,NULL,120,NULL,NULL,NULL,NULL,28.8,Yes,NULL,Yes,NULL,NULL,NULL,NULL,NULL,NULL,312874,658,658,NULL,NULL,NULL,NULL,NULL,NULL,NULL,NULL,NULL,NULL,NULL,NULL,NULL,NULL,NULL,NULL,NULL,NULL,NULL,NULL,NULL,NULL,NULL,NULL,NULL,NULL,NULL,NULL,NULL,NULL,NULL,NULL,NULL,NULL,NULL,NULL,NULL,NULL,NULL,NULL,NULL,NULL,NULL,NULL,NULL,NULL,NULL,NULL,NULL,
917,VIEJO CAP 5,Yes,No,Yes,122,Fixed,28.8,0,28.8,0,0,1,122,72.45,66.93,1,0,Off,Off,NULL,NULL,NULL,NULL,NULL,NULL,NULL,NULL,120,NULL,NULL,NULL,NULL,28.8,Yes,NULL,Yes,NULL,NULL,NULL,NULL,NULL,NULL,312875,658,658,NULL,NULL,NULL,NULL,NULL,NULL,NULL,NULL,NULL,NULL,NULL,NULL,NULL,NULL,NULL,NULL,NULL,NULL,NULL,NULL,NULL,NULL,NULL,NULL,NULL,NULL,NULL,NULL,NULL,NULL,NULL,NULL,NULL,NULL,NULL,NULL,NULL,NULL,NULL,NULL,NULL,NULL,NULL,NULL,NULL,NULL,NULL,NULL,NULL,
918,WINDHUB CAP 3,Yes,No,Yes,306,Fixed,28.8,0,28.8,0,0,1,306,72.45,66.93,1,0,Off,Off,NULL,NULL,NULL,NULL,NULL,NULL,NULL,NULL,120,NULL,NULL,NULL,NULL,28.8,Yes,NULL,Yes,NULL,NULL,NULL,NULL,NULL,NULL,312880,2393,2393,NULL,NULL,NULL,NULL,NULL,NULL,NULL,NULL,NULL,NULL,NULL,NULL,NULL,NULL,NULL,NULL,NULL,NULL,NULL,NULL,NULL,NULL,NULL,NULL,NULL,NULL,NULL,NULL,NULL,NULL,NULL,NULL,NULL,NULL,NULL,NULL,NULL,NULL,NULL,NULL,NULL,NULL,NULL,NULL,NULL,NULL,NULL,NULL,NULL,
919,WINDHUB CAP 4,Yes,No,Yes,406,Fixed,28.8,0,28.8,0,0,1,406,72.45,66.93,1,0,Off,Off,NULL,NULL,NULL,NULL,NULL,NULL,NULL,NULL,120,NULL,NULL,NULL,NULL,28.8,Yes,NULL,Yes,NULL,NULL,NULL,NULL,NULL,NULL,312881,2393,2393,NULL,NULL,NULL,NULL,NULL,NULL,NULL,NULL,NULL,NULL,NULL,NULL,NULL,NULL,NULL,NULL,NULL,NULL,NULL,NULL,NULL,NULL,NULL,NULL,NULL,NULL,NULL,NULL,NULL,NULL,NULL,NULL,NULL,NULL,NULL,NULL,NULL,NULL,NULL,NULL,NULL,NULL,NULL,NULL,NULL,NULL,NULL,NULL,NULL,
920,WINDHUB CAP 5,Yes,No,Yes,506,Fixed,28.8,0,28.8,0,0,1,506,72.45,66.93,1,0,Off,Off,NULL,NULL,NULL,NULL,NULL,NULL,NULL,NULL,120,NULL,NULL,NULL,NULL,28.8,Yes,NULL,Yes,NULL,NULL,NULL,NULL,NULL,NULL,312882,2393,2393,NULL,NULL,NULL,NULL,NULL,NULL,NULL,NULL,NULL,NULL,NULL,NULL,NULL,NULL,NULL,NULL,NULL,NULL,NULL,NULL,NULL,NULL,NULL,NULL,NULL,NULL,NULL,NULL,NULL,NULL,NULL,NULL,NULL,NULL,NULL,NULL,NULL,NULL,NULL,NULL,NULL,NULL,NULL,NULL,NULL,NULL,NULL,NULL,NULL,
926,SAUGUS CAP 1_PSS,No,Yes,No,171,Variable,28.8,0,28.8,0,0,1,171,70.14,64.796,1,0,OnInBaseCaseAndCa,On,NULL,NULL,NULL,NULL,NULL,NULL,NULL,NULL,120,NULL,NULL,NULL,NULL,28.8,Yes,NULL,Yes,NULL,NULL,NULL,NULL,NULL,NULL,NULL,754,754,NULL,NULL,NULL,NULL,NULL,NULL,NULL,NULL,NULL,NULL,NULL,NULL,NULL,NULL,NULL,NULL,NULL,NULL,NULL,NULL,NULL,NULL,NULL,NULL,NULL,NULL,NO.1 CAPS CB,Closed,NULL,Closed,NULL,NULL,NULL,0,1,8,59565,NULL,1,NULL,NULL,NULL,NULL,NULL,58572,NULL,NULL,NULL,NULL,
927,VESTAL CAP 2_PSS,No,Yes,No,302,Variable,14.4,0,14.4,0,0,1,302,72.45,66.93,1,0,Off,Off,NULL,NULL,NULL,NULL,NULL,NULL,NULL,NULL,120,NULL,NULL,NULL,NULL,14.4,Yes,NULL,Yes,NULL,NULL,NULL,NULL,NULL,NULL,NULL,1009,1009,NULL,NULL,NULL,NULL,NULL,NULL,NULL,NULL,NULL,NULL,NULL,NULL,NULL,NULL,NULL,NULL,NULL,NULL,NULL,NULL,NULL,NULL,NULL,NULL,NULL,NULL,NO.2 CAP BK 66KV CB,Closed,NULL,Closed,NULL,NULL,NULL,0,1,8,155063,NULL,1,NULL,NULL,NULL,NULL,NULL,154971,NULL,NULL,NULL,NULL,
928,VESTAL CAP 3_PSS,No,Yes,No,301,Variable,14.4,0,14.4,0,0,1,301,72.45,66.93,1,0,Off,Off,NULL,NULL,NULL,NULL,NULL,NULL,NULL,NULL,120,NULL,NULL,NULL,NULL,14.4,Yes,NULL,Yes,NULL,NULL,NULL,NULL,NULL,NULL,NULL,1009,1009,NULL,NULL,NULL,NULL,NULL,NULL,NULL,NULL,NULL,NULL,NULL,NULL,NULL,NULL,NULL,NULL,NULL,NULL,NULL,NULL,NULL,NULL,NULL,NULL,NULL,NULL,NO.3 CAP BK 66KV CB,Closed,NULL,Closed,NULL,NULL,NULL,0,1,8,155066,NULL,1,NULL,NULL,NULL,NULL,NULL,154972,NULL,NULL,NULL,NULL,
929,VILLA PARK CAP 8_PSS,No,Yes,No,172,Variable,28.8,0,28.8,0,0,1,69,72.45,66.93,1,0,Off,Off,NULL,NULL,NULL,NULL,NULL,NULL,NULL,NULL,120,NULL,NULL,NULL,NULL,28.8,Yes,NULL,Yes,NULL,NULL,NULL,NULL,NULL,NULL,NULL,86,86,NULL,NULL,NULL,NULL,NULL,NULL,NULL,NULL,NULL,NULL,NULL,NULL,NULL,NULL,NULL,NULL,NULL,NULL,NULL,NULL,NULL,NULL,NULL,NULL,NULL,NULL,CAP 8 CB,Open,NULL,Open,NULL,NULL,NULL,0,1,1,3657,NULL,1,NULL,NULL,NULL,NULL,NULL,3659,NULL,NULL,NULL,NULL,
930,WHEATLAND CAP 3_PSS,No,Yes,No,110,Variable,14.4,0,14.4,0,0,1,110,72.45,66.93,1,0,Off,Off,NULL,NULL,NULL,NULL,NULL,NULL,NULL,NULL,120,NULL,NULL,NULL,NULL,14.4,Yes,NULL,Yes,NULL,NULL,NULL,NULL,NULL,NULL,NULL,1049,1049,NULL,NULL,NULL,NULL,NULL,NULL,NULL,NULL,NULL,NULL,NULL,NULL,NULL,NULL,NULL,NULL,NULL,NULL,NULL,NULL,NULL,NULL,NULL,NULL,NULL,NULL,NO.3 CAP CB,Closed,NULL,Closed,NULL,NULL,NULL,0,1,8,162059,NULL,1,NULL,NULL,NULL,NULL,NULL,223776,NULL,NULL,NULL,NULL,
938,HASKELL NO. 1 CAP,No,Yes,Yes,603,Variable,4.8,0,4.8,0,0,1,603,16.48,15.52,1,0,Off,Off,NULL,NULL,NULL,NULL,NULL,NULL,NULL,NULL,120,NULL,NULL,NULL,NULL,4.8,Yes,NULL,Yes,NULL,NULL,NULL,NULL,NULL,NULL,329086,3507,3507,NULL,NULL,NULL,NULL,NULL,NULL,NULL,NULL,NULL,NULL,NULL,NULL,NULL,NULL,NULL,NULL,NULL,NULL,NULL,NULL,NULL,NULL,NULL,NULL,NULL,NULL,NO. 1 CAPACITOR CB,Closed,NULL,Closed,NULL,NULL,NULL,0,1,8,78520,NULL,1,NULL,NULL,NULL,NULL,NULL,78522,NULL,NULL,NULL,NULL,
939,HASKELL NO. 2 CAP,No,Yes,Yes,606,Variable,3,0,3,0,0,1,606,16.48,15.52,1,0,Off,Off,NULL,NULL,NULL,NULL,NULL,NULL,NULL,NULL,120,NULL,NULL,NULL,NULL,3,Yes,NULL,Yes,NULL,NULL,NULL,NULL,NULL,NULL,329087,3507,3507,NULL,NULL,NULL,NULL,NULL,NULL,NULL,NULL,NULL,NULL,NULL,NULL,NULL,NULL,NULL,NULL,NULL,NULL,NULL,NULL,NULL,NULL,NULL,NULL,NULL,NULL,NO. 2 CAPACITOR CB,Closed,NULL,Closed,NULL,NULL,NULL,0,1,8,78528,NULL,1,NULL,NULL,1,NULL,NULL,78530,NULL,NULL,NULL,NULL,
940,HASKELL NO. 3 CAP,No,Yes,Yes,609,Variable,3,0,3,0,0,1,609,16.48,15.52,1,0,Off,Off,NULL,NULL,NULL,NULL,NULL,NULL,NULL,NULL,120,NULL,NULL,NULL,NULL,3,Yes,NULL,Yes,NULL,NULL,NULL,NULL,NULL,NULL,329088,3507,3507,NULL,NULL,NULL,NULL,NULL,NULL,NULL,NULL,NULL,NULL,NULL,NULL,NULL,NULL,NULL,NULL,NULL,NULL,NULL,NULL,NULL,NULL,NULL,NULL,NULL,NULL,NO. 3 CAPACITOR CB,Closed,NULL,Closed,NULL,NULL,NULL,0,1,8,78536,NULL,1,NULL,NULL,NULL,NULL,NULL,78538,NULL,NULL,NULL,NULL,
941,HASKELL NO. 4 CAP,No,Yes,Yes,612,Variable,4.8,0,4.8,0,0,1,612,16.48,15.52,1,0,Off,Off,NULL,NULL,NULL,NULL,NULL,NULL,NULL,NULL,120,NULL,NULL,NULL,NULL,4.8,Yes,NULL,Yes,NULL,NULL,NULL,NULL,NULL,NULL,329089,3507,3507,NULL,NULL,NULL,NULL,NULL,NULL,NULL,NULL,NULL,NULL,NULL,NULL,NULL,NULL,NULL,NULL,NULL,NULL,NULL,NULL,NULL,NULL,NULL,NULL,NULL,NULL,NO. 4 CAPACITOR CB,Closed,NULL,Closed,NULL,NULL,NULL,0,1,8,253838,NULL,1,NULL,NULL,NULL,NULL,NULL,253840,NULL,NULL,NULL,NULL,
946,PROCTOR CAP 2_PSS,No,Yes,No,120,Variable,4.8,0,4.8,0,0,1,120,12.6,11.64,1,0,Off,Off,NULL,NULL,NULL,NULL,NULL,NULL,NULL,NULL,120,NULL,NULL,NULL,NULL,4.8,Yes,NULL,Yes,NULL,NULL,NULL,NULL,NULL,NULL,NULL,3422,3422,NULL,NULL,NULL,NULL,NULL,NULL,NULL,NULL,NULL,NULL,NULL,NULL,NULL,NULL,NULL,NULL,NULL,NULL,NULL,NULL,NULL,NULL,NULL,NULL,NULL,NULL,NO.2 CAPACITOR CB,Closed,NULL,Closed,NULL,NULL,NULL,0,1,43,59775,NULL,1,NULL,NULL,NULL,NULL,NULL,59777,NULL,NULL,NULL,NULL,
947,PROCTOR CAP 2,No,No,Yes,120,Fixed,4.8,0,4.8,0,0,1,120,12.6,11.64,1,0,Off,Off,NULL,NULL,NULL,NULL,NULL,NULL,NULL,NULL,120,NULL,NULL,NULL,NULL,4.8,Yes,NULL,Yes,NULL,NULL,NULL,NULL,NULL,NULL,302409,3422,3422,NULL,NULL,NULL,NULL,NULL,NULL,NULL,NULL,NULL,NULL,NULL,NULL,NULL,NULL,NULL,NULL,NULL,NULL,NULL,NULL,NULL,NULL,NULL,NULL,NULL,NULL,NULL,NULL,NULL,NULL,NULL,NULL,NULL,NULL,NULL,NULL,NULL,NULL,NULL,NULL,NULL,NULL,NULL,NULL,NULL,NULL,NULL,NULL,NULL,
951,PORTERVILLE  CAP 5,No,Yes,Yes,162,Variable,4.8,0,4.8,0,0,1,162,12.6,11.64,1,0,Off,Off,NULL,NULL,NULL,NULL,NULL,NULL,NULL,NULL,120,NULL,NULL,NULL,NULL,4.8,Yes,NULL,Yes,NULL,NULL,NULL,NULL,NULL,NULL,321489,998,998,NULL,NULL,NULL,NULL,NULL,NULL,NULL,NULL,NULL,NULL,3,+,In/Out,Normal,NULL,11,144287,NULL,NULL,NULL,NULL,NULL,NULL,NULL,NULL,NULL,NO5 12KV CAP CB,Closed,NULL,Closed,NULL,NULL,NULL,0,1,8,161333,NULL,1,NULL,NULL,NULL,NULL,NULL,161334,NULL,NULL,NULL,NULL,
1007,CORTEZ CAP 2,No,Yes,Yes,101,Variable,4.8,0,4.8,0,0,1,101,12.6,11.64,1,0,Off,Off,NULL,NULL,NULL,NULL,NULL,NULL,NULL,NULL,120,NULL,NULL,NULL,NULL,4.8,Yes,NULL,Yes,NULL,NULL,NULL,NULL,NULL,NULL,325559,1505,1505,NULL,NULL,NULL,NULL,NULL,NULL,NULL,NULL,NULL,NULL,NULL,NULL,NULL,NULL,NULL,NULL,NULL,NULL,10,+,Out,Block,NULL,1,188572,NULL,N2 CAP CB,Open,NULL,Open,NULL,NULL,NULL,0,1,1,249484,NULL,1,NULL,NULL,NULL,NULL,NULL,249486,NULL,NULL,NULL,NULL,
1008,CORTEZ CAP 3,No,Yes,Yes,159,Variable,6,0,6,0,0,1,159,12.6,11.64,1,0,Off,Off,NULL,NULL,NULL,NULL,NULL,NULL,NULL,NULL,120,NULL,NULL,NULL,NULL,6,Yes,NULL,Yes,NULL,NULL,NULL,NULL,NULL,NULL,325560,1505,1505,NULL,NULL,NULL,NULL,NULL,NULL,NULL,NULL,NULL,NULL,NULL,NULL,NULL,NULL,NULL,NULL,NULL,NULL,10,+,Out,Block,NULL,1,188576,NULL,NO 3 CAPS CB,Open,NULL,Open,NULL,NULL,NULL,0,1,2,249492,NULL,1,NULL,NULL,NULL,NULL,NULL,249494,NULL,NULL,NULL,NULL,
1009,CORTEZ CAP 4,No,Yes,Yes,161,Variable,4.8,0,4.8,0,0,1,161,12.6,11.64,1,0,Off,Off,NULL,NULL,NULL,NULL,NULL,NULL,NULL,NULL,120,NULL,NULL,NULL,NULL,4.8,Yes,NULL,Yes,NULL,NULL,NULL,NULL,NULL,NULL,325561,1505,1505,NULL,NULL,NULL,NULL,NULL,NULL,NULL,NULL,NULL,NULL,NULL,NULL,NULL,NULL,NULL,NULL,NULL,NULL,10,+,Out,Block,NULL,1,188642,NULL,NO 4 CAPS CB,Open,NULL,Open,NULL,NULL,NULL,0,1,3,249605,NULL,1,NULL,NULL,NULL,NULL,NULL,249607,NULL,NULL,NULL,NULL,
1019,AULD NO. 1 CAP,No,Yes,Yes,110,Variable,10.8,0,10.8,0,0,1,110,36.225,33.465,1,0,Off,Off,NULL,NULL,NULL,NULL,NULL,NULL,NULL,NULL,120,NULL,NULL,NULL,NULL,10.8,Yes,NULL,Yes,NULL,NULL,NULL,NULL,NULL,NULL,321175,1521,1521,NULL,NULL,NULL,NULL,NULL,NULL,NULL,NULL,NULL,NULL,NULL,NULL,NULL,NULL,NULL,NULL,NULL,NULL,10,+,Out,Block,NULL,2967,203367,NULL,NO. 1 CAPACITOR CB,Closed,NULL,Closed,NULL,NULL,NULL,0,1,8,32865,NULL,1,NULL,NULL,NULL,NULL,NULL,32867,NULL,NULL,NULL,NULL,
1020,AULD CAP 4,No,Yes,Yes,115,Variable,4.8,0,4.8,0,0,1,115,12.978,11.9892,1,0,Off,Off,NULL,NULL,NULL,NULL,NULL,NULL,NULL,NULL,120,NULL,NULL,NULL,NULL,4.8,Yes,NULL,Yes,NULL,NULL,NULL,NULL,NULL,NULL,321176,1522,1522,NULL,NULL,NULL,NULL,NULL,NULL,NULL,NULL,NULL,NULL,NULL,NULL,NULL,NULL,NULL,NULL,NULL,NULL,10,+,Out,Block,NULL,9062,203373,NULL,NO.4 CAPS 12KV SW,Closed,NULL,Closed,NULL,NULL,NULL,0,1,8,32881,NULL,1,NULL,NULL,NULL,NULL,NULL,32883,NULL,NULL,NULL,NULL,
1021,AULD CAP 3,No,Yes,Yes,215,Variable,4.8,0,4.8,0,0,1,215,12.978,11.9892,1,0,Off,Off,NULL,NULL,NULL,NULL,NULL,NULL,NULL,NULL,120,NULL,NULL,NULL,NULL,4.8,Yes,NULL,Yes,NULL,NULL,NULL,NULL,NULL,NULL,321177,1522,1522,NULL,NULL,NULL,NULL,NULL,NULL,NULL,NULL,NULL,NULL,NULL,NULL,NULL,NULL,NULL,NULL,NULL,NULL,10,+,Out,Block,NULL,2969,203370,NULL,NO.3 CAPS 12KV SW,Closed,NULL,Closed,NULL,NULL,NULL,0,1,8,32873,NULL,1,NULL,NULL,NULL,NULL,NULL,32875,NULL,NULL,NULL,NULL,
1022,AULD CAP 5,No,Yes,Yes,217,Variable,4.8,0,4.8,0,0,1,217,12.978,11.9892,1,0,Off,Off,NULL,NULL,NULL,NULL,NULL,NULL,NULL,NULL,120,NULL,NULL,NULL,NULL,4.8,Yes,NULL,Yes,NULL,NULL,NULL,NULL,NULL,NULL,321178,1522,1522,NULL,NULL,NULL,NULL,NULL,NULL,NULL,NULL,NULL,NULL,NULL,NULL,NULL,NULL,NULL,NULL,NULL,NULL,3,+,Out,Block,NULL,1,203376,NULL,NO.5 CAPS 12KV SW,Closed,NULL,Closed,NULL,NULL,NULL,0,1,8,32889,NULL,1,NULL,NULL,NULL,NULL,NULL,32891,NULL,NULL,NULL,NULL,
1023,ELSINORE NO. 1 CAP,No,Yes,Yes,125,Variable,10.8,0,10.8,0,0,1,125,36.225,33.465,1,0,Off,Off,NULL,NULL,NULL,NULL,NULL,NULL,NULL,NULL,120,NULL,NULL,NULL,NULL,10.8,Yes,NULL,Yes,NULL,NULL,NULL,NULL,NULL,NULL,321179,1523,1523,NULL,NULL,NULL,NULL,NULL,NULL,NULL,NULL,NULL,NULL,NULL,NULL,NULL,NULL,NULL,NULL,NULL,NULL,NULL,NULL,NULL,NULL,NULL,NULL,NULL,NULL,NO. 1 CAPACITOR CB,Closed,NULL,Closed,NULL,NULL,NULL,0,1,2,222219,NULL,1,NULL,NULL,NULL,NULL,NULL,222233,NULL,NULL,NULL,NULL,
1024,ELSINORE CAP 3,No,Yes,Yes,124,Variable,4.8,0,4.8,0,0,1,124,12.978,11.9892,1,0,Off,Off,NULL,NULL,NULL,NULL,NULL,NULL,NULL,NULL,120,NULL,NULL,NULL,NULL,4.8,Yes,NULL,Yes,NULL,NULL,NULL,NULL,NULL,NULL,321180,1524,1524,NULL,NULL,NULL,NULL,NULL,NULL,NULL,NULL,NULL,NULL,NULL,NULL,NULL,NULL,NULL,NULL,NULL,NULL,10,+,Out,Block,NULL,9071,185749,NULL,NO.3 CAP CB,Closed,NULL,Closed,NULL,NULL,NULL,0,1,8,222220,NULL,1,NULL,NULL,NULL,NULL,NULL,222234,NULL,NULL,NULL,NULL,
1025,ELSINORE CAP 4,No,Yes,Yes,126,Variable,4.8,0,4.8,0,0,1,126,12.978,11.9892,1,0,Off,Off,NULL,NULL,NULL,NULL,NULL,NULL,NULL,NULL,120,NULL,NULL,NULL,NULL,4.8,Yes,NULL,Yes,NULL,NULL,NULL,NULL,NULL,NULL,321181,1524,1524,NULL,NULL,NULL,NULL,NULL,NULL,NULL,NULL,NULL,NULL,NULL,NULL,NULL,NULL,NULL,NULL,NULL,NULL,10,+,Out,Block,NULL,2972,185752,NULL,NO.4 CAP CB,Closed,NULL,Closed,NULL,NULL,NULL,0,1,8,205118,NULL,1,NULL,NULL,NULL,NULL,NULL,206162,NULL,NULL,NULL,NULL,
1026,NEWCOMB CAP 1,No,Yes,Yes,120,Variable,4.8,0,4.8,0,0,1,120,13.0935,12.0959,1,0,Off,Off,NULL,NULL,NULL,NULL,NULL,NULL,NULL,NULL,120,NULL,NULL,NULL,NULL,4.8,Yes,NULL,Yes,NULL,NULL,NULL,NULL,NULL,NULL,320893,1526,1526,NULL,NULL,NULL,NULL,NULL,NULL,NULL,NULL,NULL,NULL,NULL,NULL,NULL,NULL,NULL,NULL,NULL,NULL,3,+,Out,Block,NULL,1,205447,NULL,NO 1 CAPS SW,Closed,NULL,Closed,NULL,NULL,NULL,0,1,8,37779,NULL,1,NULL,NULL,NULL,NULL,NULL,37781,NULL,NULL,NULL,NULL,
1027,NEWCOMB CAP 2,No,Yes,Yes,122,Variable,4.8,0,4.8,0,0,1,122,13.0935,12.0959,1,0,Off,Off,NULL,NULL,NULL,NULL,NULL,NULL,NULL,NULL,120,NULL,NULL,NULL,NULL,4.8,Yes,NULL,Yes,NULL,NULL,NULL,NULL,NULL,NULL,320894,1526,1526,NULL,NULL,NULL,NULL,NULL,NULL,NULL,NULL,NULL,NULL,NULL,NULL,NULL,NULL,NULL,NULL,NULL,NULL,10,+,Out,Block,NULL,2974,205450,NULL,NO 2 CAPS SW,Closed,NULL,Closed,NULL,NULL,NULL,0,1,8,37783,NULL,1,NULL,NULL,NULL,NULL,NULL,37785,NULL,NULL,NULL,NULL,
1028,NEWCOMB CAP 4,No,Yes,Yes,221,Variable,4.8,0,4.8,0,0,1,221,13.0935,12.0959,1,0,Off,Off,NULL,NULL,NULL,NULL,NULL,NULL,NULL,NULL,120,NULL,NULL,NULL,NULL,4.8,Yes,NULL,Yes,NULL,NULL,NULL,NULL,NULL,NULL,320895,1526,1526,NULL,NULL,NULL,NULL,NULL,NULL,NULL,NULL,NULL,NULL,NULL,NULL,NULL,NULL,NULL,NULL,NULL,NULL,NULL,NULL,NULL,NULL,NULL,NULL,NULL,NULL,NO 4 CAPS SW,Closed,NULL,Closed,NULL,NULL,NULL,0,1,8,37787,NULL,1,NULL,NULL,NULL,NULL,NULL,37789,NULL,NULL,NULL,NULL,
1029,NEWCOMB CAP 5,No,Yes,Yes,223,Variable,4.8,0,4.8,0,0,1,223,13.0935,12.0959,1,0,Off,Off,NULL,NULL,NULL,NULL,NULL,NULL,NULL,NULL,120,NULL,NULL,NULL,NULL,4.8,Yes,NULL,Yes,NULL,NULL,NULL,NULL,NULL,NULL,320896,1526,1526,NULL,NULL,NULL,NULL,NULL,NULL,NULL,NULL,NULL,NULL,NULL,NULL,NULL,NULL,NULL,NULL,NULL,NULL,10,+,Out,Block,NULL,2976,205456,NULL,NO 5 CAPS SW,Closed,NULL,Closed,NULL,NULL,NULL,0,1,8,37791,NULL,1,NULL,NULL,NULL,NULL,NULL,37793,NULL,NULL,NULL,NULL,
1030,PECHANGA CAP 1,No,Yes,Yes,125,Variable,4.8,0,4.8,0,0,1,125,12.978,11.9892,1,0,Off,Off,NULL,NULL,NULL,NULL,NULL,NULL,NULL,NULL,120,NULL,NULL,NULL,NULL,4.8,Yes,NULL,Yes,NULL,NULL,NULL,NULL,NULL,NULL,320741,1528,1528,NULL,NULL,NULL,NULL,NULL,NULL,NULL,NULL,NULL,NULL,NULL,NULL,NULL,NULL,NULL,NULL,NULL,NULL,10,+,Out,Block,NULL,1,186814,NULL,NO.1 CAPS SW,Closed,NULL,Closed,NULL,NULL,NULL,0,1,8,38113,NULL,1,NULL,NULL,NULL,NULL,NULL,38115,NULL,NULL,NULL,NULL,
1031,PECHANGA CAP 2,No,Yes,Yes,127,Variable,4.8,0,4.8,0,0,1,127,12.978,11.9892,1,0,Off,Off,NULL,NULL,NULL,NULL,NULL,NULL,NULL,NULL,120,NULL,NULL,NULL,NULL,4.8,Yes,NULL,Yes,NULL,NULL,NULL,NULL,NULL,NULL,320742,1528,1528,NULL,NULL,NULL,NULL,NULL,NULL,NULL,NULL,NULL,NULL,NULL,NULL,NULL,NULL,NULL,NULL,NULL,NULL,10,+,Out,Block,NULL,2,186817,NULL,NO.2 CAPS SW,Closed,NULL,Closed,NULL,NULL,NULL,0,1,8,38117,NULL,1,NULL,NULL,NULL,NULL,NULL,38119,NULL,NULL,NULL,NULL,
1032,PECHANGA CAP 3,No,Yes,Yes,207,Variable,4.8,0,4.8,0,0,1,207,12.978,11.9892,1,0,Off,Off,NULL,NULL,NULL,NULL,NULL,NULL,NULL,NULL,120,NULL,NULL,NULL,NULL,4.8,Yes,NULL,Yes,NULL,NULL,NULL,NULL,NULL,NULL,320743,1528,1528,NULL,NULL,NULL,NULL,NULL,NULL,NULL,NULL,NULL,NULL,NULL,NULL,NULL,NULL,NULL,NULL,NULL,NULL,10,+,Out,Block,NULL,3,186820,NULL,NO.3 CAPS SW,Closed,NULL,Closed,NULL,NULL,NULL,0,1,8,38121,NULL,1,NULL,NULL,NULL,NULL,NULL,38123,NULL,NULL,NULL,NULL,
1056,SAN FERNANDO CAP 1,No,Yes,Yes,115,Fixed,5.4,0,5.4,0,0,1,115,17.325,16.005,1,0,Off,Off,NULL,NULL,NULL,NULL,NULL,NULL,NULL,NULL,120,NULL,NULL,NULL,NULL,5.4,Yes,NULL,Yes,NULL,NULL,NULL,NULL,NULL,NULL,330343,1546,1546,NULL,NULL,NULL,NULL,NULL,NULL,NULL,NULL,NULL,NULL,NULL,NULL,NULL,NULL,NULL,NULL,NULL,NULL,10,+,Out,Block,NULL,1,63869,NULL,NULL,NULL,NULL,NULL,NULL,NULL,NULL,NULL,NULL,NULL,NULL,NULL,NULL,NULL,NULL,NULL,NULL,NULL,NULL,NULL,NULL,NULL,NULL,
1057,CUMMNGS CAP 1,No,Yes,Yes,107,Fixed,3,0,3,0,0,1,107,13.23,12.222,1,0,Off,Off,NULL,NULL,NULL,NULL,NULL,NULL,NULL,NULL,120,NULL,NULL,NULL,NULL,3,Yes,NULL,Yes,NULL,NULL,NULL,NULL,NULL,NULL,323742,1547,1547,NULL,NULL,NULL,NULL,NULL,NULL,NULL,NULL,NULL,NULL,3,+,In/Out,Block,NULL,2982,61810,NULL,NULL,NULL,NULL,NULL,NULL,NULL,NULL,NULL,NULL,NULL,NULL,NULL,NULL,NULL,NULL,NULL,NULL,NULL,NULL,NULL,NULL,NULL,NULL,NULL,NULL,NULL,NULL,NULL,NULL,NULL,NULL,
1060,VESTAL CAP 1,No,Yes,Yes,113,Fixed,4.8,0,4.8,0,0,1,113,12.978,11.9892,1,0,Off,Off,NULL,NULL,NULL,NULL,NULL,NULL,NULL,NULL,120,NULL,NULL,NULL,NULL,4.8,Yes,NULL,Yes,NULL,NULL,NULL,NULL,NULL,NULL,323776,1549,1549,NULL,NULL,NULL,NULL,NULL,NULL,NULL,NULL,NULL,NULL,NULL,NULL,NULL,NULL,NULL,NULL,NULL,NULL,NULL,NULL,NULL,NULL,NULL,NULL,NULL,NULL,NULL,NULL,NULL,NULL,NULL,NULL,NULL,NULL,NULL,NULL,NULL,NULL,NULL,NULL,NULL,NULL,NULL,NULL,NULL,NULL,NULL,NULL,NULL,
1100,MORAGA CAP 4,Yes,Yes,Yes,117,Fixed,46.8,0,46.8,0,0,1,117,120.75,111.55,1,0,Off,Off,NULL,NULL,NULL,NULL,NULL,NULL,NULL,NULL,120,NULL,NULL,NULL,NULL,46.8,Yes,NULL,Yes,NULL,NULL,NULL,NULL,NULL,NULL,NULL,551,551,NULL,NULL,NULL,NULL,NULL,NULL,NULL,NULL,NULL,NULL,3,+,In/Out,Normal,NULL,2985,180232,NULL,10,+,Out,Block,NULL,7,218298,NULL,NULL,NULL,NULL,NULL,NULL,NULL,NULL,NULL,NULL,NULL,NULL,NULL,NULL,NULL,NULL,NULL,NULL,NULL,NULL,NULL,NULL,NULL,NULL,
1504,WALNUT CAP 1,No,Yes,Yes,611,Variable,6,0,6,0,0,1,500,12.6,11.64,1,0,Off,Off,NULL,NULL,NULL,NULL,NULL,NULL,NULL,NULL,120,NULL,NULL,NULL,0,6,Yes,NULL,Yes,NULL,NULL,NULL,NULL,NULL,NULL,325985,4012,4012,NULL,NULL,NULL,NULL,NULL,NULL,NULL,NULL,NULL,NULL,NULL,NULL,NULL,NULL,NULL,NULL,NULL,NULL,10,+,Out,Block,NULL,1,188860,NULL,NO 3 CAP SW,Closed,NULL,Closed,NULL,NULL,NULL,0,1,1,168336,NULL,1,NULL,NULL,NULL,NULL,NULL,250302,NULL,NULL,NULL,NULL,
1505,WALNUT CAP 2,No,Yes,Yes,622,Variable,4.8,0,4.8,0,0,1,999,12.6,11.64,1,0,Off,Off,NULL,NULL,NULL,NULL,NULL,NULL,NULL,NULL,120,NULL,NULL,NULL,0,4.8,Yes,NULL,Yes,NULL,NULL,NULL,NULL,NULL,NULL,325986,4012,4012,NULL,NULL,NULL,NULL,NULL,NULL,NULL,NULL,NULL,NULL,NULL,NULL,NULL,NULL,NULL,NULL,NULL,NULL,10,+,Out,Block,NULL,1,188864,NULL,NO 3 CAP SW,Closed,NULL,Closed,NULL,NULL,NULL,0,1,1,168336,NULL,1,NULL,NULL,NULL,NULL,NULL,250310,NULL,NULL,NULL,NULL,
1506,WALNUT CAP 9,No,Yes,Yes,631,Variable,4.8,0,4.8,0,0,1,996,12.6,11.64,1,0,Off,Off,NULL,NULL,NULL,NULL,NULL,NULL,NULL,NULL,120,NULL,NULL,NULL,0,4.8,Yes,NULL,Yes,NULL,NULL,NULL,NULL,NULL,NULL,325987,4012,4012,NULL,NULL,NULL,NULL,NULL,NULL,NULL,NULL,NULL,NULL,NULL,NULL,NULL,NULL,NULL,NULL,NULL,NULL,10,+,Out,Block,NULL,1,5467,NULL,NO 3 CAP SW,Closed,NULL,Closed,NULL,NULL,NULL,0,1,1,168336,NULL,1,NULL,NULL,NULL,NULL,NULL,17666,NULL,NULL,NULL,NULL,
1514,BROWNING CAP 1,No,Yes,Yes,612,Fixed,1.44,0,1.44,0,0,1,997,13.0935,12.0959,1,0,Off,Off,NULL,NULL,NULL,NULL,NULL,NULL,NULL,NULL,120,NULL,NULL,NULL,NULL,1.2,Yes,NULL,Yes,NULL,NULL,NULL,NULL,NULL,NULL,328079,1506,1506,NULL,NULL,3,+,In/Out,Normal,NULL,600,192559,NULL,3,+,In/Out,Normal,NULL,601,192560,NULL,10,+,Out,Block,NULL,602,192557,NULL,NULL,NULL,NULL,NULL,NULL,NULL,NULL,NULL,NULL,NULL,NULL,NULL,NULL,NULL,NULL,NULL,NULL,NULL,NULL,NULL,NULL,NULL,NULL,
1516,DELANO CAP 3,No,Yes,Yes,611,Variable,4.5,0,4.5,0,0,1,500,13.0935,12.0959,1,0,Off,Off,NULL,NULL,NULL,NULL,NULL,NULL,NULL,NULL,120,NULL,NULL,NULL,NULL,4.5,Yes,NULL,Yes,NULL,NULL,NULL,NULL,NULL,NULL,328474,4022,4022,NULL,NULL,NULL,NULL,NULL,NULL,NULL,NULL,NULL,NULL,NULL,NULL,NULL,NULL,NULL,NULL,NULL,NULL,3,+,In/Out,Normal,NULL,12,221629,NULL,NO.3 CAP CB,Closed,NULL,Closed,NULL,NULL,NULL,0,1,8,279090,NULL,1,NULL,NULL,NULL,NULL,NULL,279092,NULL,NULL,NULL,NULL,
1517,DELANO CAP 2,No,Yes,Yes,621,Variable,4.8,0,4.8,0,0,1,998,13.0935,12.0959,1,0,Off,Off,NULL,NULL,NULL,NULL,NULL,NULL,NULL,NULL,120,NULL,NULL,NULL,NULL,4.8,Yes,NULL,Yes,NULL,NULL,NULL,NULL,NULL,NULL,328475,4022,4022,NULL,NULL,NULL,NULL,NULL,NULL,NULL,NULL,NULL,NULL,NULL,NULL,NULL,NULL,NULL,NULL,NULL,NULL,3,+,Out,Block,NULL,3,221625,NULL,NO.2 CAP CB,Closed,NULL,Closed,NULL,NULL,NULL,0,1,8,279085,NULL,1,NULL,NULL,NULL,NULL,NULL,279087,NULL,NULL,NULL,NULL,
1518,DELANO CAP 1,No,Yes,Yes,631,Variable,4.8,0,4.8,0,0,1,498,13.0935,12.0959,1,0,Off,Off,NULL,NULL,NULL,NULL,NULL,NULL,NULL,NULL,120,NULL,NULL,NULL,NULL,4.8,Yes,NULL,Yes,NULL,NULL,NULL,NULL,NULL,NULL,328476,4022,4022,NULL,NULL,NULL,NULL,NULL,NULL,NULL,NULL,NULL,NULL,NULL,NULL,NULL,NULL,NULL,NULL,NULL,NULL,3,+,Out,Block,NULL,3,221621,NULL,NO.1 CAP CB,Closed,NULL,Closed,NULL,NULL,NULL,0,1,8,279080,NULL,1,NULL,NULL,NULL,NULL,NULL,279082,NULL,NULL,NULL,NULL,
1523,SOLEMINT CAP 1,No,Yes,Yes,611,Fixed,4.8,0,4.8,0,0,1,999,16.48,15.52,1,0,Off,Off,NULL,NULL,NULL,NULL,NULL,NULL,NULL,NULL,120,NULL,NULL,NULL,NULL,4.8,Yes,NULL,Yes,NULL,NULL,NULL,NULL,NULL,NULL,329832,4029,4029,NULL,NULL,NULL,NULL,NULL,NULL,NULL,NULL,NULL,NULL,3,+,In/Out,Normal,NULL,1,64016,NULL,NULL,NULL,NULL,NULL,NULL,NULL,NULL,NULL,NULL,NULL,NULL,NULL,NULL,NULL,NULL,NULL,NULL,NULL,NULL,NULL,NULL,NULL,NULL,NULL,NULL,NULL,NULL,NULL,NULL,NULL,NULL,
1614,NOGALES CAP 3,No,Yes,Yes,631,Variable,4.8,0,4.8,0,0,1,631,12.6,11.64,1,0,Off,Off,NULL,NULL,NULL,NULL,NULL,NULL,NULL,NULL,120,NULL,NULL,NULL,NULL,4.8,Yes,NULL,Yes,NULL,NULL,NULL,NULL,NULL,NULL,325128,3240,3240,NULL,NULL,NULL,NULL,NULL,NULL,NULL,NULL,NULL,NULL,NULL,NULL,NULL,NULL,NULL,NULL,NULL,NULL,10,+,Out,Block,NULL,12,227839,NULL,NO.3 CAPS 12KV CB,Closed,NULL,Closed,NULL,NULL,NULL,0,1,8,293980,NULL,1,NULL,NULL,NULL,NULL,NULL,293982,NULL,NULL,NULL,NULL,
1638,LINDSAY CAP 1A,No,Yes,Yes,610,Fixed,3,0,3,0,0,1,999,13.0935,12.0959,1,0,OnInBaseCaseAndCa,On,NULL,NULL,NULL,NULL,NULL,NULL,NULL,NULL,120,NULL,NULL,NULL,NULL,3,Yes,NULL,Yes,NULL,NULL,NULL,NULL,NULL,NULL,328268,4120,4120,NULL,NULL,NULL,NULL,NULL,NULL,NULL,NULL,NULL,NULL,NULL,NULL,NULL,NULL,NULL,NULL,NULL,NULL,NULL,NULL,NULL,NULL,NULL,NULL,NULL,NULL,NULL,NULL,NULL,NULL,NULL,NULL,NULL,NULL,NULL,NULL,NULL,NULL,NULL,NULL,NULL,NULL,NULL,NULL,NULL,NULL,NULL,NULL,NULL,
1639,LINDSAY CAP 1B,No,Yes,Yes,621,Fixed,3,0,3,0,0,1,999,13.0935,12.0959,1,0,OnInBaseCaseAndCa,On,NULL,NULL,NULL,NULL,NULL,NULL,NULL,NULL,120,NULL,NULL,NULL,NULL,3,Yes,NULL,Yes,NULL,NULL,NULL,NULL,NULL,NULL,328269,4120,4120,NULL,NULL,NULL,NULL,NULL,NULL,NULL,NULL,NULL,NULL,NULL,NULL,NULL,NULL,NULL,NULL,NULL,NULL,NULL,NULL,NULL,NULL,NULL,NULL,NULL,NULL,NULL,NULL,NULL,NULL,NULL,NULL,NULL,NULL,NULL,NULL,NULL,NULL,NULL,NULL,NULL,NULL,NULL,NULL,NULL,NULL,NULL,NULL,NULL,
1641,WOODVILLE CAP 1,No,Yes,Yes,611,Fixed,2.25,0,2.25,0,0,1,998,13.0935,12.0959,1,0,Off,Off,NULL,NULL,NULL,NULL,NULL,NULL,NULL,NULL,120,NULL,NULL,NULL,NULL,2.25,Yes,NULL,Yes,NULL,NULL,NULL,NULL,NULL,NULL,327683,4125,4125,NULL,NULL,NULL,NULL,NULL,NULL,NULL,NULL,NULL,NULL,NULL,NULL,NULL,NULL,NULL,NULL,NULL,NULL,NULL,NULL,NULL,NULL,NULL,NULL,NULL,NULL,NULL,NULL,NULL,NULL,NULL,NULL,NULL,NULL,NULL,NULL,NULL,NULL,NULL,NULL,NULL,NULL,NULL,NULL,NULL,NULL,NULL,NULL,NULL,
1653,ELIZABETH LAKE NO. 1 CAP,No,Yes,Yes,612,Variable,4.8,0,4.8,0,0,1,612,16.48,15.52,1,0,Off,Off,NULL,NULL,NULL,NULL,NULL,NULL,NULL,NULL,120,NULL,NULL,NULL,NULL,4.8,Yes,NULL,Yes,NULL,NULL,NULL,NULL,NULL,NULL,330033,4136,4136,NULL,NULL,NULL,NULL,NULL,NULL,NULL,NULL,NULL,NULL,NULL,NULL,NULL,NULL,NULL,NULL,NULL,NULL,10,+,Out,Block,NULL,1,214010,NULL,NO. 1 CAPACITOR CB,Closed,NULL,Closed,NULL,NULL,NULL,0,1,8,260554,NULL,1,NULL,NULL,NULL,NULL,NULL,260556,NULL,NULL,NULL,NULL,
1654,ELIZABETH LAKE NO. 2 CAP,No,Yes,Yes,622,Variable,4.8,0,4.8,0,0,1,622,16.48,15.52,1,0,Off,Off,NULL,NULL,NULL,NULL,NULL,NULL,NULL,NULL,120,NULL,NULL,NULL,NULL,4.8,Yes,NULL,Yes,NULL,NULL,NULL,NULL,NULL,NULL,330034,4136,4136,NULL,NULL,NULL,NULL,NULL,NULL,NULL,NULL,NULL,NULL,NULL,NULL,NULL,NULL,NULL,NULL,NULL,NULL,10,+,Out,Block,NULL,1,214014,NULL,NO. 2 CAPACITOR CB,Closed,NULL,Closed,NULL,NULL,NULL,0,1,8,260558,NULL,1,NULL,NULL,NULL,NULL,NULL,260560,NULL,NULL,NULL,NULL,
1655,ELIZABETH LAKE NO. 3 CAP,No,Yes,Yes,632,Variable,4.8,0,4.8,0,0,1,632,16.48,15.52,1,0,Off,Off,NULL,NULL,NULL,NULL,NULL,NULL,NULL,NULL,120,NULL,NULL,NULL,NULL,4.8,Yes,NULL,Yes,NULL,NULL,NULL,NULL,NULL,NULL,330035,4136,4136,NULL,NULL,NULL,NULL,NULL,NULL,NULL,NULL,NULL,NULL,NULL,NULL,NULL,NULL,NULL,NULL,NULL,NULL,10,+,Out,Block,NULL,1,214018,NULL,NO. 3 CAPACITOR CB,Closed,NULL,Closed,NULL,NULL,NULL,0,1,8,260562,NULL,1,NULL,NULL,NULL,NULL,NULL,260564,NULL,NULL,NULL,NULL,
1656,NORTH OAKS CAP 1,No,Yes,Yes,612,Variable,3.15,0,3.15,0,0,1,612,16.48,15.52,1,0,Off,Off,NULL,NULL,NULL,NULL,NULL,NULL,NULL,NULL,120,NULL,NULL,NULL,NULL,3.15,Yes,NULL,Yes,NULL,NULL,NULL,NULL,NULL,NULL,330067,4138,4138,NULL,NULL,NULL,NULL,NULL,NULL,NULL,NULL,NULL,NULL,NULL,NULL,NULL,NULL,NULL,NULL,NULL,NULL,10,+,Out,Block,NULL,1,105441,NULL,NO.1 16KV CAP CB,Closed,NULL,Closed,NULL,NULL,NULL,0,1,8,57192,NULL,1,NULL,NULL,NULL,NULL,NULL,57152,NULL,NULL,NULL,NULL,
1657,NORTH OAKS CAP 1A,No,Yes,Yes,614,Variable,3.15,0,3.15,0,0,1,614,16.48,15.52,1,0,Off,Off,NULL,NULL,NULL,NULL,NULL,NULL,NULL,NULL,120,NULL,NULL,NULL,NULL,3.15,Yes,NULL,Yes,NULL,NULL,NULL,NULL,NULL,NULL,330068,4138,4138,NULL,NULL,NULL,NULL,NULL,NULL,NULL,NULL,NULL,NULL,NULL,NULL,NULL,NULL,NULL,NULL,NULL,NULL,10,+,Out,Block,NULL,1,105444,NULL,NO.1A 16KV CAP CB,Closed,NULL,Closed,NULL,NULL,NULL,0,1,8,57193,NULL,1,NULL,NULL,NULL,NULL,NULL,57153,NULL,NULL,NULL,NULL,
1658,NORTH OAKS CAP 3,No,Yes,Yes,632,Variable,3,0,3,0,0,1,632,16.48,15.52,1,0,Off,Off,NULL,NULL,NULL,NULL,NULL,NULL,NULL,NULL,120,NULL,NULL,NULL,NULL,3,Yes,NULL,Yes,NULL,NULL,NULL,NULL,NULL,NULL,330069,4138,4138,NULL,NULL,NULL,NULL,NULL,NULL,NULL,NULL,NULL,NULL,NULL,NULL,NULL,NULL,NULL,NULL,NULL,NULL,10,+,Out,Block,NULL,1,106316,NULL,NO.3 16KV CAP CB,Closed,NULL,Closed,NULL,NULL,NULL,0,1,8,57194,NULL,1,NULL,NULL,NULL,NULL,NULL,57154,NULL,NULL,NULL,NULL,
1659,NORTH OAKS CAP 3A,No,Yes,Yes,634,Variable,3,0,3,0,0,1,634,16.48,15.52,1,0,Off,Off,NULL,NULL,NULL,NULL,NULL,NULL,NULL,NULL,120,NULL,NULL,NULL,NULL,3,Yes,NULL,Yes,NULL,NULL,NULL,NULL,NULL,NULL,330070,4138,4138,NULL,NULL,NULL,NULL,NULL,NULL,NULL,NULL,NULL,NULL,NULL,NULL,NULL,NULL,NULL,NULL,NULL,NULL,10,+,Out,Block,NULL,1,106320,NULL,NO.3A 16KV CAP CB,Closed,NULL,Closed,NULL,NULL,NULL,0,1,8,57195,NULL,1,NULL,NULL,NULL,NULL,NULL,57155,NULL,NULL,NULL,NULL,
1660,GOLDTOWN CAP 1,No,Yes,Yes,612,Variable,3,0,3,0,0,1,997,12.36,11.64,1,0,Off,Off,NULL,NULL,NULL,NULL,NULL,NULL,NULL,NULL,120,NULL,NULL,NULL,NULL,3,Yes,NULL,Yes,NULL,NULL,NULL,NULL,NULL,NULL,330137,4139,4139,NULL,NULL,NULL,NULL,NULL,NULL,NULL,NULL,NULL,NULL,NULL,NULL,NULL,NULL,NULL,NULL,NULL,NULL,10,+,Out,Block,NULL,1,225808,NULL,NO.1 CAP CB,Open,NULL,Open,NULL,NULL,NULL,0,1,8,75827,NULL,1,NULL,NULL,NULL,NULL,NULL,289938,NULL,NULL,NULL,NULL,
1671,MONOLITH CAP 1,No,Yes,Yes,612,Variable,4.8,0,4.8,0,0,1,612,12.36,11.64,1,0,Off,Off,NULL,NULL,NULL,NULL,NULL,NULL,NULL,NULL,120,NULL,NULL,NULL,NULL,4.8,Yes,NULL,Yes,NULL,NULL,NULL,NULL,NULL,NULL,330950,4157,4157,NULL,NULL,NULL,NULL,NULL,NULL,NULL,NULL,NULL,NULL,NULL,NULL,NULL,NULL,NULL,NULL,NULL,NULL,10,+,Out,Block,NULL,1,78236,NULL,NO.1 CAPS SW,Closed,NULL,Closed,NULL,NULL,NULL,0,1,8,81026,NULL,1,NULL,NULL,NULL,NULL,NULL,81028,NULL,NULL,NULL,NULL,
1716,RAILROAD CAP 3,No,Yes,Yes,631,Variable,4.8,0,4.8,0,0,1,631,13.0935,12.0959,1,0,Off,Off,NULL,NULL,NULL,NULL,NULL,NULL,NULL,NULL,120,NULL,NULL,NULL,NULL,4.8,Yes,NULL,Yes,NULL,NULL,NULL,NULL,NULL,NULL,321290,3242,3242,NULL,NULL,NULL,NULL,NULL,NULL,NULL,NULL,NULL,NULL,NULL,NULL,NULL,NULL,NULL,NULL,NULL,NULL,10,+,Out,Block,NULL,7,5840,NULL,NO.3 CAPS CB,Closed,NULL,Closed,NULL,NULL,NULL,0,1,8,18077,NULL,1,NULL,NULL,NULL,NULL,NULL,18079,NULL,NULL,NULL,NULL,
1731,MARIPOSA CAP 1,No,Yes,Yes,103,Variable,1.5,0,1.5,0,0,1,103,13.0935,12.0959,1,0,Off,Off,NULL,NULL,NULL,NULL,NULL,NULL,NULL,NULL,120,NULL,NULL,NULL,NULL,1.5,Yes,NULL,Yes,NULL,NULL,NULL,NULL,NULL,NULL,327421,4220,4220,NULL,NULL,NULL,NULL,NULL,NULL,NULL,NULL,NULL,NULL,NULL,NULL,NULL,NULL,NULL,NULL,NULL,NULL,10,+,Out,Block,NULL,1,141356,NULL,NO.1 CAPS 12KV CB,Closed,NULL,Closed,NULL,NULL,NULL,0,1,8,155421,NULL,1,NULL,NULL,NULL,NULL,NULL,196827,NULL,NULL,NULL,NULL,
1738,STRATHMORE CAP 1,No,Yes,Yes,611,Variable,4.8,0,4.8,0,0,1,611,13.0935,12.0959,1,0,Off,Off,NULL,NULL,NULL,NULL,NULL,NULL,NULL,NULL,120,NULL,NULL,NULL,NULL,4.8,Yes,NULL,Yes,NULL,NULL,NULL,NULL,NULL,NULL,328277,4226,4226,NULL,NULL,NULL,NULL,NULL,NULL,NULL,NULL,NULL,NULL,3,+,In/Out,Normal,NULL,1,141130,NULL,10,+,Out,Block,NULL,7,35175,NULL,NO.1 CAP BK,Closed,NULL,Closed,NULL,NULL,NULL,0,1,8,154147,NULL,1,NULL,NULL,NULL,NULL,NULL,154119,NULL,NULL,NULL,NULL,
1739,QUINN CAP 1,No,Yes,Yes,611,Variable,3,0,3,0,0,1,999,13.0935,12.0959,1,0,Off,Off,NULL,NULL,NULL,NULL,NULL,NULL,NULL,NULL,120,NULL,NULL,NULL,NULL,3,Yes,NULL,Yes,NULL,NULL,NULL,NULL,NULL,NULL,328278,4227,4227,NULL,NULL,NULL,NULL,NULL,NULL,NULL,NULL,NULL,NULL,NULL,NULL,NULL,NULL,NULL,NULL,NULL,NULL,10,+,Out,Block,NULL,1,109179,NULL,NO.1 CAPS 12KV CB,Closed,NULL,Closed,NULL,NULL,NULL,0,1,8,155563,NULL,1,NULL,NULL,NULL,NULL,NULL,95804,NULL,NULL,NULL,NULL,
1740,TERRA BELLA CAP 1,No,Yes,Yes,611,Variable,2.4,0,2.4,0,0,1,999,13.0935,12.0959,1,0,Off,Off,NULL,NULL,NULL,NULL,NULL,NULL,NULL,NULL,120,NULL,NULL,NULL,NULL,2.4,Yes,NULL,Yes,NULL,NULL,NULL,NULL,NULL,NULL,327691,4228,4228,NULL,NULL,NULL,NULL,NULL,NULL,NULL,NULL,NULL,NULL,NULL,NULL,NULL,NULL,NULL,NULL,NULL,NULL,3,-,In/Out,Normal,NULL,1,61743,NULL,NO.1 CAPS 12KV CB,Closed,NULL,Closed,NULL,NULL,NULL,0,1,8,152752,NULL,1,NULL,NULL,NULL,NULL,NULL,294602,NULL,NULL,NULL,NULL,
1741,TERRA BELLA CAP 2,No,Yes,Yes,620,Variable,2.4,0,2.4,0,0,1,999,13.0935,12.0959,1,0,Off,Off,NULL,NULL,NULL,NULL,NULL,NULL,NULL,NULL,120,NULL,NULL,NULL,NULL,2.4,Yes,NULL,Yes,NULL,NULL,NULL,NULL,NULL,NULL,327692,4228,4228,NULL,NULL,NULL,NULL,NULL,NULL,NULL,NULL,NULL,NULL,NULL,NULL,NULL,NULL,NULL,NULL,NULL,NULL,3,+,In/Out,Normal,NULL,1,61746,NULL,NO.2 CAPS 12KV CB,Closed,NULL,Closed,NULL,NULL,NULL,0,1,8,152753,NULL,1,NULL,NULL,NULL,NULL,NULL,294603,NULL,NULL,NULL,NULL,
1742,WELDON CAP 1,No,Yes,Yes,611,Variable,4.8,0,4.8,0,0,1,611,13.0935,12.0959,1,0,Off,Off,NULL,NULL,NULL,NULL,NULL,NULL,NULL,NULL,120,NULL,NULL,NULL,NULL,4.8,Yes,NULL,Yes,NULL,NULL,NULL,NULL,NULL,NULL,327698,4229,4229,NULL,NULL,NULL,NULL,NULL,NULL,NULL,NULL,NULL,NULL,3,+,In/Out,Normal,NULL,1,229390,NULL,10,+,Out,Block,NULL,13,229392,NULL,NO.1 CAP 12KV CB,Closed,NULL,Closed,NULL,NULL,NULL,0,1,8,152905,NULL,1,NULL,NULL,NULL,NULL,NULL,296687,NULL,NULL,NULL,NULL,
1743,WHEATLAND CAP 1,No,Yes,Yes,611,Fixed,4.8,0,4.8,0,0,1,999,13.0935,12.0959,1,0,Off,Off,NULL,NULL,NULL,NULL,NULL,NULL,NULL,NULL,120,NULL,NULL,NULL,NULL,4.8,Yes,NULL,Yes,NULL,NULL,NULL,NULL,NULL,NULL,327705,4230,4230,NULL,NULL,NULL,NULL,NULL,NULL,NULL,NULL,NULL,NULL,3,+,In/Out,Normal,NULL,1,223728,NULL,10,+,Out,Block,NULL,13,223726,NULL,NULL,NULL,NULL,NULL,NULL,NULL,NULL,NULL,NULL,NULL,NULL,NULL,NULL,NULL,NULL,NULL,NULL,NULL,NULL,NULL,NULL,NULL,NULL,
1754,NEWHALL NO. 1A CAP,No,Yes,Yes,612,Fixed,3,0,3,0,0,1,498,16.48,15.52,1,0,Off,Off,NULL,NULL,NULL,NULL,NULL,NULL,NULL,NULL,120,NULL,NULL,NULL,NULL,3,Yes,NULL,Yes,NULL,NULL,NULL,NULL,NULL,NULL,329968,4240,4240,NULL,NULL,NULL,NULL,NULL,NULL,NULL,NULL,NULL,NULL,NULL,NULL,NULL,NULL,NULL,NULL,NULL,NULL,NULL,NULL,NULL,NULL,NULL,NULL,NULL,NULL,NULL,NULL,NULL,NULL,NULL,NULL,NULL,NULL,NULL,NULL,NULL,NULL,NULL,NULL,NULL,NULL,NULL,NULL,NULL,NULL,NULL,NULL,NULL,
1755,NEWHALL NO. 1B CAP,No,Yes,Yes,613,Fixed,3,0,3,0,0,1,498,16.48,15.52,1,0,Off,Off,NULL,NULL,NULL,NULL,NULL,NULL,NULL,NULL,120,NULL,NULL,NULL,NULL,3,Yes,NULL,Yes,NULL,NULL,NULL,NULL,NULL,NULL,329969,4240,4240,NULL,NULL,NULL,NULL,NULL,NULL,NULL,NULL,NULL,NULL,NULL,NULL,NULL,NULL,NULL,NULL,NULL,NULL,NULL,NULL,NULL,NULL,NULL,NULL,NULL,NULL,NULL,NULL,NULL,NULL,NULL,NULL,NULL,NULL,NULL,NULL,NULL,NULL,NULL,NULL,NULL,NULL,NULL,NULL,NULL,NULL,NULL,NULL,NULL,
1756,NEWHALL NO. 2 CAP,No,Yes,Yes,622,Fixed,6,0,6,0,0,1,999,17.325,16.005,1,0,Off,Off,NULL,NULL,NULL,NULL,NULL,NULL,NULL,NULL,120,NULL,NULL,NULL,NULL,6,Yes,NULL,Yes,NULL,NULL,NULL,NULL,NULL,NULL,329970,4240,4240,NULL,NULL,NULL,NULL,NULL,NULL,NULL,NULL,NULL,NULL,NULL,NULL,NULL,NULL,NULL,NULL,NULL,NULL,10,+,Out,Block,NULL,1,62902,NULL,NULL,NULL,NULL,NULL,NULL,NULL,NULL,NULL,NULL,NULL,NULL,NULL,NULL,NULL,NULL,NULL,NULL,NULL,NULL,NULL,NULL,NULL,NULL,
1759,LOCKHEED NO. 1 CAP,No,Yes,Yes,612,Variable,4.8,0,4.8,0,0,1,612,16.48,15.52,1,0,Off,Off,NULL,NULL,NULL,NULL,NULL,NULL,NULL,NULL,120,NULL,NULL,NULL,NULL,4.8,Yes,NULL,Yes,NULL,NULL,NULL,NULL,NULL,NULL,330138,4245,4245,NULL,NULL,NULL,NULL,NULL,NULL,NULL,NULL,NULL,NULL,NULL,NULL,NULL,NULL,NULL,NULL,NULL,NULL,10,+,Out,Block,NULL,13,69339,NULL,NO. 1 CAPACITOR CB,Open,NULL,Open,NULL,NULL,NULL,0,1,8,70910,NULL,1,NULL,NULL,NULL,NULL,NULL,70921,NULL,NULL,NULL,NULL,
1760,LOCKHEED NO. 2 CAP,No,Yes,Yes,621,Variable,4.8,0,4.8,0,0,1,621,16.48,15.52,1,0,Off,Off,NULL,NULL,NULL,NULL,NULL,NULL,NULL,NULL,120,NULL,NULL,NULL,NULL,4.8,Yes,NULL,Yes,NULL,NULL,NULL,NULL,NULL,NULL,330139,4245,4245,NULL,NULL,NULL,NULL,NULL,NULL,NULL,NULL,NULL,NULL,NULL,NULL,NULL,NULL,NULL,NULL,NULL,NULL,10,+,Out,Block,NULL,13,70248,NULL,NO. 2 CAPACITOR CB,Open,NULL,Open,NULL,NULL,NULL,0,1,8,70912,NULL,1,NULL,NULL,NULL,NULL,NULL,70933,NULL,NULL,NULL,NULL,
2032,TRITON CAP 1,No,Yes,Yes,601,Variable,4.8,0,4.8,0,0,1,601,12.36,11.64,1,0,Off,Off,NULL,NULL,NULL,NULL,NULL,NULL,NULL,NULL,120,NULL,NULL,NULL,NULL,4.8,Yes,NULL,Yes,NULL,NULL,NULL,NULL,NULL,NULL,320916,1293,1293,NULL,NULL,NULL,NULL,NULL,NULL,NULL,NULL,NULL,NULL,NULL,NULL,NULL,NULL,NULL,NULL,NULL,NULL,3,+,In/Out,Normal,NULL,12,219547,NULL,CAP 1 CB,Open,NULL,Open,NULL,NULL,NULL,0,1,13,274070,NULL,1,NULL,NULL,NULL,NULL,NULL,274072,NULL,NULL,NULL,NULL,
2033,TRITON CAP 4,No,Yes,Yes,603,Variable,4.8,0,4.8,0,0,1,603,12.36,11.64,1,0,Off,Off,NULL,NULL,NULL,NULL,NULL,NULL,NULL,NULL,120,NULL,NULL,NULL,NULL,4.8,Yes,NULL,Yes,NULL,NULL,NULL,NULL,NULL,NULL,320917,1293,1293,NULL,NULL,NULL,NULL,NULL,NULL,NULL,NULL,NULL,NULL,NULL,NULL,NULL,NULL,NULL,NULL,NULL,NULL,3,+,In/Out,Normal,NULL,12,219551,NULL,CAP 4 CB,Open,NULL,Open,NULL,NULL,NULL,0,1,13,274074,NULL,1,NULL,NULL,NULL,NULL,NULL,274076,NULL,NULL,NULL,NULL,
2041,MERCED CAP 1,No,Yes,Yes,601,Variable,7.2,0,7.2,0,0,1,601,13.0935,12.0959,1,0,Off,Off,NULL,NULL,NULL,NULL,NULL,NULL,NULL,NULL,120,NULL,NULL,NULL,NULL,7.2,Yes,NULL,Yes,NULL,NULL,NULL,NULL,NULL,NULL,323066,3027,3027,NULL,NULL,NULL,NULL,NULL,NULL,NULL,NULL,NULL,NULL,NULL,NULL,NULL,NULL,NULL,NULL,NULL,NULL,NULL,NULL,NULL,NULL,NULL,NULL,NULL,NULL,CAP CB 1,Closed,NULL,Closed,NULL,NULL,NULL,0,1,2,250869,NULL,1,NULL,NULL,NULL,NULL,NULL,250871,NULL,NULL,NULL,NULL,
2042,MERCED CAP 2,No,Yes,Yes,603,Variable,7.2,0,7.2,0,0,1,603,13.0935,12.0959,1,0,Off,Off,NULL,NULL,NULL,NULL,NULL,NULL,NULL,NULL,120,NULL,NULL,NULL,NULL,7.2,Yes,NULL,Yes,NULL,NULL,NULL,NULL,NULL,NULL,323067,3027,3027,NULL,NULL,NULL,NULL,NULL,NULL,NULL,NULL,NULL,NULL,NULL,NULL,NULL,NULL,NULL,NULL,NULL,NULL,NULL,NULL,NULL,NULL,NULL,NULL,NULL,NULL,CAP CB 2,Closed,NULL,Closed,NULL,NULL,NULL,0,1,2,250877,NULL,1,NULL,NULL,NULL,NULL,NULL,250879,NULL,NULL,NULL,NULL,
2043,PUENTE CAP 1,No,Yes,Yes,611,Variable,4.8,0,4.8,0,0,1,601,13.0935,12.0959,1,0,Off,Off,NULL,NULL,NULL,NULL,NULL,NULL,NULL,NULL,120,NULL,NULL,NULL,NULL,4.8,Yes,NULL,Yes,NULL,NULL,NULL,NULL,NULL,NULL,323068,3028,3028,NULL,NULL,NULL,NULL,NULL,NULL,NULL,NULL,NULL,NULL,NULL,NULL,NULL,NULL,NULL,NULL,NULL,NULL,NULL,NULL,NULL,NULL,NULL,NULL,NULL,NULL,CAP CB 1,Closed,NULL,Closed,NULL,NULL,NULL,0,1,1,248926,NULL,1,NULL,NULL,NULL,NULL,NULL,248928,NULL,NULL,NULL,NULL,
2044,PUENTE CAP 2,No,Yes,Yes,602,Variable,4.8,0,4.8,0,0,1,602,13.0935,12.0959,1,0,Off,Off,NULL,NULL,NULL,NULL,NULL,NULL,NULL,NULL,120,NULL,NULL,NULL,NULL,4.8,Yes,NULL,Yes,NULL,NULL,NULL,NULL,NULL,NULL,323069,3028,3028,NULL,NULL,NULL,NULL,NULL,NULL,NULL,NULL,NULL,NULL,NULL,NULL,NULL,NULL,NULL,NULL,NULL,NULL,NULL,NULL,NULL,NULL,NULL,NULL,NULL,NULL,CAP CB 2,Closed,NULL,Closed,NULL,NULL,NULL,0,1,1,33431,NULL,1,NULL,NULL,NULL,NULL,NULL,33433,NULL,NULL,NULL,NULL,
2047,CANYON CAP 2,No,Yes,Yes,600,Variable,6,0,6,0,0,1,600,12.36,11.64,1,0,Off,Off,NULL,NULL,NULL,NULL,NULL,NULL,NULL,NULL,120,NULL,NULL,NULL,NULL,6,Yes,NULL,Yes,NULL,NULL,NULL,NULL,NULL,NULL,321634,3292,3292,NULL,NULL,NULL,NULL,NULL,NULL,NULL,NULL,NULL,NULL,NULL,NULL,NULL,NULL,NULL,NULL,NULL,NULL,3,+,In/Out,Normal,NULL,12,227640,NULL,CAP CB 2,Closed,NULL,Closed,NULL,NULL,NULL,0,1,12,293621,NULL,1,NULL,NULL,NULL,NULL,NULL,293623,NULL,NULL,NULL,NULL,
2056,PIXLEY CAP 1,No,Yes,Yes,612,Variable,4.8,0,4.8,0,0,1,999,12.36,11.64,1,0,Off,Off,NULL,NULL,NULL,NULL,NULL,NULL,NULL,NULL,120,NULL,NULL,NULL,NULL,4.8,Yes,NULL,Yes,NULL,NULL,NULL,NULL,NULL,NULL,327422,3036,3036,NULL,NULL,NULL,NULL,NULL,NULL,NULL,NULL,NULL,NULL,NULL,NULL,NULL,NULL,NULL,NULL,NULL,NULL,10,+,Out,Block,NULL,20,212319,NULL,NO.1 CAPS SW,Closed,NULL,Closed,NULL,NULL,NULL,0,1,8,256671,NULL,1,NULL,NULL,NULL,NULL,NULL,256673,NULL,NULL,NULL,NULL,
2057,PIXLEY CAP 2,No,Yes,Yes,622,Variable,4.8,0,4.8,0,0,1,997,12.36,11.64,1,0,Off,Off,NULL,NULL,NULL,NULL,NULL,NULL,NULL,NULL,120,NULL,NULL,NULL,NULL,4.8,Yes,NULL,Yes,NULL,NULL,NULL,NULL,NULL,NULL,327423,3036,3036,NULL,NULL,NULL,NULL,NULL,NULL,NULL,NULL,NULL,NULL,NULL,NULL,NULL,NULL,NULL,NULL,NULL,NULL,10,+,Out,Block,NULL,20,212323,NULL,NO.2 CAPS SW,Closed,NULL,Closed,NULL,NULL,NULL,0,1,8,256675,NULL,1,NULL,NULL,NULL,NULL,NULL,256677,NULL,NULL,NULL,NULL,
2078,VILLA PARK CAP 3,No,Yes,Yes,631,Variable,4.8,0,4.8,0,0,1,997,12.36,11.64,1,0,Off,Off,NULL,NULL,NULL,NULL,NULL,NULL,NULL,NULL,120,NULL,NULL,NULL,NULL,4.8,Yes,NULL,Yes,NULL,NULL,NULL,NULL,NULL,NULL,324239,3043,3043,NULL,NULL,NULL,NULL,NULL,NULL,NULL,NULL,NULL,NULL,NULL,NULL,NULL,NULL,NULL,NULL,NULL,NULL,10,+,Out,Block,NULL,21,127963,NULL,VILLA 3 CB,Closed,NULL,Closed,NULL,NULL,NULL,0,1,30,197799,NULL,1,NULL,NULL,NULL,NULL,NULL,197801,NULL,NULL,NULL,NULL,
2079,VILLA PARK CAP 4,No,Yes,Yes,642,Variable,4.8,0,4.8,0,0,1,498,12.36,11.64,1,0,Off,Off,NULL,NULL,NULL,NULL,NULL,NULL,NULL,NULL,120,NULL,NULL,NULL,NULL,4.8,Yes,NULL,Yes,NULL,NULL,NULL,NULL,NULL,NULL,324240,3043,3043,NULL,NULL,NULL,NULL,NULL,NULL,NULL,NULL,NULL,NULL,NULL,NULL,NULL,NULL,NULL,NULL,NULL,NULL,10,+,Out,Block,NULL,21,127966,NULL,VILLA 4 CB,Closed,NULL,Closed,NULL,NULL,NULL,0,1,30,197805,NULL,1,NULL,NULL,NULL,NULL,NULL,197807,NULL,NULL,NULL,NULL,
2156,ORANGE CAP 3,No,Yes,Yes,606,Variable,4.8,0,4.8,0,0,1,606,12.6,11.64,1,0,Off,Off,NULL,NULL,NULL,NULL,NULL,NULL,NULL,NULL,120,NULL,NULL,NULL,NULL,4.8,Yes,NULL,Yes,NULL,NULL,NULL,NULL,NULL,NULL,323181,3479,3479,NULL,NULL,NULL,NULL,NULL,NULL,NULL,NULL,NULL,NULL,NULL,NULL,NULL,NULL,NULL,NULL,NULL,NULL,3,+,In/Out,Normal,NULL,13,227794,NULL,NO.3 CAPS CB,Closed,NULL,Closed,NULL,NULL,NULL,0,1,8,71467,NULL,1,NULL,NULL,NULL,NULL,NULL,71469,NULL,NULL,NULL,NULL,
2157,ORANGE CAP 4,No,Yes,Yes,607,Variable,4.8,0,4.8,0,0,1,603,12.6,11.64,1,0,Off,Off,NULL,NULL,NULL,NULL,NULL,NULL,NULL,NULL,120,NULL,NULL,NULL,NULL,4.8,Yes,NULL,Yes,NULL,NULL,NULL,NULL,NULL,NULL,323182,3479,3479,NULL,NULL,NULL,NULL,NULL,NULL,NULL,NULL,NULL,NULL,NULL,NULL,NULL,NULL,NULL,NULL,NULL,NULL,3,+,In/Out,Normal,NULL,13,227798,NULL,NO.4 CAPS CB,Closed,NULL,Closed,NULL,NULL,NULL,0,1,8,71472,NULL,1,NULL,NULL,NULL,NULL,NULL,71474,NULL,NULL,NULL,NULL,
2160,VIEJO CAP 3,No,Yes,Yes,601,Variable,4.8,0,4.8,0,0,1,601,13.0935,12.0959,1,0,Off,Off,NULL,NULL,NULL,NULL,NULL,NULL,NULL,NULL,120,NULL,NULL,NULL,NULL,4.8,Yes,NULL,Yes,NULL,NULL,NULL,NULL,NULL,NULL,323831,3528,3528,NULL,NULL,NULL,NULL,NULL,NULL,NULL,NULL,NULL,NULL,NULL,NULL,NULL,NULL,NULL,NULL,NULL,NULL,10,+,In/Out,Normal,NULL,13,126075,NULL,CAP 3 CB,Closed,NULL,Closed,NULL,NULL,NULL,0,1,1,193544,NULL,1,NULL,NULL,NULL,NULL,NULL,193546,NULL,NULL,NULL,NULL,
2161,VIEJO CAP 4,No,Yes,Yes,605,Variable,4.8,0,4.8,0,0,1,605,13.0935,12.0959,1,0,Off,Off,NULL,NULL,NULL,NULL,NULL,NULL,NULL,NULL,120,NULL,NULL,NULL,NULL,4.8,Yes,NULL,Yes,NULL,NULL,NULL,NULL,NULL,NULL,323832,3528,3528,NULL,NULL,NULL,NULL,NULL,NULL,NULL,NULL,NULL,NULL,NULL,NULL,NULL,NULL,NULL,NULL,NULL,NULL,10,+,In/Out,Normal,NULL,13,126078,NULL,CAP 4 CB,Closed,NULL,Closed,NULL,NULL,NULL,0,1,1,193549,NULL,1,NULL,NULL,NULL,NULL,NULL,193551,NULL,NULL,NULL,NULL,
2511,INDUSTRY CAP 1,No,Yes,Yes,603,Variable,6,0,6,0,0,1,603,12.6,11.64,1,0,Off,Off,NULL,NULL,NULL,NULL,NULL,NULL,NULL,NULL,120,NULL,NULL,NULL,NULL,6,Yes,NULL,Yes,NULL,NULL,NULL,NULL,NULL,NULL,322740,3215,3215,NULL,NULL,NULL,NULL,NULL,NULL,NULL,NULL,NULL,NULL,NULL,NULL,NULL,NULL,NULL,NULL,NULL,NULL,3,+,In/Out,Normal,NULL,12,203031,NULL,CAP CB 1,Open,NULL,Open,NULL,NULL,NULL,0,1,13,232976,NULL,1,NULL,NULL,NULL,NULL,NULL,232979,NULL,NULL,NULL,NULL,
2512,INDUSTRY CAP 2,No,Yes,Yes,601,Variable,6.15,0,6.15,0,0,1,601,12.6,11.64,1,0,Off,Off,NULL,NULL,NULL,NULL,NULL,NULL,NULL,NULL,120,NULL,NULL,NULL,NULL,6.15,Yes,NULL,Yes,NULL,NULL,NULL,NULL,NULL,NULL,322741,3215,3215,NULL,NULL,NULL,NULL,NULL,NULL,NULL,NULL,NULL,NULL,NULL,NULL,NULL,NULL,NULL,NULL,NULL,NULL,3,+,In/Out,Normal,NULL,12,203034,NULL,CAP CB 2,Open,NULL,Open,NULL,NULL,NULL,0,1,13,232985,NULL,1,NULL,NULL,NULL,NULL,NULL,232988,NULL,NULL,NULL,NULL,
2517,NOGALES CAP 2,No,Yes,Yes,622,Variable,4.8,0,4.8,0,0,1,622,12.6,11.64,1,0,Off,Off,NULL,NULL,NULL,NULL,NULL,NULL,NULL,NULL,120,NULL,NULL,NULL,NULL,4.8,Yes,NULL,Yes,NULL,NULL,NULL,NULL,NULL,NULL,325129,3240,3240,NULL,NULL,NULL,NULL,NULL,NULL,NULL,NULL,NULL,NULL,NULL,NULL,NULL,NULL,NULL,NULL,NULL,NULL,10,+,Out,Block,NULL,12,193963,NULL,NO.2 CAPS 12KV SW,Closed,NULL,Closed,NULL,NULL,NULL,0,1,8,249223,NULL,1,NULL,NULL,NULL,NULL,NULL,249225,NULL,NULL,NULL,NULL,
2518,NOGALES CAP 1,No,Yes,Yes,611,Variable,5.712,0,5.712,0,0,1,611,12.6,11.64,1,0,Off,Off,NULL,NULL,NULL,NULL,NULL,NULL,NULL,NULL,120,NULL,NULL,NULL,NULL,5.712,Yes,NULL,Yes,NULL,NULL,NULL,NULL,NULL,NULL,325130,3240,3240,NULL,NULL,NULL,NULL,NULL,NULL,NULL,NULL,NULL,NULL,NULL,NULL,NULL,NULL,NULL,NULL,NULL,NULL,10,+,Out,Block,NULL,12,193959,NULL,NO.1 CAPS 12KV CB,Closed,NULL,Closed,NULL,NULL,NULL,0,1,8,249216,NULL,1,NULL,NULL,NULL,NULL,NULL,249218,NULL,NULL,NULL,NULL,
2522,RAILROAD CAP 2,No,Yes,Yes,622,Variable,6.3,0,6.3,0,0,1,622,12.6,11.64,1,0,Off,Off,NULL,NULL,NULL,NULL,NULL,NULL,NULL,NULL,120,NULL,NULL,NULL,NULL,6.3,Yes,NULL,Yes,NULL,NULL,NULL,NULL,NULL,NULL,325098,3242,3242,NULL,NULL,NULL,NULL,NULL,NULL,NULL,NULL,NULL,NULL,NULL,NULL,NULL,NULL,NULL,NULL,NULL,NULL,3,+,In/Out,Normal,NULL,12,204994,NULL,CAP CB 2,Closed,NULL,Closed,NULL,NULL,NULL,0,1,8,36313,NULL,1,NULL,NULL,NULL,NULL,NULL,36315,NULL,NULL,NULL,NULL,
2523,RAILROAD CAP 1,No,Yes,Yes,611,Variable,6.3,0,6.3,0,0,1,611,12.6,11.64,1,0,Off,Off,NULL,NULL,NULL,NULL,NULL,NULL,NULL,NULL,120,NULL,NULL,NULL,NULL,6.3,Yes,NULL,Yes,NULL,NULL,NULL,NULL,NULL,NULL,325099,3242,3242,NULL,NULL,NULL,NULL,NULL,NULL,NULL,NULL,NULL,NULL,NULL,NULL,NULL,NULL,NULL,NULL,NULL,NULL,3,+,In/Out,Normal,NULL,12,204991,NULL,NO.1 CAPS CB,Closed,NULL,Closed,NULL,NULL,NULL,0,1,8,36306,NULL,1,NULL,NULL,NULL,NULL,NULL,36308,NULL,NULL,NULL,NULL,
2556,ALESSANDRO CAP 4,No,Yes,Yes,600,Variable,4.8,0,4.8,0,0,1,600,12.6,11.64,1,0,Off,Off,NULL,NULL,NULL,NULL,NULL,NULL,NULL,NULL,120,NULL,NULL,NULL,NULL,4.8,Yes,NULL,Yes,NULL,NULL,NULL,NULL,NULL,NULL,320676,3275,3275,NULL,NULL,NULL,NULL,NULL,NULL,NULL,NULL,NULL,NULL,NULL,NULL,NULL,NULL,NULL,NULL,NULL,NULL,3,+,In/Out,Normal,NULL,12,206310,NULL,CAP CB 4,Closed,NULL,Closed,NULL,NULL,NULL,0,1,13,39717,NULL,1,NULL,NULL,NULL,NULL,NULL,39719,NULL,NULL,NULL,NULL,
2557,ALESSANDRO CAP 2,No,Yes,Yes,601,Variable,6,0,6,0,0,1,601,12.6,11.64,1,0,Off,Off,NULL,NULL,NULL,NULL,NULL,NULL,NULL,NULL,120,NULL,NULL,NULL,NULL,6,Yes,NULL,Yes,NULL,NULL,NULL,NULL,NULL,NULL,320677,3275,3275,NULL,NULL,NULL,NULL,NULL,NULL,NULL,NULL,NULL,NULL,NULL,NULL,NULL,NULL,NULL,NULL,NULL,NULL,3,+,In/Out,Normal,NULL,12,206307,NULL,CAP CB 2,Closed,NULL,Closed,NULL,NULL,NULL,0,1,13,39710,NULL,1,NULL,NULL,NULL,NULL,NULL,39712,NULL,NULL,NULL,NULL,
2558,ALESSANDRO CAP 5,No,Yes,Yes,602,Variable,4.8,0,4.8,0,0,1,602,12.6,11.64,1,0,Off,Off,NULL,NULL,NULL,NULL,NULL,NULL,NULL,NULL,120,NULL,NULL,NULL,NULL,4.8,Yes,NULL,Yes,NULL,NULL,NULL,NULL,NULL,NULL,320678,3275,3275,NULL,NULL,NULL,NULL,NULL,NULL,NULL,NULL,NULL,NULL,NULL,NULL,NULL,NULL,NULL,NULL,NULL,NULL,3,+,In/Out,Normal,NULL,12,206313,NULL,CAP CB 5,Closed,NULL,Closed,NULL,NULL,NULL,0,1,13,39721,NULL,1,NULL,NULL,NULL,NULL,NULL,39723,NULL,NULL,NULL,NULL,
2559,ALESSANDRO CAP 1,No,Yes,Yes,601,Fixed,10.2,0,10.2,0,0,1,601,33.99,32.01,1,0,Off,Off,NULL,NULL,NULL,NULL,NULL,NULL,NULL,NULL,120,NULL,NULL,NULL,NULL,10.2,Yes,NULL,Yes,NULL,NULL,NULL,NULL,NULL,NULL,320695,3277,3277,NULL,NULL,NULL,NULL,NULL,NULL,NULL,NULL,NULL,NULL,NULL,NULL,NULL,NULL,NULL,NULL,NULL,NULL,NULL,NULL,NULL,NULL,NULL,NULL,NULL,NULL,NULL,NULL,NULL,NULL,NULL,NULL,NULL,NULL,NULL,NULL,NULL,NULL,NULL,NULL,NULL,NULL,NULL,NULL,NULL,NULL,NULL,NULL,NULL,
2560,GAVILAN CAP 2_PSS,No,Yes,No,601,Variable,3.6,0,3.6,0,0,1,601,33.99,32.01,1,0,Off,Off,NULL,NULL,NULL,NULL,NULL,NULL,NULL,NULL,120,NULL,NULL,NULL,NULL,3.6,Yes,NULL,No,NULL,NULL,NULL,NULL,NULL,NULL,NULL,3280,3280,NULL,NULL,NULL,NULL,NULL,NULL,NULL,NULL,NULL,NULL,3,+,In/Out,Normal,NULL,1,192779,NULL,10,+,Out,Block,NULL,12,183252,NULL,NO.2 CAP 33KV SW,Open,NULL,Open,NULL,NULL,NULL,0,1,8,281642,NULL,1,NULL,NULL,NULL,NULL,NULL,281732,NULL,NULL,NULL,NULL,
2561,GAVILAN CAP 1,No,Yes,Yes,600,Variable,3.6,0,3.6,0,0,1,600,13.01,12.01,1,0,Off,Off,NULL,NULL,NULL,NULL,NULL,NULL,NULL,NULL,120,NULL,NULL,NULL,NULL,3.6,Yes,NULL,No,NULL,NULL,NULL,NULL,NULL,NULL,321398,3281,3281,NULL,NULL,NULL,NULL,NULL,NULL,NULL,NULL,NULL,NULL,3,+,In/Out,Normal,NULL,1,192790,NULL,10,+,Out,Block,NULL,1,192792,NULL,NO.1 CAP 12KV CB,Closed,NULL,Closed,NULL,NULL,NULL,0,1,8,281653,NULL,1,NULL,NULL,NULL,NULL,NULL,281733,NULL,NULL,NULL,NULL,
2562,EL SOBRANTE CAP 1_PSS,No,Yes,No,110,Variable,6,0,6,0,0,1,110,33.99,32.01,1,0,Off,Off,NULL,NULL,NULL,NULL,NULL,NULL,NULL,NULL,120,NULL,NULL,NULL,NULL,6,Yes,NULL,No,NULL,NULL,NULL,NULL,NULL,NULL,NULL,3282,3282,NULL,NULL,NULL,NULL,NULL,NULL,NULL,NULL,NULL,NULL,NULL,NULL,NULL,NULL,NULL,NULL,NULL,NULL,NULL,NULL,NULL,NULL,NULL,NULL,NULL,NULL,CAP 1 CB,Closed,NULL,Closed,NULL,NULL,NULL,0,1,13,278752,NULL,1,NULL,NULL,NULL,NULL,NULL,278754,NULL,NULL,NULL,NULL,
2569,BUNKER CAP 1,No,Yes,Yes,600,Variable,4.8,0,4.8,0,0,1,600,12.36,11.64,1,0,Off,Off,NULL,NULL,NULL,NULL,NULL,NULL,NULL,NULL,120,NULL,NULL,NULL,NULL,4.8,Yes,NULL,Yes,NULL,NULL,NULL,NULL,NULL,NULL,320515,3291,3291,NULL,NULL,NULL,NULL,NULL,NULL,NULL,NULL,NULL,NULL,NULL,NULL,NULL,NULL,NULL,NULL,NULL,NULL,3,+,In/Out,Normal,NULL,12,216492,NULL,CAP CB 1,Open,NULL,Open,NULL,NULL,NULL,0,1,13,265827,NULL,1,NULL,NULL,NULL,NULL,NULL,265829,NULL,NULL,NULL,NULL,
2570,BUNKER CAP 2,No,Yes,Yes,601,Variable,4.8,0,4.8,0,0,1,601,12.36,11.64,1,0,Off,Off,NULL,NULL,NULL,NULL,NULL,NULL,NULL,NULL,120,NULL,NULL,NULL,NULL,4.8,Yes,NULL,Yes,NULL,NULL,NULL,NULL,NULL,NULL,320516,3291,3291,NULL,NULL,NULL,NULL,NULL,NULL,NULL,NULL,NULL,NULL,NULL,NULL,NULL,NULL,NULL,NULL,NULL,NULL,3,+,In/Out,Normal,NULL,12,216496,NULL,CAP CB 2,Open,NULL,Open,NULL,NULL,NULL,0,1,13,265831,NULL,1,NULL,NULL,NULL,NULL,NULL,265833,NULL,NULL,NULL,NULL,
2571,BUNKER CAP 3,No,Yes,Yes,602,Variable,4.8,0,4.8,0,0,1,602,12.36,11.64,1,0,Off,Off,NULL,NULL,NULL,NULL,NULL,NULL,NULL,NULL,120,NULL,NULL,NULL,NULL,4.8,Yes,NULL,Yes,NULL,NULL,NULL,NULL,NULL,NULL,320517,3291,3291,NULL,NULL,NULL,NULL,NULL,NULL,NULL,NULL,NULL,NULL,NULL,NULL,NULL,NULL,NULL,NULL,NULL,NULL,3,+,In/Out,Normal,NULL,12,216500,NULL,CAP CB 2,Open,NULL,Open,NULL,NULL,NULL,0,1,13,265835,NULL,1,NULL,NULL,NULL,NULL,NULL,265837,NULL,NULL,NULL,NULL,
2572,CANYON CAP 1,No,Yes,Yes,601,Variable,6,0,6,0,0,1,601,12.36,11.64,1,0,Off,Off,NULL,NULL,NULL,NULL,NULL,NULL,NULL,NULL,120,NULL,NULL,NULL,NULL,6,Yes,NULL,Yes,NULL,NULL,NULL,NULL,NULL,NULL,321639,3292,3292,NULL,NULL,NULL,NULL,NULL,NULL,NULL,NULL,NULL,NULL,NULL,NULL,NULL,NULL,NULL,NULL,NULL,NULL,3,+,In/Out,Normal,NULL,12,117373,NULL,CAP CB 1,Closed,NULL,Closed,NULL,NULL,NULL,0,1,13,110525,NULL,1,NULL,NULL,NULL,NULL,NULL,110527,NULL,NULL,NULL,NULL,
2573,CHIQUITA CAP 1,No,Yes,Yes,600,Variable,6,0,6,0,0,1,600,12.36,11.64,1,0,Off,Off,NULL,NULL,NULL,NULL,NULL,NULL,NULL,NULL,120,NULL,NULL,NULL,NULL,6,Yes,NULL,Yes,NULL,NULL,NULL,NULL,NULL,NULL,321041,3293,3293,NULL,NULL,NULL,NULL,NULL,NULL,NULL,NULL,NULL,NULL,NULL,NULL,NULL,NULL,NULL,NULL,NULL,NULL,3,+,In/Out,Normal,NULL,12,112449,NULL,CAP 1 CB,Open,NULL,Open,NULL,NULL,NULL,0,1,13,132348,NULL,1,NULL,NULL,NULL,NULL,NULL,132350,NULL,NULL,NULL,NULL,
2574,CHIQUITA CAP 2,No,Yes,Yes,601,Variable,6,0,6,0,0,1,601,12.36,11.64,1,0,Off,Off,NULL,NULL,NULL,NULL,NULL,NULL,NULL,NULL,120,NULL,NULL,NULL,NULL,6,Yes,NULL,Yes,NULL,NULL,NULL,NULL,NULL,NULL,321042,3293,3293,NULL,NULL,NULL,NULL,NULL,NULL,NULL,NULL,NULL,NULL,NULL,NULL,NULL,NULL,NULL,NULL,NULL,NULL,3,+,In/Out,Normal,NULL,12,112453,NULL,CAP 2 CB,Open,NULL,Open,NULL,NULL,NULL,0,1,13,132356,NULL,1,NULL,NULL,NULL,NULL,NULL,132358,NULL,NULL,NULL,NULL,
2575,CHIQUITA CAP 3,No,Yes,Yes,602,Variable,4.8,0,4.8,0,0,1,602,12.36,11.64,1,0,Off,Off,NULL,NULL,NULL,NULL,NULL,NULL,NULL,NULL,120,NULL,NULL,NULL,NULL,4.8,Yes,NULL,Yes,NULL,NULL,NULL,NULL,NULL,NULL,321043,3293,3293,NULL,NULL,NULL,NULL,NULL,NULL,NULL,NULL,NULL,NULL,NULL,NULL,NULL,NULL,NULL,NULL,NULL,NULL,3,+,In/Out,Normal,NULL,12,108849,NULL,CAP 3 CB,Open,NULL,Open,NULL,NULL,NULL,0,1,13,123570,NULL,1,NULL,NULL,NULL,NULL,NULL,123572,NULL,NULL,NULL,NULL,
2576,CHIQUITA CAP 4,No,Yes,Yes,603,Variable,4.8,0,4.8,0,0,1,603,12.36,11.64,1,0,Off,Off,NULL,NULL,NULL,NULL,NULL,NULL,NULL,NULL,120,NULL,NULL,NULL,NULL,4.8,Yes,NULL,Yes,NULL,NULL,NULL,NULL,NULL,NULL,321044,3293,3293,NULL,NULL,NULL,NULL,NULL,NULL,NULL,NULL,NULL,NULL,NULL,NULL,NULL,NULL,NULL,NULL,NULL,NULL,3,+,In/Out,Normal,NULL,12,108853,NULL,CAP 4 CB,Open,NULL,Open,NULL,NULL,NULL,0,1,13,123578,NULL,1,NULL,NULL,NULL,NULL,NULL,123580,NULL,NULL,NULL,NULL,
2583,MAYBERRY CAP 1,No,Yes,Yes,600,Variable,6,0,6,0,0,1,600,12.36,11.64,1,0,Off,Off,NULL,NULL,NULL,NULL,NULL,NULL,NULL,NULL,120,NULL,NULL,NULL,NULL,6,Yes,NULL,Yes,NULL,NULL,NULL,NULL,NULL,NULL,320788,3299,3299,NULL,NULL,NULL,NULL,NULL,NULL,NULL,NULL,NULL,NULL,NULL,NULL,NULL,NULL,NULL,NULL,NULL,NULL,3,+,In/Out,Normal,NULL,12,196429,NULL,CAP CB 1,Closed,NULL,Closed,NULL,NULL,NULL,0,1,13,238426,NULL,1,NULL,NULL,NULL,NULL,NULL,238428,NULL,NULL,NULL,NULL,
2584,MAYBERRY CAP 2,No,Yes,Yes,601,Variable,3,0,3,0,0,1,601,12.36,11.64,1,0,Off,Off,NULL,NULL,NULL,NULL,NULL,NULL,NULL,NULL,120,NULL,NULL,NULL,NULL,3,Yes,NULL,Yes,NULL,NULL,NULL,NULL,NULL,NULL,320789,3299,3299,NULL,NULL,NULL,NULL,NULL,NULL,NULL,NULL,NULL,NULL,NULL,NULL,NULL,NULL,NULL,NULL,NULL,NULL,3,+,In/Out,Normal,NULL,12,196433,NULL,CAP CB 1,Closed,NULL,Closed,NULL,NULL,NULL,0,1,13,238434,NULL,1,NULL,NULL,NULL,NULL,NULL,238436,NULL,NULL,NULL,NULL,
2587,ONEILL CAP 1,No,Yes,Yes,612,Variable,6,0,6,0,0,1,500,12.36,11.64,1,0,Off,Off,NULL,NULL,NULL,NULL,NULL,NULL,NULL,NULL,120,NULL,NULL,NULL,NULL,6,Yes,NULL,Yes,NULL,NULL,NULL,NULL,NULL,NULL,324241,3301,3301,NULL,NULL,NULL,NULL,NULL,NULL,NULL,NULL,NULL,NULL,NULL,NULL,NULL,NULL,NULL,NULL,NULL,NULL,10,+,Out,Normal,NULL,12,215210,NULL,CAP CB 1,Closed,NULL,Closed,NULL,NULL,NULL,0,1,13,262916,NULL,1,NULL,NULL,NULL,NULL,NULL,262918,NULL,NULL,NULL,NULL,
2588,ONEILL CAP 2,No,Yes,Yes,622,Variable,4.5,0,4.5,0,0,1,999,12.36,11.64,1,0,Off,Off,NULL,NULL,NULL,NULL,NULL,NULL,NULL,NULL,120,NULL,NULL,NULL,NULL,4.5,Yes,NULL,Yes,NULL,NULL,NULL,NULL,NULL,NULL,324242,3301,3301,NULL,NULL,NULL,NULL,NULL,NULL,NULL,NULL,NULL,NULL,NULL,NULL,NULL,NULL,NULL,NULL,NULL,NULL,10,+,Out,Normal,NULL,12,215214,NULL,CAP CB 1,Closed,NULL,Closed,NULL,NULL,NULL,0,1,13,262920,NULL,1,NULL,NULL,NULL,NULL,NULL,262922,NULL,NULL,NULL,NULL,
2589,PAUBA CAP 1,No,Yes,Yes,600,Variable,4.8,0,4.8,0,0,1,600,12.36,11.64,1,0,Off,Off,NULL,NULL,NULL,NULL,NULL,NULL,NULL,NULL,120,NULL,NULL,NULL,NULL,4.8,Yes,NULL,Yes,NULL,NULL,NULL,NULL,NULL,NULL,320625,3302,3302,NULL,NULL,NULL,NULL,NULL,NULL,NULL,NULL,NULL,NULL,NULL,NULL,NULL,NULL,NULL,NULL,NULL,NULL,3,+,In/Out,Normal,NULL,12,199565,NULL,CAP CB 1,Closed,NULL,Closed,NULL,NULL,NULL,0,1,13,246124,NULL,1,NULL,NULL,NULL,NULL,NULL,246126,NULL,NULL,NULL,NULL,
2590,PAUBA CAP 2,No,Yes,Yes,601,Variable,4.8,0,4.8,0,0,1,601,12.36,11.64,1,0,Off,Off,NULL,NULL,NULL,NULL,NULL,NULL,NULL,NULL,120,NULL,NULL,NULL,NULL,4.8,Yes,NULL,Yes,NULL,NULL,NULL,NULL,NULL,NULL,320626,3302,3302,NULL,NULL,NULL,NULL,NULL,NULL,NULL,NULL,NULL,NULL,NULL,NULL,NULL,NULL,NULL,NULL,NULL,NULL,3,+,In/Out,Normal,NULL,12,205262,NULL,CAP CB 1,Closed,NULL,Closed,NULL,NULL,NULL,0,1,13,36896,NULL,1,NULL,NULL,NULL,NULL,NULL,36898,NULL,NULL,NULL,NULL,
2591,SKYLARK CAP 1,No,Yes,Yes,600,Variable,6,0,6,0,0,1,600,12.36,11.64,1,0,Off,Off,NULL,NULL,NULL,NULL,NULL,NULL,NULL,NULL,120,NULL,NULL,NULL,NULL,6,Yes,NULL,Yes,NULL,NULL,NULL,NULL,NULL,NULL,320563,3303,3303,NULL,NULL,NULL,NULL,NULL,NULL,NULL,NULL,NULL,NULL,NULL,NULL,NULL,NULL,NULL,NULL,NULL,NULL,3,+,In/Out,Normal,NULL,12,204875,NULL,CAP CB 1,Open,NULL,Open,NULL,NULL,NULL,0,1,13,35970,NULL,1,NULL,NULL,NULL,NULL,NULL,35972,NULL,NULL,NULL,NULL,
2592,SKYLARK CAP 2,No,Yes,Yes,601,Variable,4.8,0,4.8,0,0,1,601,12.36,11.64,1,0,Off,Off,NULL,NULL,NULL,NULL,NULL,NULL,NULL,NULL,120,NULL,NULL,NULL,NULL,4.8,Yes,NULL,Yes,NULL,NULL,NULL,NULL,NULL,NULL,320564,3303,3303,NULL,NULL,NULL,NULL,NULL,NULL,NULL,NULL,NULL,NULL,NULL,NULL,NULL,NULL,NULL,NULL,NULL,NULL,3,+,In/Out,Normal,NULL,12,204878,NULL,CAP CB 1,Open,NULL,Open,NULL,NULL,NULL,0,1,13,35978,NULL,1,NULL,NULL,NULL,NULL,NULL,35980,NULL,NULL,NULL,NULL,
2593,STETSON CAP 1,No,Yes,Yes,600,Variable,6,0,6,0,0,1,600,12.36,11.64,1,0,Off,Off,NULL,NULL,NULL,NULL,NULL,NULL,NULL,NULL,120,NULL,NULL,NULL,NULL,6,Yes,NULL,Yes,NULL,NULL,NULL,NULL,NULL,NULL,320822,3304,3304,NULL,NULL,NULL,NULL,NULL,NULL,NULL,NULL,NULL,NULL,NULL,NULL,NULL,NULL,NULL,NULL,NULL,NULL,3,+,In/Out,Normal,NULL,12,203517,NULL,CAP CB 1,Closed,NULL,Closed,NULL,NULL,NULL,0,1,13,33173,NULL,1,NULL,NULL,NULL,NULL,NULL,33175,NULL,NULL,NULL,NULL,
2594,STETSON CAP 2,No,Yes,Yes,601,Variable,4.8,0,4.8,0,0,1,601,12.36,11.64,1,0,Off,Off,NULL,NULL,NULL,NULL,NULL,NULL,NULL,NULL,120,NULL,NULL,NULL,NULL,4.8,Yes,NULL,Yes,NULL,NULL,NULL,NULL,NULL,NULL,320823,3304,3304,NULL,NULL,NULL,NULL,NULL,NULL,NULL,NULL,NULL,NULL,NULL,NULL,NULL,NULL,NULL,NULL,NULL,NULL,3,+,In/Out,Normal,NULL,12,203520,NULL,CAP CB 1,Closed,NULL,Closed,NULL,NULL,NULL,0,1,13,33181,NULL,1,NULL,NULL,NULL,NULL,NULL,33183,NULL,NULL,NULL,NULL,
2595,STETSON CAP 3,No,Yes,Yes,602,Variable,4.8,0,4.8,0,0,1,602,12.36,11.64,1,0,Off,Off,NULL,NULL,NULL,NULL,NULL,NULL,NULL,NULL,120,NULL,NULL,NULL,NULL,4.8,Yes,NULL,Yes,NULL,NULL,NULL,NULL,NULL,NULL,320824,3304,3304,NULL,NULL,NULL,NULL,NULL,NULL,NULL,NULL,NULL,NULL,NULL,NULL,NULL,NULL,NULL,NULL,NULL,NULL,3,+,In/Out,Normal,NULL,12,203523,NULL,CAP CB 1,Closed,NULL,Closed,NULL,NULL,NULL,0,1,13,33189,NULL,1,NULL,NULL,NULL,NULL,NULL,33191,NULL,NULL,NULL,NULL,
2597,TENAJA CAP 1,No,Yes,Yes,600,Variable,4.8,0,4.8,0,0,1,600,12.36,11.64,1,0,Off,Off,NULL,NULL,NULL,NULL,NULL,NULL,NULL,NULL,120,NULL,NULL,NULL,NULL,4.8,Yes,NULL,Yes,NULL,NULL,NULL,NULL,NULL,NULL,320709,3306,3306,NULL,NULL,NULL,NULL,NULL,NULL,NULL,NULL,NULL,NULL,NULL,NULL,NULL,NULL,NULL,NULL,NULL,NULL,3,+,In/Out,Normal,NULL,12,214117,NULL,CAP CB 1,Closed,NULL,Closed,NULL,NULL,NULL,0,1,13,260761,NULL,1,NULL,NULL,NULL,NULL,NULL,260763,NULL,NULL,NULL,NULL,
2598,TENAJA CAP 2,No,Yes,Yes,601,Variable,4.8,0,4.8,0,0,1,600,12.36,11.64,1,0,Off,Off,NULL,NULL,NULL,NULL,NULL,NULL,NULL,NULL,120,NULL,NULL,NULL,NULL,4.8,Yes,NULL,Yes,NULL,NULL,NULL,NULL,NULL,NULL,320710,3306,3306,NULL,NULL,NULL,NULL,NULL,NULL,NULL,NULL,NULL,NULL,NULL,NULL,NULL,NULL,NULL,NULL,NULL,NULL,3,+,In/Out,Normal,NULL,12,214121,NULL,CAP CB 2,Closed,NULL,Closed,NULL,NULL,NULL,0,1,13,260765,NULL,1,NULL,NULL,NULL,NULL,NULL,260767,NULL,NULL,NULL,NULL,
2600,YORBA LINDA CAP 2,No,Yes,Yes,600,Variable,4.8,0,4.8,0,0,1,600,12.36,11.64,1,0,Off,Off,NULL,NULL,NULL,NULL,NULL,NULL,NULL,NULL,120,NULL,NULL,NULL,NULL,4.8,Yes,NULL,Yes,NULL,NULL,NULL,NULL,NULL,NULL,322639,3308,3308,NULL,NULL,NULL,NULL,NULL,NULL,NULL,NULL,NULL,NULL,NULL,NULL,NULL,NULL,NULL,NULL,NULL,NULL,3,+,In/Out,Normal,NULL,12,130441,NULL,CAP 2 CB,Closed,NULL,Closed,NULL,NULL,NULL,0,1,13,168000,NULL,1,NULL,NULL,NULL,NULL,NULL,168002,NULL,NULL,NULL,NULL,
2601,YORBA LINDA CAP 3,No,Yes,Yes,601,Variable,4.8,0,4.8,0,0,1,601,12.36,11.64,1,0,Off,Off,NULL,NULL,NULL,NULL,NULL,NULL,NULL,NULL,120,NULL,NULL,NULL,NULL,4.8,Yes,NULL,Yes,NULL,NULL,NULL,NULL,NULL,NULL,322640,3308,3308,NULL,NULL,NULL,NULL,NULL,NULL,NULL,NULL,NULL,NULL,NULL,NULL,NULL,NULL,NULL,NULL,NULL,NULL,3,+,In/Out,Normal,NULL,12,130444,NULL,CAP 3 CB,Closed,NULL,Closed,NULL,NULL,NULL,0,1,13,168004,NULL,1,NULL,NULL,NULL,NULL,NULL,168006,NULL,NULL,NULL,NULL,
2602,YORBA LINDA CAP 4,No,Yes,Yes,602,Variable,4.8,0,4.8,0,0,1,602,12.36,11.64,1,0,Off,Off,NULL,NULL,NULL,NULL,NULL,NULL,NULL,NULL,120,NULL,NULL,NULL,NULL,4.8,Yes,NULL,Yes,NULL,NULL,NULL,NULL,NULL,NULL,322641,3308,3308,NULL,NULL,NULL,NULL,NULL,NULL,NULL,NULL,NULL,NULL,NULL,NULL,NULL,NULL,NULL,NULL,NULL,NULL,3,+,In/Out,Normal,NULL,12,117852,NULL,CAP 4 CB,Closed,NULL,Closed,NULL,NULL,NULL,0,1,13,172181,NULL,1,NULL,NULL,NULL,NULL,NULL,172183,NULL,NULL,NULL,NULL,
2608,FOGARTY CAP 1,No,Yes,Yes,600,Variable,4.8,0,4.8,0,0,1,600,12.36,11.64,1,0,Off,Off,NULL,NULL,NULL,NULL,NULL,NULL,NULL,NULL,120,NULL,NULL,NULL,NULL,4.8,Yes,NULL,Yes,NULL,NULL,NULL,NULL,NULL,NULL,320756,3317,3317,NULL,NULL,NULL,NULL,NULL,NULL,NULL,NULL,NULL,NULL,NULL,NULL,NULL,NULL,NULL,NULL,NULL,NULL,10,+,Out,Block,NULL,12,217207,NULL,CAP CB 1,Closed,NULL,Closed,NULL,NULL,NULL,0,1,13,267709,NULL,1,NULL,NULL,NULL,NULL,NULL,267711,NULL,NULL,NULL,NULL,
2609,FOGARTY CAP 4,No,Yes,Yes,601,Variable,4.8,0,4.8,0,0,1,601,12.36,11.64,1,0,Off,Off,NULL,NULL,NULL,NULL,NULL,NULL,NULL,NULL,120,NULL,NULL,NULL,NULL,4.8,Yes,NULL,Yes,NULL,NULL,NULL,NULL,NULL,NULL,320757,3317,3317,NULL,NULL,NULL,NULL,NULL,NULL,NULL,NULL,NULL,NULL,NULL,NULL,NULL,NULL,NULL,NULL,NULL,NULL,10,+,Out,Block,NULL,12,217211,NULL,CAP CB 4,Closed,NULL,Closed,NULL,NULL,NULL,0,1,13,267713,NULL,1,NULL,NULL,NULL,NULL,NULL,267715,NULL,NULL,NULL,NULL,
2622,SUN CITY CAP 1,No,Yes,Yes,600,Variable,4.8,0,4.8,0,0,1,600,12.36,11.64,1,0,Off,Off,NULL,NULL,NULL,NULL,NULL,NULL,NULL,NULL,120,NULL,NULL,NULL,NULL,4.8,Yes,NULL,Yes,NULL,NULL,NULL,NULL,NULL,NULL,320646,3316,3316,NULL,NULL,NULL,NULL,NULL,NULL,NULL,NULL,NULL,NULL,NULL,NULL,NULL,NULL,NULL,NULL,NULL,NULL,3,+,In/Out,Normal,NULL,12,206173,NULL,CAP CB 1,Closed,NULL,Closed,NULL,NULL,NULL,0,1,13,39393,NULL,1,NULL,NULL,NULL,NULL,NULL,39395,NULL,NULL,NULL,NULL,
2623,SUN CITY CAP 4,No,Yes,Yes,601,Variable,4.8,0,4.8,0,0,1,601,12.36,11.64,1,0,Off,Off,NULL,NULL,NULL,NULL,NULL,NULL,NULL,NULL,120,NULL,NULL,NULL,NULL,4.8,Yes,NULL,Yes,NULL,NULL,NULL,NULL,NULL,NULL,320647,3316,3316,NULL,NULL,NULL,NULL,NULL,NULL,NULL,NULL,NULL,NULL,NULL,NULL,NULL,NULL,NULL,NULL,NULL,NULL,3,+,In/Out,Normal,NULL,12,215547,NULL,CAP CB 1,Closed,NULL,Closed,NULL,NULL,NULL,0,1,13,263699,NULL,1,NULL,NULL,NULL,NULL,NULL,263701,NULL,NULL,NULL,NULL,
2631,STADLER CAP 1,No,Yes,Yes,600,Variable,4.8,0,4.8,0,0,1,600,12.36,11.64,1,0,Off,Off,NULL,NULL,NULL,NULL,NULL,NULL,NULL,NULL,120,NULL,NULL,NULL,NULL,4.8,Yes,NULL,Yes,NULL,NULL,NULL,NULL,NULL,NULL,320859,3493,3493,NULL,NULL,NULL,NULL,NULL,NULL,NULL,NULL,NULL,NULL,NULL,NULL,NULL,NULL,NULL,NULL,NULL,NULL,3,+,In/Out,Normal,NULL,12,199452,NULL,CAP CB 1,Closed,NULL,Closed,NULL,NULL,NULL,0,1,13,245817,NULL,1,NULL,NULL,NULL,NULL,NULL,245819,NULL,NULL,NULL,NULL,
2632,STADLER CAP 2,No,Yes,Yes,601,Variable,4.8,0,4.8,0,0,1,601,12.36,11.64,1,0,Off,Off,NULL,NULL,NULL,NULL,NULL,NULL,NULL,NULL,120,NULL,NULL,NULL,NULL,4.8,Yes,NULL,Yes,NULL,NULL,NULL,NULL,NULL,NULL,320860,3493,3493,NULL,NULL,NULL,NULL,NULL,NULL,NULL,NULL,NULL,NULL,NULL,NULL,NULL,NULL,NULL,NULL,NULL,NULL,3,+,In/Out,Normal,NULL,12,199455,NULL,CAP CB 1,Closed,NULL,Closed,NULL,NULL,NULL,0,1,13,245824,NULL,1,NULL,NULL,NULL,NULL,NULL,245826,NULL,NULL,NULL,NULL,
2633,STADLER CAP 3,No,Yes,Yes,602,Variable,4.8,0,4.8,0,0,1,602,12.36,11.64,1,0,Off,Off,NULL,NULL,NULL,NULL,NULL,NULL,NULL,NULL,120,NULL,NULL,NULL,NULL,4.8,Yes,NULL,Yes,NULL,NULL,NULL,NULL,NULL,NULL,320861,3493,3493,NULL,NULL,NULL,NULL,NULL,NULL,NULL,NULL,NULL,NULL,NULL,NULL,NULL,NULL,NULL,NULL,NULL,NULL,3,+,In/Out,Normal,NULL,12,199458,NULL,CAP CB 1,Closed,NULL,Closed,NULL,NULL,NULL,0,1,13,245831,NULL,1,NULL,NULL,NULL,NULL,NULL,245833,NULL,NULL,NULL,NULL,
2634,STADLER CAP 4,No,Yes,Yes,603,Variable,4.8,0,4.8,0,0,1,603,12.36,11.64,1,0,Off,Off,NULL,NULL,NULL,NULL,NULL,NULL,NULL,NULL,120,NULL,NULL,NULL,NULL,4.8,Yes,NULL,Yes,NULL,NULL,NULL,NULL,NULL,NULL,320862,3493,3493,NULL,NULL,NULL,NULL,NULL,NULL,NULL,NULL,NULL,NULL,NULL,NULL,NULL,NULL,NULL,NULL,NULL,NULL,3,+,In/Out,Normal,NULL,12,181607,NULL,CAP CB 1,Closed,NULL,Closed,NULL,NULL,NULL,0,1,13,206812,NULL,1,NULL,NULL,NULL,NULL,NULL,206814,NULL,NULL,NULL,NULL,
2658,MORAGA CAP 2A_PSS,No,Yes,No,112,Variable,4.5,0,4.5,0,0,1,112,33.99,32.01,1,0,Off,Off,NULL,NULL,NULL,NULL,NULL,NULL,NULL,NULL,120,NULL,NULL,NULL,0,4.5,Yes,NULL,Yes,NULL,NULL,NULL,NULL,NULL,NULL,NULL,3500,3500,NULL,NULL,NULL,NULL,NULL,NULL,NULL,NULL,NULL,NULL,NULL,NULL,NULL,NULL,NULL,NULL,NULL,NULL,10,+,Out,Block,NULL,22,218452,NULL,MORAGA CAP 2A CB,Closed,NULL,Closed,NULL,NULL,NULL,0,1,1,271324,NULL,1,NULL,NULL,NULL,NULL,NULL,271475,NULL,NULL,NULL,NULL,
2659,MORAGA CAP 2B_PSS,No,Yes,No,113,Variable,4.5,0,4.5,0,0,1,113,33.99,32.01,1,0,Off,Off,NULL,NULL,NULL,NULL,NULL,NULL,NULL,NULL,120,NULL,NULL,NULL,0,4.5,Yes,NULL,Yes,NULL,NULL,NULL,NULL,NULL,NULL,NULL,3500,3500,NULL,NULL,NULL,NULL,NULL,NULL,NULL,NULL,NULL,NULL,NULL,NULL,NULL,NULL,NULL,NULL,NULL,NULL,10,+,Out,Block,NULL,22,5755,NULL,MORAGA CAP 2B CB,Closed,NULL,Closed,NULL,NULL,NULL,0,1,1,18022,NULL,1,NULL,NULL,NULL,NULL,NULL,18024,NULL,NULL,NULL,NULL,
3001,BASSETT CAP 3,No,Yes,Yes,601,Variable,4.8,0,4.8,0,0,1,601,12.6,11.64,1,0,Off,Off,NULL,NULL,NULL,NULL,NULL,NULL,NULL,NULL,120,NULL,NULL,NULL,NULL,4.8,Yes,NULL,Yes,NULL,NULL,NULL,NULL,NULL,NULL,323235,3402,3402,NULL,NULL,NULL,NULL,NULL,NULL,NULL,NULL,NULL,NULL,NULL,NULL,NULL,NULL,NULL,NULL,NULL,NULL,NULL,NULL,NULL,NULL,NULL,NULL,NULL,NULL,CAP CB 3,Closed,NULL,Closed,NULL,NULL,NULL,0,1,2,264587,NULL,1,NULL,NULL,NULL,NULL,NULL,264589,NULL,NULL,NULL,NULL,
3002,BASSETT CAP 1,No,Yes,Yes,602,Variable,4.8,0,4.8,0,0,1,602,12.6,11.64,1,0,Off,Off,NULL,NULL,NULL,NULL,NULL,NULL,NULL,NULL,120,NULL,NULL,NULL,NULL,4.8,Yes,NULL,Yes,NULL,NULL,NULL,NULL,NULL,NULL,323236,3402,3402,NULL,NULL,NULL,NULL,NULL,NULL,NULL,NULL,NULL,NULL,NULL,NULL,NULL,NULL,NULL,NULL,NULL,NULL,3,+,In/Out,Normal,NULL,13,189127,NULL,CAP CB 1,Closed,NULL,Closed,NULL,NULL,NULL,0,1,3,251172,NULL,1,NULL,NULL,NULL,NULL,NULL,251174,NULL,NULL,NULL,NULL,
3003,BASSETT CAP 2,No,Yes,Yes,603,Variable,4.5,0,4.5,0,0,1,603,12.6,11.64,1,0,Off,Off,NULL,NULL,NULL,NULL,NULL,NULL,NULL,NULL,120,NULL,NULL,NULL,NULL,4.5,Yes,NULL,Yes,NULL,NULL,NULL,NULL,NULL,NULL,323237,3402,3402,NULL,NULL,NULL,NULL,NULL,NULL,NULL,NULL,NULL,NULL,NULL,NULL,NULL,NULL,NULL,NULL,NULL,NULL,3,+,In/Out,Normal,NULL,13,189131,NULL,CAP CB 2,Closed,NULL,Closed,NULL,NULL,NULL,0,1,63,251180,NULL,1,NULL,NULL,NULL,NULL,NULL,251182,NULL,NULL,NULL,NULL,
3070,PROCTOR CAP 1,No,Yes,Yes,601,Variable,6,0,6,0,0,1,601,12.6,11.64,1,0,Off,Off,NULL,NULL,NULL,NULL,NULL,NULL,NULL,NULL,120,NULL,NULL,NULL,NULL,6,Yes,NULL,Yes,NULL,NULL,NULL,NULL,NULL,NULL,323581,3422,3422,NULL,NULL,NULL,NULL,NULL,NULL,NULL,NULL,NULL,NULL,NULL,NULL,NULL,NULL,NULL,NULL,NULL,NULL,3,+,In,Normal,NULL,8,206729,NULL,CAP CB 1,Closed,NULL,Closed,NULL,NULL,NULL,0,1,43,40791,NULL,1,NULL,NULL,NULL,NULL,NULL,40793,NULL,NULL,NULL,NULL,
3090,NELSON CAP 1,No,Yes,Yes,601,Variable,4.8,0,4.8,0,0,1,601,12.6,11.64,1,0,Off,Off,NULL,NULL,NULL,NULL,NULL,NULL,NULL,NULL,120,NULL,NULL,NULL,NULL,4.8,Yes,NULL,Yes,NULL,NULL,NULL,NULL,NULL,NULL,321183,3439,3439,NULL,NULL,NULL,NULL,NULL,NULL,NULL,NULL,NULL,NULL,NULL,NULL,NULL,NULL,NULL,NULL,NULL,NULL,3,+,In/Out,Normal,NULL,7,205882,NULL,CAP CB 1,Open,NULL,Open,NULL,NULL,NULL,0,1,34,38792,NULL,1,NULL,NULL,NULL,NULL,NULL,38794,NULL,NULL,NULL,NULL,
3091,NELSON CAP 3,No,Yes,Yes,603,Variable,4.95,0,4.95,0,0,1,603,12.6,11.64,1,0,Off,Off,NULL,NULL,NULL,NULL,NULL,NULL,NULL,NULL,120,NULL,NULL,NULL,NULL,4.95,Yes,NULL,Yes,NULL,NULL,NULL,NULL,NULL,NULL,321184,3439,3439,NULL,NULL,NULL,NULL,NULL,NULL,NULL,NULL,NULL,NULL,NULL,NULL,NULL,NULL,NULL,NULL,NULL,NULL,3,+,In/Out,Normal,NULL,9,205885,NULL,CAP CB 3,Open,NULL,Open,NULL,NULL,NULL,0,1,72,38796,NULL,1,NULL,NULL,NULL,NULL,NULL,38798,NULL,NULL,NULL,NULL,
3094,HEMET CAP 3,No,No,Yes,132,Fixed,3.15,0,3.15,0,0,1,999,12.6,11.64,1,0,Off,Off,NULL,NULL,NULL,NULL,NULL,NULL,NULL,NULL,120,NULL,NULL,NULL,NULL,3.15,Yes,NULL,No,NULL,NULL,NULL,NULL,NULL,NULL,321354,3441,3441,NULL,NULL,NULL,NULL,NULL,NULL,NULL,NULL,NULL,NULL,NULL,NULL,NULL,NULL,NULL,NULL,NULL,NULL,NULL,NULL,NULL,NULL,NULL,NULL,NULL,NULL,NULL,NULL,NULL,NULL,NULL,NULL,NULL,NULL,NULL,NULL,NULL,NULL,NULL,NULL,NULL,NULL,NULL,NULL,NULL,NULL,NULL,NULL,NULL,
3110,ATWOOD CAP 1,No,Yes,Yes,601,Variable,5.1,0,5.1,0,0,1,601,12.6,11.64,1,0,Off,Off,NULL,NULL,NULL,NULL,NULL,NULL,NULL,NULL,120,NULL,NULL,NULL,NULL,5.1,Yes,NULL,Yes,NULL,NULL,NULL,NULL,NULL,NULL,320467,3463,3463,NULL,NULL,NULL,NULL,NULL,NULL,NULL,NULL,NULL,NULL,NULL,NULL,NULL,NULL,NULL,NULL,NULL,NULL,3,+,In/Out,Normal,NULL,90,126963,NULL,NO.1 CAP SWITCH,Open,NULL,Open,NULL,NULL,NULL,0,1,60,195565,NULL,1,NULL,NULL,NULL,NULL,NULL,195567,NULL,NULL,NULL,NULL,
3118,CAJALCO CAP 3,No,Yes,Yes,601,Variable,4.8,0,4.8,0,0,1,601,12.6,11.64,1,0,Off,Off,NULL,NULL,NULL,NULL,NULL,NULL,NULL,NULL,120,NULL,NULL,NULL,NULL,4.8,Yes,NULL,Yes,NULL,NULL,NULL,NULL,NULL,NULL,320542,3465,3465,NULL,NULL,NULL,NULL,NULL,NULL,NULL,NULL,NULL,NULL,NULL,NULL,NULL,NULL,NULL,NULL,NULL,NULL,3,+,In/Out,Normal,NULL,34,210737,NULL,NO.3 CAP SWITCH,Open,NULL,Open,NULL,NULL,NULL,0,1,103,253383,NULL,1,NULL,NULL,NULL,NULL,NULL,253385,NULL,NULL,NULL,NULL,
3119,CAJALCO CAP 1,No,Yes,Yes,603,Variable,6,0,6,0,0,1,603,12.6,11.64,1,0,Off,Off,NULL,NULL,NULL,NULL,NULL,NULL,NULL,NULL,120,NULL,NULL,NULL,NULL,6,Yes,NULL,Yes,NULL,NULL,NULL,NULL,NULL,NULL,320543,3465,3465,NULL,NULL,NULL,NULL,NULL,NULL,NULL,NULL,NULL,NULL,NULL,NULL,NULL,NULL,NULL,NULL,NULL,NULL,3,+,In/Out,Normal,NULL,55,210733,NULL,NO.1 CAP SWITCH,Open,NULL,Open,NULL,NULL,NULL,0,1,104,253379,NULL,1,NULL,NULL,NULL,NULL,NULL,253381,NULL,NULL,NULL,NULL,
3133,LA VETA CAP 1,No,Yes,Yes,611,Variable,6,0,6,0,0,1,999,12.6,11.64,1,0,Off,Off,NULL,NULL,NULL,NULL,NULL,NULL,NULL,NULL,120,NULL,NULL,NULL,NULL,6,Yes,NULL,Yes,NULL,NULL,NULL,NULL,NULL,NULL,322270,3475,3475,NULL,NULL,NULL,NULL,NULL,NULL,NULL,NULL,NULL,NULL,NULL,NULL,NULL,NULL,NULL,NULL,NULL,NULL,3,+,In/Out,Normal,NULL,12,126789,NULL,NO.1 CAP SWITCH,Closed,NULL,Closed,NULL,NULL,NULL,0,1,106,195217,NULL,1,NULL,NULL,NULL,NULL,NULL,195219,NULL,NULL,NULL,NULL,
3134,LA VETA CAP 2,No,Yes,Yes,621,Variable,6,0,6,0,0,1,500,12.6,11.64,1,0,Off,Off,NULL,NULL,NULL,NULL,NULL,NULL,NULL,NULL,120,NULL,NULL,NULL,NULL,6,Yes,NULL,Yes,NULL,NULL,NULL,NULL,NULL,NULL,322271,3475,3475,NULL,NULL,NULL,NULL,NULL,NULL,NULL,NULL,NULL,NULL,NULL,NULL,NULL,NULL,NULL,NULL,NULL,NULL,3,+,In/Out,Normal,NULL,56,126792,NULL,NO.2 CAP SWITCH,Closed,NULL,Closed,NULL,NULL,NULL,0,1,107,195225,NULL,1,NULL,NULL,NULL,NULL,NULL,195227,NULL,NULL,NULL,NULL,
3135,ORANGE CAP 1,No,Yes,Yes,604,Variable,4.8,0,4.8,0,0,1,600,12.6,11.64,1,0,Off,Off,NULL,NULL,NULL,NULL,NULL,NULL,NULL,NULL,120,NULL,NULL,NULL,NULL,4.8,Yes,NULL,Yes,NULL,NULL,NULL,NULL,NULL,NULL,323183,3479,3479,NULL,NULL,NULL,NULL,NULL,NULL,NULL,NULL,NULL,NULL,NULL,NULL,NULL,NULL,NULL,NULL,NULL,NULL,3,+,In/Out,Normal,NULL,13,127658,NULL,NO.1 CAPS CB,Closed,NULL,Closed,NULL,NULL,NULL,0,1,8,197023,NULL,1,NULL,NULL,NULL,NULL,NULL,197027,NULL,NULL,NULL,NULL,
3136,ORANGE CAP 2,No,Yes,Yes,605,Variable,4.8,0,4.8,0,0,1,601,12.6,11.64,1,0,Off,Off,NULL,NULL,NULL,NULL,NULL,NULL,NULL,NULL,120,NULL,NULL,NULL,NULL,4.8,Yes,NULL,Yes,NULL,NULL,NULL,NULL,NULL,NULL,323184,3479,3479,NULL,NULL,NULL,NULL,NULL,NULL,NULL,NULL,NULL,NULL,NULL,NULL,NULL,NULL,NULL,NULL,NULL,NULL,3,+,In/Out,Normal,NULL,13,127661,NULL,NO.2 CAPS CB,Closed,NULL,Closed,NULL,NULL,NULL,0,1,8,197033,NULL,1,NULL,NULL,NULL,NULL,NULL,197037,NULL,NULL,NULL,NULL,
3141,IVYGLEN CAP 1,No,Yes,Yes,601,Variable,4.8,0,4.8,0,0,1,601,12.6,11.64,1,0,Off,Off,NULL,NULL,NULL,NULL,NULL,NULL,NULL,NULL,120,NULL,NULL,NULL,NULL,4.8,Yes,NULL,Yes,NULL,NULL,NULL,NULL,NULL,NULL,320583,3474,3474,NULL,NULL,NULL,NULL,NULL,NULL,NULL,NULL,NULL,NULL,NULL,NULL,NULL,NULL,NULL,NULL,NULL,NULL,3,+,In/Out,Normal,NULL,23,207970,NULL,CAP 1 CB,Closed,NULL,Closed,NULL,NULL,NULL,0,1,114,43682,NULL,1,NULL,NULL,NULL,NULL,NULL,43684,NULL,NULL,NULL,NULL,
3142,IVYGLEN CAP 2,No,Yes,Yes,603,Variable,4.8,0,4.8,0,0,1,603,12.6,11.64,1,0,Off,Off,NULL,NULL,NULL,NULL,NULL,NULL,NULL,NULL,120,NULL,NULL,NULL,NULL,4.8,Yes,NULL,Yes,NULL,NULL,NULL,NULL,NULL,NULL,320584,3474,3474,NULL,NULL,NULL,NULL,NULL,NULL,NULL,NULL,NULL,NULL,NULL,NULL,NULL,NULL,NULL,NULL,NULL,NULL,3,+,In/Out,Normal,NULL,12,207973,NULL,CAP 2 CB,Closed,NULL,Closed,NULL,NULL,NULL,0,1,115,43686,NULL,1,NULL,NULL,NULL,NULL,NULL,43688,NULL,NULL,NULL,NULL,
3143,PLACENTIA CAP 1,No,Yes,Yes,600,Variable,3,0,3,0,0,1,600,12.6,11.64,1,0,Off,Off,NULL,NULL,NULL,NULL,NULL,NULL,NULL,NULL,120,NULL,NULL,NULL,NULL,3,Yes,NULL,Yes,NULL,NULL,NULL,NULL,NULL,NULL,321968,3480,3480,NULL,NULL,NULL,NULL,NULL,NULL,NULL,NULL,NULL,NULL,NULL,NULL,NULL,NULL,NULL,NULL,NULL,NULL,3,+,In/Out,Normal,NULL,23,127330,NULL,CAP 1 CB,Closed,NULL,Closed,NULL,NULL,NULL,0,1,111,196347,NULL,1,NULL,NULL,NULL,NULL,NULL,196349,NULL,NULL,NULL,NULL,
3144,PLACENTIA CAP 2,No,Yes,Yes,602,Variable,6,0,6,0,0,1,602,12.6,11.64,1,0,Off,Off,NULL,NULL,NULL,NULL,NULL,NULL,NULL,NULL,120,NULL,NULL,NULL,NULL,6,Yes,NULL,Yes,NULL,NULL,NULL,NULL,NULL,NULL,321969,3480,3480,NULL,NULL,NULL,NULL,NULL,NULL,NULL,NULL,NULL,NULL,NULL,NULL,NULL,NULL,NULL,NULL,NULL,NULL,3,+,In/Out,Normal,NULL,45,127333,NULL,CAP 2 CB,Closed,NULL,Closed,NULL,NULL,NULL,0,1,112,196355,NULL,1,NULL,NULL,NULL,NULL,NULL,196357,NULL,NULL,NULL,NULL,
3151,WASHINGTON CAP 1,No,Yes,Yes,600,Variable,6,0,6,0,0,1,600,12.6,11.64,1,0,Off,Off,NULL,NULL,NULL,NULL,NULL,NULL,NULL,NULL,120,NULL,NULL,NULL,NULL,6,Yes,NULL,Yes,NULL,NULL,NULL,NULL,NULL,NULL,324243,3487,3487,NULL,NULL,NULL,NULL,NULL,NULL,NULL,NULL,NULL,NULL,NULL,NULL,NULL,NULL,NULL,NULL,NULL,NULL,10,+,Out,Block,NULL,56,128219,NULL,NO.1 CAP SWITCH,Open,NULL,Open,NULL,NULL,NULL,0,1,111,198399,NULL,1,NULL,NULL,NULL,NULL,NULL,198401,NULL,NULL,NULL,NULL,
3165,MORAGA CAP 3,No,Yes,Yes,609,Variable,4.8,0,4.8,0,0,1,609,12.6,11.64,1,0,Off,Off,NULL,NULL,NULL,NULL,NULL,NULL,NULL,NULL,120,NULL,NULL,NULL,NULL,4.8,Yes,NULL,Yes,NULL,NULL,NULL,NULL,NULL,NULL,321355,3497,3497,NULL,NULL,NULL,NULL,NULL,NULL,NULL,NULL,NULL,NULL,NULL,NULL,NULL,NULL,NULL,NULL,NULL,NULL,3,+,In/Out,Block,NULL,45,196792,NULL,NO.3 CAPS SW,Open,NULL,Open,NULL,NULL,NULL,0,1,8,271312,NULL,1,NULL,NULL,NULL,NULL,NULL,271314,NULL,NULL,NULL,NULL,
3166,MORAGA CAP 1,No,Yes,Yes,608,Variable,4.8,0,4.8,0,0,1,608,12.6,11.64,1,0,Off,Off,NULL,NULL,NULL,NULL,NULL,NULL,NULL,NULL,120,NULL,NULL,NULL,NULL,4.8,Yes,NULL,Yes,NULL,NULL,NULL,NULL,NULL,NULL,321356,3497,3497,NULL,NULL,NULL,NULL,NULL,NULL,NULL,NULL,NULL,NULL,NULL,NULL,NULL,NULL,NULL,NULL,NULL,NULL,3,+,In/Out,Block,NULL,76,183923,NULL,NO.1 CAPS SW,Open,NULL,Open,NULL,NULL,NULL,0,1,8,271308,NULL,1,NULL,NULL,NULL,NULL,NULL,271310,NULL,NULL,NULL,NULL,
3167,MORAGA CAP 6,No,Yes,Yes,611,Variable,4.8,0,4.8,0,0,1,611,12.6,11.64,1,0,Off,Off,NULL,NULL,NULL,NULL,NULL,NULL,NULL,NULL,120,NULL,NULL,NULL,NULL,4.8,Yes,NULL,Yes,NULL,NULL,NULL,NULL,NULL,NULL,321357,3497,3497,NULL,NULL,NULL,NULL,NULL,NULL,NULL,NULL,NULL,NULL,NULL,NULL,NULL,NULL,NULL,NULL,NULL,NULL,10,+,Out,Block,NULL,34,188207,NULL,NO.6 CAPS SW,Open,NULL,Open,NULL,NULL,NULL,0,1,8,271320,NULL,1,NULL,NULL,NULL,NULL,NULL,271322,NULL,NULL,NULL,NULL,
3168,MORAGA CAP 5,No,Yes,Yes,610,Variable,4.8,0,4.8,0,0,1,610,12.6,11.64,1,0,Off,Off,NULL,NULL,NULL,NULL,NULL,NULL,NULL,NULL,120,NULL,NULL,NULL,NULL,4.8,Yes,NULL,Yes,NULL,NULL,NULL,NULL,NULL,NULL,321358,3497,3497,NULL,NULL,NULL,NULL,NULL,NULL,NULL,NULL,NULL,NULL,NULL,NULL,NULL,NULL,NULL,NULL,NULL,NULL,10,+,Out,Block,NULL,54,185546,NULL,NO.5 CAPS SW,Open,NULL,Open,NULL,NULL,NULL,0,1,8,271316,NULL,1,NULL,NULL,NULL,NULL,NULL,271318,NULL,NULL,NULL,NULL,
3281,SAUGUS CAP 4,No,Yes,Yes,611,Variable,4.8,0,4.8,0,0,1,611,16.48,15.52,1,0,Off,Off,NULL,NULL,NULL,NULL,NULL,NULL,NULL,NULL,120,NULL,NULL,NULL,NULL,4.8,Yes,NULL,Yes,NULL,NULL,NULL,NULL,NULL,NULL,330761,3559,3559,NULL,NULL,NULL,NULL,NULL,NULL,NULL,NULL,NULL,NULL,NULL,NULL,NULL,NULL,NULL,NULL,NULL,NULL,3,+,In/Out,Normal,NULL,56,68190,NULL,NO.4 CAPS SW,Closed,NULL,Closed,NULL,NULL,NULL,0,1,8,67415,NULL,1,NULL,NULL,NULL,NULL,NULL,67419,NULL,NULL,NULL,NULL,
3282,SAUGUS CAP 4A,No,Yes,Yes,610,Variable,4.8,0,4.8,0,0,1,610,16.48,15.52,1,0,Off,Off,NULL,NULL,NULL,NULL,NULL,NULL,NULL,NULL,120,NULL,NULL,NULL,NULL,4.8,Yes,NULL,Yes,NULL,NULL,NULL,NULL,NULL,NULL,330762,3559,3559,NULL,NULL,NULL,NULL,NULL,NULL,NULL,NULL,NULL,NULL,NULL,NULL,NULL,NULL,NULL,NULL,NULL,NULL,3,+,In/Out,Normal,NULL,56,68193,NULL,NO.4A CAPS SW,Closed,NULL,Closed,NULL,NULL,NULL,0,1,8,67413,NULL,1,NULL,NULL,NULL,NULL,NULL,67420,NULL,NULL,NULL,NULL,
3283,SAUGUS CAP 2,No,Yes,Yes,621,Variable,4.8,0,4.8,0,0,1,621,16.48,15.52,1,0,Off,Off,NULL,NULL,NULL,NULL,NULL,NULL,NULL,NULL,120,NULL,NULL,NULL,NULL,4.8,Yes,NULL,Yes,NULL,NULL,NULL,NULL,NULL,NULL,330763,3559,3559,NULL,NULL,NULL,NULL,NULL,NULL,NULL,NULL,NULL,NULL,NULL,NULL,NULL,NULL,NULL,NULL,NULL,NULL,3,+,In/Out,Normal,NULL,56,64469,NULL,NO.2 CAPS SW,Closed,NULL,Closed,NULL,NULL,NULL,0,1,8,58554,NULL,1,NULL,NULL,NULL,NULL,NULL,58582,NULL,NULL,NULL,NULL,
3284,SAUGUS CAP 2A,No,Yes,Yes,620,Variable,4.8,0,4.8,0,0,1,620,16.48,15.52,1,0,Off,Off,NULL,NULL,NULL,NULL,NULL,NULL,NULL,NULL,120,NULL,NULL,NULL,NULL,4.8,Yes,NULL,Yes,NULL,NULL,NULL,NULL,NULL,NULL,330764,3559,3559,NULL,NULL,NULL,NULL,NULL,NULL,NULL,NULL,NULL,NULL,NULL,NULL,NULL,NULL,NULL,NULL,NULL,NULL,3,+,In/Out,Normal,NULL,121,64378,NULL,NO.2A CAPS SW,Closed,NULL,Closed,NULL,NULL,NULL,0,1,8,67441,NULL,1,NULL,NULL,NULL,NULL,NULL,67439,NULL,NULL,NULL,NULL,
