ShuntNumber,ShuntName,PnaShunt,PssShunt,NspShunt,SectionNumber,Type,SusceptanceStepSize,SusceptanceAtMinBankOutput,SusceptanceAtMaxBankOutput,ConductanceAtMinBankOutput,ConductanceAtMaxBankOutput,LocalControlTuningFactor,ControlSectionNumber,HighControlLimit,LowControlLimit,MinShiftWeightFactor,MinShiftTarget,LocalControlStatus,OptimizationStatus,MwInversion,MwMeasOverrideStatus,MwReplacementValue,CmeMwUsage,MvInversion,MvMeasOverrideStatus,MvReplacementValue,CmeMvUsage,ControlDelay,FlaShuntZeroSeqSusc,FlaShuntZeroSeqCond,AssetLabel,DefaultMwSchedule,DefaultMvSchedule,ScheduleDataFlag,ExModelRetentionFlag,DmsTransformFlag,CommentText1,CommentText2,CommentText3,ShuntResponseLeadTime,ShuntResponseRateOfIncrease,ShuntResponseRateOfDecrease,ConnectionStatusIndicatorRef,BusNumberRef,ControlBusNumberRef,MwTelemetryRef,MvTelemetryRef,MwStandardDeviation,MwInversionFlag,MwCmeUsage,MwOverrideStatus,Mw_ReplacementValue,SetOrder4,MwAnalogPointRef,MwCtBreakerRef,MvStandardDeviation,MvInversionFlag,MvCmeUsage,MvOverrideStatus,Mv_ReplacementValue,SetOrder5,MvAnalogPointRef,MvCtBreakerRef,AmpStandardDeviation,AmpInversionFlag,AmpCmeUsage,AmpOverrideStatus,Amp_ReplacementValue,SetOrder7,AmpAnalogPointRef,AmpCtBreakerRef,ShuntSwitchName,NormalControlSwitchState,NormalIsolatorSwitchState,DefaultControlSwitchState,DefaultIsolatorSwitchState,IsolatorScadaOpenState,IsolatorScadaCloseState,CntlBrkrScadaOpenState,CntlBrkrScadaCloseState,SetOrder8,ControlSwitchStatusTelemetryRef,IsolatorSwitchStatusTelemetryRef,ControlSwitchStateTransition,IsolatorSwitchStateTransition,HighMVArLimitRef,LowMVArLimitRef,LeadingMVArReservesRef,LaggingMVArReservesRef,ControlModeTelemetryRef,SinglePhTransCurRef,SinglePhSubtransCurRef,ThreePhTransCurRef,ThreePhSubtransCurRef,
73,VILLA PARK NO.1AB CAP,Yes,Yes,No,21,Variable,29.7,0,59.4,0,0,1,999,72.45,66.93,1,0,Off,Off,NULL,NULL,NULL,NULL,NULL,NULL,NULL,NULL,120,NULL,NULL,NULL,0,28.8,Yes,NULL,Yes,NULL,NULL,ADMS D,NULL,NULL,NULL,NULL,86,86,NULL,NULL,NULL,NULL,NULL,NULL,NULL,NULL,NULL,NULL,NULL,NULL,NULL,NULL,NULL,NULL,NULL,NULL,NULL,NULL,NULL,NULL,NULL,NULL,NULL,NULL,NO.1A 66KV CAPACITOR CB!NO.1B 66KV CAPACITOR SW,Open!Open,NULL!NULL,Open!Open,NULL!NULL,NULL!NULL,NULL!NULL,0!0,1!1,8!9,197695!197696,NULL!NULL,1!1,NULL!NULL,NULL,NULL,NULL,NULL,87148,NULL,NULL,NULL,NULL,
74,VILLA PARK NO.2AB CAP,Yes,Yes,No,71,Variable,28.8,0,57.6,0,0,1,50,72.45,66.93,1,0,Off,Off,NULL,NULL,NULL,NULL,NULL,NULL,NULL,NULL,120,NULL,NULL,NULL,0,57.6,Yes,NULL,Yes,NULL,NULL,ADMS D DeRated To A. Step Size Change 12.28.21,NULL,NULL,NULL,NULL,86,86,NULL,NULL,NULL,NULL,NULL,NULL,NULL,NULL,NULL,NULL,NULL,NULL,NULL,NULL,NULL,NULL,NULL,NULL,NULL,NULL,NULL,NULL,NULL,NULL,NULL,NULL,NO.2B 66KV CAPACITOR SW,Open,NULL,Open,NULL,NULL,NULL,0,1,9,197708,NULL,1,NULL,NULL,NULL,NULL,NULL,87150,NULL,NULL,NULL,NULL,
75,VILLA PARK NO.7AB CAP,Yes,Yes,No,72,Variable,28.8,0,57.6,0,0,1,72,72.45,66.93,1,0,Off,Off,NULL,NULL,NULL,NULL,NULL,NULL,NULL,NULL,120,NULL,NULL,NULL,0,57.6,Yes,NULL,Yes,NULL,NULL,ADMS D,NULL,NULL,NULL,NULL,86,86,NULL,NULL,NULL,NULL,NULL,NULL,NULL,NULL,NULL,NULL,NULL,NULL,NULL,NULL,NULL,NULL,NULL,NULL,NULL,NULL,NULL,NULL,NULL,NULL,NULL,NULL,NO.7A 66KV CAPACITOR CB!NO.7B 66KV CAPACITOR SW,Open!Open,NULL!NULL,Open!Open,NULL!NULL,NULL!NULL,NULL!NULL,0!0,1!1,5!9,197719!197720,NULL!NULL,1!1,NULL!NULL,NULL,NULL,NULL,NULL,87152,NULL,NULL,NULL,NULL,
434,MODENA NO.2 CAP,No,Yes,Yes,621,Variable,4.8,0,4.8,0,0,1,621,12.6,11.64,1,0,Off,Off,NULL,NULL,NULL,NULL,NULL,NULL,NULL,NULL,120,NULL,NULL,NULL,0,4.8,Yes,NULL,Yes,NULL,NULL,NULL,NULL,NULL,NULL,322987,1125,1125,NULL,NULL,NULL,NULL,NULL,NULL,NULL,NULL,NULL,NULL,NULL,NULL,NULL,NULL,NULL,NULL,NULL,NULL,10,+,Out,Block,NULL,2,121043,NULL,NO.1 12KV CAPACITOR CB,Open,NULL,Open,NULL,NULL,NULL,0,1,1,179454,NULL,1,NULL,NULL,NULL,NULL,NULL,179456,NULL,NULL,NULL,NULL,
435,MODENA NO.1 CAP,No,Yes,Yes,611,Variable,6,0,6,0,0,1,611,12.6,11.64,1,0,Off,Off,NULL,NULL,NULL,NULL,NULL,NULL,NULL,NULL,120,NULL,NULL,NULL,0,6,Yes,NULL,Yes,NULL,NULL,NULL,NULL,NULL,NULL,322988,1125,1125,NULL,NULL,NULL,NULL,NULL,NULL,NULL,NULL,NULL,NULL,NULL,NULL,NULL,NULL,NULL,NULL,NULL,NULL,10,+,Out,Block,NULL,1,121040,NULL,NO.1 12KV CAPACITOR CB,Open,NULL,Open,NULL,NULL,NULL,0,1,1,179447,NULL,1,NULL,NULL,NULL,NULL,NULL,179449,NULL,NULL,NULL,NULL,
436,MODENA NO.3 CAP,No,Yes,Yes,632,Variable,4.8,0,4.8,0,0,1,632,12.6,11.64,1,0,Off,Off,NULL,NULL,NULL,NULL,NULL,NULL,NULL,NULL,120,NULL,NULL,NULL,0,4.8,Yes,NULL,Yes,NULL,NULL,NULL,NULL,NULL,NULL,322989,1125,1125,NULL,NULL,NULL,NULL,NULL,NULL,NULL,NULL,NULL,NULL,NULL,NULL,NULL,NULL,NULL,NULL,NULL,NULL,10,+,Out,Block,NULL,3,95168,NULL,NO.3 12KV CAPACITOR SW,Open,NULL,Open,NULL,NULL,NULL,0,1,1,87329,NULL,1,NULL,NULL,NULL,NULL,NULL,87331,NULL,NULL,NULL,NULL,
712,CANYON CAP 5,Yes,Yes,Yes,5,Fixed,28.8,0,28.8,0,0,1,5,72.45,66.93,1,0,Off,Off,NULL,NULL,NULL,NULL,NULL,NULL,NULL,NULL,120,NULL,NULL,NULL,0,28.8,Yes,NULL,Yes,NULL,NULL,NULL,NULL,NULL,NULL,NULL,92,92,NULL,NULL,NULL,NULL,NULL,NULL,NULL,NULL,NULL,NULL,3,+,In/Out,Normal,NULL,500,95344,NULL,10,+,Out,Block,NULL,501,95342,NULL,NULL,NULL,NULL,NULL,NULL,NULL,NULL,NULL,NULL,NULL,NULL,NULL,NULL,NULL,NULL,NULL,NULL,NULL,NULL,NULL,NULL,NULL,NULL,
775,VILLA PARK NO.1A CAP,No,No,Yes,20,Fixed,29.7,0,29.7,0,0,1,999,72.45,66.93,1,0,Off,Off,NULL,NULL,NULL,NULL,NULL,NULL,NULL,NULL,120,NULL,NULL,NULL,0,29.7,Yes,NULL,Yes,NULL,NULL,ADMS D,NULL,NULL,NULL,302375,86,86,NULL,NULL,NULL,NULL,NULL,NULL,NULL,NULL,NULL,NULL,NULL,NULL,NULL,NULL,NULL,NULL,NULL,NULL,NULL,NULL,NULL,NULL,NULL,NULL,NULL,NULL,NULL,NULL,NULL,NULL,NULL,NULL,NULL,NULL,NULL,NULL,NULL,NULL,NULL,NULL,NULL,NULL,NULL,NULL,NULL,NULL,NULL,NULL,NULL,
776,VILLA PARK NO.1B CAP,No,No,Yes,21,Fixed,29.7,0,29.7,0,0,1,999,72.45,66.93,1,0,Off,Off,NULL,NULL,NULL,NULL,NULL,NULL,NULL,NULL,120,NULL,NULL,NULL,0,29.7,Yes,NULL,Yes,NULL,NULL,ADMS D,NULL,NULL,NULL,302376,86,86,NULL,NULL,NULL,NULL,NULL,NULL,NULL,NULL,NULL,NULL,NULL,NULL,NULL,NULL,NULL,NULL,NULL,NULL,NULL,NULL,NULL,NULL,NULL,NULL,NULL,NULL,NULL,NULL,NULL,NULL,NULL,NULL,NULL,NULL,NULL,NULL,NULL,NULL,NULL,NULL,NULL,NULL,NULL,NULL,NULL,NULL,NULL,NULL,NULL,
779,VILLA PARK NO.2A CAP,No,No,Yes,70,Fixed,28.8,0,28.8,0,0,1,50,72.45,66.93,1,0,Off,Off,NULL,NULL,NULL,NULL,NULL,NULL,NULL,NULL,120,NULL,NULL,NULL,0,28.8,Yes,NULL,Yes,NULL,NULL,ADMS D,NULL,NULL,NULL,302377,86,86,NULL,NULL,NULL,NULL,NULL,NULL,NULL,NULL,NULL,NULL,NULL,NULL,NULL,NULL,NULL,NULL,NULL,NULL,NULL,NULL,NULL,NULL,NULL,NULL,NULL,NULL,NULL,NULL,NULL,NULL,NULL,NULL,NULL,NULL,NULL,NULL,NULL,NULL,NULL,NULL,NULL,NULL,NULL,NULL,NULL,NULL,NULL,NULL,NULL,
780,VILLA PARK NO.2B CAP,No,No,Yes,71,Fixed,28.8,0,28.8,0,0,1,50,72.45,66.93,1,0,Off,Off,NULL,NULL,NULL,NULL,NULL,NULL,NULL,NULL,120,NULL,NULL,NULL,0,28.8,Yes,NULL,Yes,NULL,NULL,ADMS D,NULL,NULL,NULL,302378,86,86,NULL,NULL,NULL,NULL,NULL,NULL,NULL,NULL,NULL,NULL,NULL,NULL,NULL,NULL,NULL,NULL,NULL,NULL,NULL,NULL,NULL,NULL,NULL,NULL,NULL,NULL,NULL,NULL,NULL,NULL,NULL,NULL,NULL,NULL,NULL,NULL,NULL,NULL,NULL,NULL,NULL,NULL,NULL,NULL,NULL,NULL,NULL,NULL,NULL,
781,VILLA PARK NO.7A CAP,No,No,Yes,73,Fixed,28.8,0,28.8,0,0,1,19,72.45,66.93,1,0,Off,Off,NULL,NULL,NULL,NULL,NULL,NULL,NULL,NULL,120,NULL,NULL,NULL,0,28.8,Yes,NULL,Yes,NULL,NULL,ADMS D,NULL,NULL,NULL,302380,86,86,NULL,NULL,NULL,NULL,NULL,NULL,NULL,NULL,NULL,NULL,NULL,NULL,NULL,NULL,NULL,NULL,NULL,NULL,NULL,NULL,NULL,NULL,NULL,NULL,NULL,NULL,NULL,NULL,NULL,NULL,NULL,NULL,NULL,NULL,NULL,NULL,NULL,NULL,NULL,NULL,NULL,NULL,NULL,NULL,NULL,NULL,NULL,NULL,NULL,
782,VILLA PARK NO.7B CAP,No,No,Yes,72,Fixed,28.8,0,28.8,0,0,1,19,72.45,66.93,1,0,Off,Off,NULL,NULL,NULL,NULL,NULL,NULL,NULL,NULL,120,NULL,NULL,NULL,0,28.8,Yes,NULL,Yes,NULL,NULL,ADMS D,NULL,NULL,NULL,302381,86,86,NULL,NULL,NULL,NULL,NULL,NULL,NULL,NULL,NULL,NULL,NULL,NULL,NULL,NULL,NULL,NULL,NULL,NULL,NULL,NULL,NULL,NULL,NULL,NULL,NULL,NULL,NULL,NULL,NULL,NULL,NULL,NULL,NULL,NULL,NULL,NULL,NULL,NULL,NULL,NULL,NULL,NULL,NULL,NULL,NULL,NULL,NULL,NULL,NULL,
816,BRYAN CAP 2,No,Yes,Yes,135,Fixed,6,0,6,0,0,1,135,12.6,11.64,1,0,Off,Off,NULL,NULL,NULL,NULL,NULL,NULL,NULL,NULL,120,NULL,NULL,NULL,0,6,Yes,NULL,Yes,NULL,NULL,NULL,NULL,NULL,NULL,320952,90,90,NULL,NULL,NULL,NULL,NULL,NULL,NULL,NULL,NULL,NULL,NULL,NULL,NULL,NULL,NULL,NULL,NULL,NULL,10,+,Out,Block,NULL,1,101408,NULL,NULL,NULL,NULL,NULL,NULL,NULL,NULL,NULL,NULL,NULL,NULL,NULL,NULL,NULL,NULL,NULL,NULL,NULL,NULL,NULL,NULL,NULL,NULL,
817,BRYAN CAP 1B,No,Yes,Yes,155,Fixed,4.8,0,4.8,0,0,1,155,12.6,11.64,1,0,Off,Off,NULL,NULL,NULL,NULL,NULL,NULL,NULL,NULL,120,NULL,NULL,NULL,0,4.8,Yes,NULL,Yes,NULL,NULL,NULL,NULL,NULL,NULL,320953,90,90,NULL,NULL,NULL,NULL,NULL,NULL,NULL,NULL,NULL,NULL,NULL,NULL,NULL,NULL,NULL,NULL,NULL,NULL,10,+,Out,Block,NULL,1,101405,NULL,NULL,NULL,NULL,NULL,NULL,NULL,NULL,NULL,NULL,NULL,NULL,NULL,NULL,NULL,NULL,NULL,NULL,NULL,NULL,NULL,NULL,NULL,NULL,
818,BRYAN CAP 1A,No,Yes,Yes,139,Fixed,4.8,0,4.8,0,0,1,139,12.6,11.64,1,0,Off,Off,NULL,NULL,NULL,NULL,NULL,NULL,NULL,NULL,120,NULL,NULL,NULL,0,4.8,Yes,NULL,Yes,NULL,NULL,NULL,NULL,NULL,NULL,320954,90,90,NULL,NULL,NULL,NULL,NULL,NULL,NULL,NULL,NULL,NULL,NULL,NULL,NULL,NULL,NULL,NULL,NULL,NULL,10,+,Out,Block,NULL,1,101404,NULL,NULL,NULL,NULL,NULL,NULL,NULL,NULL,NULL,NULL,NULL,NULL,NULL,NULL,NULL,NULL,NULL,NULL,NULL,NULL,NULL,NULL,NULL,NULL,
929,VILLA PARK NO.8 CAP,Yes,Yes,Yes,172,Variable,28.8,0,28.8,0,0,1,172,72.45,66.93,1,0,Off,Off,NULL,NULL,NULL,NULL,NULL,NULL,NULL,NULL,120,NULL,NULL,NULL,0,28.8,Yes,NULL,Yes,NULL,NULL,ADMS A,NULL,NULL,NULL,301271,86,86,NULL,NULL,NULL,NULL,NULL,NULL,NULL,NULL,NULL,NULL,3,+,In/Out,Normal,NULL,1,1194,NULL,10,+,Out,Block,NULL,1,1191,NULL,CAP 8 CB,Open,NULL,Open,NULL,NULL,NULL,0,1,1,3657,NULL,1,NULL,NULL,NULL,NULL,NULL,3659,NULL,NULL,NULL,NULL,
2047,CANYON NO.2 CAP,No,Yes,Yes,123,Variable,6,0,6,0,0,1,600,12.36,11.64,1,0,Off,Off,NULL,NULL,NULL,NULL,NULL,NULL,NULL,NULL,120,NULL,NULL,NULL,0,6,Yes,NULL,Yes,NULL,NULL,NULL,NULL,NULL,NULL,321634,3292,3292,NULL,NULL,NULL,NULL,NULL,NULL,NULL,NULL,NULL,NULL,NULL,NULL,NULL,NULL,NULL,NULL,NULL,NULL,10,+,Out,Block,NULL,12,227640,NULL,NO.2 12KV CAPACITOR CB,Closed,NULL,Closed,NULL,NULL,NULL,0,1,12,293621,NULL,1,NULL,NULL,NULL,NULL,NULL,293623,NULL,NULL,NULL,NULL,
2078,VILLA PARK NO.3 CAP,No,Yes,Yes,631,Variable,4.8,0,4.8,0,0,1,997,12.36,11.64,1,0,Off,Off,NULL,NULL,NULL,NULL,NULL,NULL,NULL,NULL,120,NULL,NULL,NULL,0,4.8,Yes,NULL,Yes,NULL,NULL,ADMS A,NULL,NULL,NULL,324239,3043,3043,NULL,NULL,NULL,NULL,NULL,NULL,NULL,NULL,NULL,NULL,NULL,NULL,NULL,NULL,NULL,NULL,NULL,NULL,10,+,Out,Block,NULL,21,127963,NULL,NO.3 CAPACITOR CB,Closed,NULL,Closed,NULL,NULL,NULL,0,1,1,197799,NULL,1,NULL,NULL,NULL,NULL,NULL,197801,NULL,NULL,NULL,NULL,
2079,VILLA PARK NO.4 CAP,No,Yes,Yes,642,Variable,4.8,0,4.8,0,0,1,498,12.36,11.64,1,0,Off,Off,NULL,NULL,NULL,NULL,NULL,NULL,NULL,NULL,120,NULL,NULL,NULL,0,4.8,Yes,NULL,Yes,NULL,NULL,ADMS A,NULL,NULL,NULL,324240,3043,3043,NULL,NULL,NULL,NULL,NULL,NULL,NULL,NULL,NULL,NULL,NULL,NULL,NULL,NULL,NULL,NULL,NULL,NULL,10,+,Out,Block,NULL,21,127966,NULL,NO.4 CAPACITOR CB,Closed,NULL,Closed,NULL,NULL,NULL,0,1,11,197805,NULL,1,NULL,NULL,NULL,NULL,NULL,197807,NULL,NULL,NULL,NULL,
2156,ORANGE NO.3 CAP,No,Yes,Yes,606,Variable,4.8,0,4.8,0,0,1,606,12.6,11.64,1,0,Off,Off,NULL,NULL,NULL,NULL,NULL,NULL,NULL,NULL,120,NULL,NULL,NULL,0,4.8,Yes,NULL,Yes,NULL,NULL,NULL,NULL,NULL,NULL,323181,3479,3479,NULL,NULL,NULL,NULL,NULL,NULL,NULL,NULL,NULL,NULL,NULL,NULL,NULL,NULL,NULL,NULL,NULL,NULL,10,+,Out,Block,NULL,13,227794,NULL,NO.3 CAPS CB,Open,NULL,Open,NULL,NULL,NULL,0,1,8,71467,NULL,1,NULL,NULL,NULL,NULL,NULL,71469,NULL,NULL,NULL,NULL,
2157,ORANGE NO.4 CAP,No,Yes,Yes,607,Variable,4.8,0,4.8,0,0,1,607,12.6,11.64,1,0,Off,Off,NULL,NULL,NULL,NULL,NULL,NULL,NULL,NULL,120,NULL,NULL,NULL,0,4.8,Yes,NULL,Yes,NULL,NULL,NULL,NULL,NULL,NULL,323182,3479,3479,NULL,NULL,NULL,NULL,NULL,NULL,NULL,NULL,NULL,NULL,NULL,NULL,NULL,NULL,NULL,NULL,NULL,NULL,10,+,Out,Block,NULL,13,227798,NULL,NO.4 12KV CAPACITOR CB,Closed,NULL,Closed,NULL,NULL,NULL,0,1,8,71472,NULL,1,NULL,NULL,NULL,NULL,NULL,71474,NULL,NULL,NULL,NULL,
2572,CANYON NO.1 CAP,No,Yes,Yes,122,Variable,6,0,6,0,0,1,601,12.36,11.64,1,0,Off,Off,NULL,NULL,NULL,NULL,NULL,NULL,NULL,NULL,120,NULL,NULL,NULL,0,6,Yes,NULL,Yes,NULL,NULL,NULL,NULL,NULL,NULL,321639,3292,3292,NULL,NULL,NULL,NULL,NULL,NULL,NULL,NULL,NULL,NULL,NULL,NULL,NULL,NULL,NULL,NULL,NULL,NULL,10,+,Out,Block,NULL,12,117373,NULL,NO.1 12KV CAPACITOR CB,Closed,NULL,Closed,NULL,NULL,NULL,0,1,13,110525,NULL,1,NULL,NULL,NULL,NULL,NULL,110527,NULL,NULL,NULL,NULL,
2600,YORBA LINDA NO.2 CAP,No,Yes,Yes,600,Variable,4.8,0,4.8,0,0,1,600,12.36,11.64,1,0,Off,Off,NULL,NULL,NULL,NULL,NULL,NULL,NULL,NULL,120,NULL,NULL,NULL,0,4.8,Yes,NULL,Yes,NULL,NULL,NULL,NULL,NULL,NULL,322639,3308,3308,NULL,NULL,NULL,NULL,NULL,NULL,NULL,NULL,NULL,NULL,NULL,NULL,NULL,NULL,NULL,NULL,NULL,NULL,3,+,In/Out,Normal,NULL,12,130441,NULL,NO.2 12KV CAPACITOR CB,Closed,NULL,Closed,NULL,NULL,NULL,0,1,13,168000,NULL,1,NULL,NULL,NULL,NULL,NULL,168002,NULL,NULL,NULL,NULL,
2601,YORBA LINDA NO.3 CAP,No,Yes,Yes,601,Variable,4.8,0,4.8,0,0,1,601,12.36,11.64,1,0,Off,Off,NULL,NULL,NULL,NULL,NULL,NULL,NULL,NULL,120,NULL,NULL,NULL,0,4.8,Yes,NULL,Yes,NULL,NULL,NULL,NULL,NULL,NULL,322640,3308,3308,NULL,NULL,NULL,NULL,NULL,NULL,NULL,NULL,NULL,NULL,NULL,NULL,NULL,NULL,NULL,NULL,NULL,NULL,3,+,In/Out,Normal,NULL,12,130444,NULL,NO.3 12KV CAPACITOR CB,Closed,NULL,Closed,NULL,NULL,NULL,0,1,13,168004,NULL,1,NULL,NULL,NULL,NULL,NULL,168006,NULL,NULL,NULL,NULL,
2602,YORBA LINDA NO.4 CAP,No,Yes,Yes,602,Variable,4.8,0,4.8,0,0,1,602,12.36,11.64,1,0,Off,Off,NULL,NULL,NULL,NULL,NULL,NULL,NULL,NULL,120,NULL,NULL,NULL,0,4.8,Yes,NULL,Yes,NULL,NULL,NULL,NULL,NULL,NULL,322641,3308,3308,NULL,NULL,NULL,NULL,NULL,NULL,NULL,NULL,NULL,NULL,NULL,NULL,NULL,NULL,NULL,NULL,NULL,NULL,3,+,In/Out,Normal,NULL,12,117852,NULL,NO.4 12KV CAPACITOR CB,Closed,NULL,Closed,NULL,NULL,NULL,0,1,13,172181,NULL,1,NULL,NULL,NULL,NULL,NULL,172183,NULL,NULL,NULL,NULL,
3110,ATWOOD NO.1 CAP,No,Yes,Yes,120,Variable,5.1,0,5.1,0,0,1,601,12.6,11.64,1,0,Off,Off,NULL,NULL,NULL,NULL,NULL,NULL,NULL,NULL,120,NULL,NULL,NULL,0,5.1,Yes,NULL,Yes,NULL,NULL,NULL,NULL,NULL,NULL,320467,3463,3463,NULL,NULL,NULL,NULL,NULL,NULL,NULL,NULL,NULL,NULL,NULL,NULL,NULL,NULL,NULL,NULL,NULL,NULL,10,+,Out,Block,NULL,90,126963,NULL,NO.1 12KV CAPACITOR SW,Open,NULL,Open,NULL,NULL,NULL,0,1,60,195565,NULL,1,NULL,NULL,NULL,NULL,NULL,195567,NULL,NULL,NULL,NULL,
3133,LA VETA NO.1 CAP,No,Yes,Yes,611,Variable,6,0,6,0,0,1,999,12.6,11.64,1,0,Off,Off,NULL,NULL,NULL,NULL,NULL,NULL,NULL,NULL,120,NULL,NULL,NULL,0,6,Yes,NULL,Yes,NULL,NULL,NULL,NULL,NULL,NULL,322270,3475,3475,NULL,NULL,NULL,NULL,NULL,NULL,NULL,NULL,NULL,NULL,NULL,NULL,NULL,NULL,NULL,NULL,NULL,NULL,3,+,In/Out,Normal,NULL,12,126789,NULL,NO.1 12KV CAPACITOR SWITCH,Closed,NULL,Closed,NULL,NULL,NULL,0,1,106,195217,NULL,1,NULL,NULL,NULL,NULL,NULL,195219,NULL,NULL,NULL,NULL,
3134,LA VETA CAP 2,No,Yes,Yes,621,Variable,6,0,6,0,0,1,500,12.6,11.64,1,0,Off,Off,NULL,NULL,NULL,NULL,NULL,NULL,NULL,NULL,120,NULL,NULL,NULL,0,6,Yes,NULL,Yes,NULL,NULL,NULL,NULL,NULL,NULL,322271,3475,3475,NULL,NULL,NULL,NULL,NULL,NULL,NULL,NULL,NULL,NULL,NULL,NULL,NULL,NULL,NULL,NULL,NULL,NULL,3,+,In/Out,Normal,NULL,56,126792,NULL,NO.2 CAP SWITCH,Closed,NULL,Closed,NULL,NULL,NULL,0,1,107,195225,NULL,1,NULL,NULL,NULL,NULL,NULL,195227,NULL,NULL,NULL,NULL,
3135,ORANGE NO.1 CAP,No,Yes,Yes,604,Variable,4.8,0,4.8,0,0,1,604,12.6,11.64,1,0,Off,Off,NULL,NULL,NULL,NULL,NULL,NULL,NULL,NULL,120,NULL,NULL,NULL,0,4.8,Yes,NULL,Yes,NULL,NULL,NULL,NULL,NULL,NULL,323183,3479,3479,NULL,NULL,NULL,NULL,NULL,NULL,NULL,NULL,NULL,NULL,NULL,NULL,NULL,NULL,NULL,NULL,NULL,NULL,10,+,Out,Block,NULL,13,127658,NULL,NO.1 12KV CAPACITOR CB,Open,NULL,Open,NULL,NULL,NULL,0,1,8,197023,NULL,1,NULL,NULL,NULL,NULL,NULL,197027,NULL,NULL,NULL,NULL,
3136,ORANGE NO.2 CAP,No,Yes,Yes,605,Variable,4.8,0,4.8,0,0,1,605,12.6,11.64,1,0,Off,Off,NULL,NULL,NULL,NULL,NULL,NULL,NULL,NULL,120,NULL,NULL,NULL,0,4.8,Yes,NULL,Yes,NULL,NULL,NULL,NULL,NULL,NULL,323184,3479,3479,NULL,NULL,NULL,NULL,NULL,NULL,NULL,NULL,NULL,NULL,NULL,NULL,NULL,NULL,NULL,NULL,NULL,NULL,10,+,Out,Block,NULL,13,127661,NULL,NO.2 12KV CAPACITOR CB,Closed,NULL,Closed,NULL,NULL,NULL,0,1,8,197033,NULL,1,NULL,NULL,NULL,NULL,NULL,197037,NULL,NULL,NULL,NULL,
3143,PLACENTIA NO.1 CAP,No,Yes,Yes,610,Variable,3,0,3,0,0,1,600,12.6,11.64,1,0,Off,Off,NULL,NULL,NULL,NULL,NULL,NULL,NULL,NULL,120,NULL,NULL,NULL,0,3,Yes,NULL,Yes,NULL,NULL,NULL,NULL,NULL,NULL,321968,3480,3480,NULL,NULL,NULL,NULL,NULL,NULL,NULL,NULL,NULL,NULL,NULL,NULL,NULL,NULL,NULL,NULL,NULL,NULL,10,+,Out,Block,NULL,23,127330,NULL,NO.1 12KV CAPACITOR CB,Closed,NULL,Closed,NULL,NULL,NULL,0,1,111,196347,NULL,1,NULL,NULL,NULL,NULL,NULL,196349,NULL,NULL,NULL,NULL,
3144,PLACENTIA NO.2 CAP,No,Yes,Yes,612,Variable,6,0,6,0,0,1,602,12.6,11.64,1,0,Off,Off,NULL,NULL,NULL,NULL,NULL,NULL,NULL,NULL,120,NULL,NULL,NULL,0,6,Yes,NULL,Yes,NULL,NULL,NULL,NULL,NULL,NULL,321969,3480,3480,NULL,NULL,NULL,NULL,NULL,NULL,NULL,NULL,NULL,NULL,NULL,NULL,NULL,NULL,NULL,NULL,NULL,NULL,10,+,Out,Block,NULL,45,127333,NULL,NO.2 12KV CAPACITOR SW,Closed,NULL,Closed,NULL,NULL,NULL,0,1,112,196355,NULL,1,NULL,NULL,NULL,NULL,NULL,196357,NULL,NULL,NULL,NULL,
3151,WASHINGTON NO.1 CAP,No,Yes,Yes,600,Variable,6,0,6,0,0,1,600,12.6,11.64,1,0,Off,Off,NULL,NULL,NULL,NULL,NULL,NULL,NULL,NULL,120,NULL,NULL,NULL,0,6,Yes,NULL,Yes,NULL,NULL,ADMS A,NULL,NULL,NULL,324243,3487,3487,NULL,NULL,NULL,NULL,NULL,NULL,NULL,NULL,NULL,NULL,NULL,NULL,NULL,NULL,NULL,NULL,NULL,NULL,10,+,Out,Block,NULL,56,128219,NULL,NO.1 CAPACITOR CB,Open,NULL,Open,NULL,NULL,NULL,0,1,111,198399,NULL,1,NULL,NULL,NULL,NULL,NULL,198401,NULL,NULL,NULL,NULL,
