ShuntNumber,ShuntName,PnaShunt,PssShunt,NspShunt,SectionNumber,Type,SusceptanceStepSize,SusceptanceAtMinBankOutput,SusceptanceAtMaxBankOutput,ConductanceAtMinBankOutput,ConductanceAtMaxBankOutput,LocalControlTuningFactor,ControlSectionNumber,HighControlLimit,LowControlLimit,MinShiftWeightFactor,MinShiftTarget,LocalControlStatus,OptimizationStatus,MwInversion,MwMeasOverrideStatus,MwReplacementValue,CmeMwUsage,MvInversion,MvMeasOverrideStatus,MvReplacementValue,CmeMvUsage,ControlDelay,FlaShuntZeroSeqSusc,FlaShuntZeroSeqCond,AssetLabel,DefaultMwSchedule,DefaultMvSchedule,ScheduleDataFlag,ExModelRetentionFlag,DmsTransformFlag,CommentText1,CommentText2,CommentText3,ShuntResponseLeadTime,ShuntResponseRateOfIncrease,ShuntResponseRateOfDecrease,ConnectionStatusIndicatorRef,BusNumberRef,ControlBusNumberRef,MwTelemetryRef,MvTelemetryRef,MwStandardDeviation,MwInversionFlag,MwCmeUsage,MwOverrideStatus,Mw_ReplacementValue,SetOrder4,MwAnalogPointRef,MwCtBreakerRef,MvStandardDeviation,MvInversionFlag,MvCmeUsage,MvOverrideStatus,Mv_ReplacementValue,SetOrder5,MvAnalogPointRef,MvCtBreakerRef,AmpStandardDeviation,AmpInversionFlag,AmpCmeUsage,AmpOverrideStatus,Amp_ReplacementValue,SetOrder7,AmpAnalogPointRef,AmpCtBreakerRef,ShuntSwitchName,NormalControlSwitchState,NormalIsolatorSwitchState,DefaultControlSwitchState,DefaultIsolatorSwitchState,IsolatorScadaOpenState,IsolatorScadaCloseState,CntlBrkrScadaOpenState,CntlBrkrScadaCloseState,SetOrder8,ControlSwitchStatusTelemetryRef,IsolatorSwitchStatusTelemetryRef,ControlSwitchStateTransition,IsolatorSwitchStateTransition,HighMVArLimitRef,LowMVArLimitRef,LeadingMVArReservesRef,LaggingMVArReservesRef,ControlModeTelemetryRef,SinglePhTransCurRef,SinglePhSubtransCurRef,ThreePhTransCurRef,ThreePhSubtransCurRef,
76,CREST NO. 1 CAP,No,Yes,Yes,600,Variable,5.8,0,5.8,0,0,1,600,17.325,16.005,1,0,Off,Off,NULL,NULL,NULL,NULL,NULL,NULL,NULL,NULL,120,NULL,NULL,NULL,0,5.8,Yes,NULL,Yes,NULL,NULL,NULL,NULL,NULL,NULL,325938,209,209,NULL,NULL,NULL,NULL,NULL,NULL,NULL,NULL,NULL,NULL,NULL,NULL,NULL,NULL,NULL,NULL,NULL,NULL,10,+,In/Out,Normal,NULL,13,117541,NULL,NO. 1 CAPACITOR CB,Closed,NULL,Closed,NULL,NULL,NULL,0,1,8,122049,NULL,1,NULL,NULL,NULL,NULL,NULL,122051,NULL,NULL,NULL,NULL,
77,DITMAR NO. 4 CAP,No,Yes,Yes,600,Variable,5.8,0,5.8,0,0,1,600,17.325,16.005,1,0,Off,Off,NULL,NULL,NULL,NULL,NULL,NULL,NULL,NULL,120,NULL,NULL,NULL,0,5.8,Yes,NULL,Yes,NULL,NULL,NULL,NULL,NULL,NULL,325949,211,211,NULL,NULL,NULL,NULL,NULL,NULL,NULL,NULL,NULL,NULL,NULL,NULL,NULL,NULL,NULL,NULL,NULL,NULL,10,+,In/Out,Normal,NULL,13,116725,NULL,NO. 4 CAPACITOR CB,Closed,NULL,Closed,NULL,NULL,NULL,0,1,8,150621,NULL,1,NULL,NULL,NULL,NULL,NULL,150623,NULL,NULL,NULL,NULL,
78,DITMAR NO.6 CAP,No,Yes,Yes,601,Variable,1.5,0,1.5,0,0,1,601,4.5675,4.2195,1,0,Off,Off,NULL,NULL,NULL,NULL,NULL,NULL,NULL,NULL,120,NULL,NULL,NULL,0,1.5,Yes,NULL,Yes,NULL,NULL,NULL,NULL,NULL,NULL,325963,212,212,NULL,NULL,NULL,NULL,NULL,NULL,NULL,NULL,NULL,NULL,NULL,NULL,NULL,NULL,NULL,NULL,NULL,NULL,10,+,Out,Block,NULL,13,116733,NULL,NO.6 CAPACITOR CB,Closed,NULL,Closed,NULL,NULL,NULL,0,1,8,150636,NULL,1,NULL,NULL,NULL,NULL,NULL,150638,NULL,NULL,NULL,NULL,
79,DITMAR NO.5 CAP,No,Yes,Yes,602,Variable,1.5,0,1.5,0,0,1,602,4.5675,4.2195,1,0,Off,Off,NULL,NULL,NULL,NULL,NULL,NULL,NULL,NULL,120,NULL,NULL,NULL,0,1.5,Yes,NULL,Yes,NULL,NULL,NULL,NULL,NULL,NULL,325964,212,212,NULL,NULL,NULL,NULL,NULL,NULL,NULL,NULL,NULL,NULL,NULL,NULL,NULL,NULL,NULL,NULL,NULL,NULL,10,+,Out,Block,NULL,13,116729,NULL,NO.5 CAPACITOR CB,Closed,NULL,Closed,NULL,NULL,NULL,0,1,8,150628,NULL,1,NULL,NULL,NULL,NULL,NULL,150630,NULL,NULL,NULL,NULL,
80,ROLLING HILLS NO. 1 CAP,No,Yes,Yes,611,Variable,6,0,6,0,0,1,611,16.48,15.52,1,0,Off,Off,NULL,NULL,NULL,NULL,NULL,NULL,NULL,NULL,120,NULL,NULL,NULL,0,6,Yes,NULL,Yes,NULL,NULL,NULL,NULL,NULL,NULL,326783,226,226,NULL,NULL,NULL,NULL,NULL,NULL,NULL,NULL,NULL,NULL,NULL,NULL,NULL,NULL,NULL,NULL,NULL,NULL,10,+,Out,Block,NULL,1,138966,NULL,NO. 1 CAPACITOR CB,Closed,NULL,Closed,NULL,NULL,NULL,0,1,8,143842,NULL,1,NULL,NULL,NULL,NULL,NULL,143844,NULL,NULL,NULL,NULL,
81,ROLLING HILLS NO.2 CAP,No,Yes,Yes,621,Variable,2.7,0,2.7,0,0,1,621,4.12,3.88,1,0,Off,Off,NULL,NULL,NULL,NULL,NULL,NULL,NULL,NULL,120,NULL,NULL,NULL,0,2.7,Yes,NULL,Yes,NULL,NULL,NULL,NULL,NULL,NULL,326784,227,227,NULL,NULL,NULL,NULL,NULL,NULL,NULL,NULL,NULL,NULL,NULL,NULL,NULL,NULL,NULL,NULL,NULL,NULL,10,+,Out,Block,NULL,1,138970,NULL,NO.2 4KV CAPACITOR CB,Open,NULL,Open,NULL,NULL,NULL,0,1,8,143850,NULL,1,NULL,NULL,NULL,NULL,NULL,143852,NULL,NULL,NULL,NULL,
82,VICTORIA CAP 3,No,Yes,Yes,600,Variable,6,0,6,0,0,1,600,17.2725,15.9565,1,0,Off,Off,NULL,NULL,NULL,NULL,NULL,NULL,NULL,NULL,120,NULL,NULL,NULL,0,6,Yes,NULL,Yes,NULL,NULL,NULL,NULL,NULL,NULL,326405,233,233,NULL,NULL,NULL,NULL,NULL,NULL,NULL,NULL,NULL,NULL,NULL,NULL,NULL,NULL,NULL,NULL,NULL,NULL,10,+,Out,Block,NULL,13,138842,NULL,NO.3 CAPS CB,Closed,NULL,Closed,NULL,NULL,NULL,0,1,8,143089,NULL,1,NULL,NULL,NULL,NULL,NULL,143091,NULL,NULL,NULL,NULL,
83,VICTORIA CAP 4,No,Yes,Yes,601,Variable,6,0,6,0,0,1,601,17.2725,15.9565,1,0,Off,Off,NULL,NULL,NULL,NULL,NULL,NULL,NULL,NULL,120,NULL,NULL,NULL,0,6,Yes,NULL,Yes,NULL,NULL,NULL,NULL,NULL,NULL,326406,233,233,NULL,NULL,NULL,NULL,NULL,NULL,NULL,NULL,NULL,NULL,NULL,NULL,NULL,NULL,NULL,NULL,NULL,NULL,10,+,Out,Block,NULL,13,138846,NULL,NO.4 CAPS CB,Closed,NULL,Closed,NULL,NULL,NULL,0,1,8,143096,NULL,1,NULL,NULL,NULL,NULL,NULL,143098,NULL,NULL,NULL,NULL,
84,WALTERIA CAP 1,No,Yes,Yes,601,Variable,4.8,0,4.8,0,0,1,601,17.325,16.005,1,0,Off,Off,NULL,NULL,NULL,NULL,NULL,NULL,NULL,NULL,120,NULL,NULL,NULL,0,4.8,Yes,NULL,Yes,NULL,NULL,NULL,NULL,NULL,NULL,326407,235,235,NULL,NULL,NULL,NULL,NULL,NULL,NULL,NULL,NULL,NULL,NULL,NULL,NULL,NULL,NULL,NULL,NULL,NULL,NULL,NULL,NULL,NULL,NULL,NULL,NULL,NULL,NO.1 CAPS 16KV CB,Closed,NULL,Closed,NULL,NULL,NULL,0,1,8,151519,NULL,1,NULL,NULL,NULL,NULL,NULL,151521,NULL,NULL,NULL,NULL,
85,WALTERIA CAP 2,No,Yes,Yes,603,Variable,4.8,0,4.8,0,0,1,603,17.325,16.005,1,0,Off,Off,NULL,NULL,NULL,NULL,NULL,NULL,NULL,NULL,120,NULL,NULL,NULL,0,4.8,Yes,NULL,Yes,NULL,NULL,NULL,NULL,NULL,NULL,326408,235,235,NULL,NULL,NULL,NULL,NULL,NULL,NULL,NULL,NULL,NULL,NULL,NULL,NULL,NULL,NULL,NULL,NULL,NULL,NULL,NULL,NULL,NULL,NULL,NULL,NULL,NULL,NO.2 CAPS 16KV CB,Closed,NULL,Closed,NULL,NULL,NULL,0,1,8,123247,NULL,1,NULL,NULL,NULL,NULL,NULL,123249,NULL,NULL,NULL,NULL,
86,WALTERIA NO.3 CAP,No,Yes,Yes,602,Variable,2.1,0,2.1,0,0,1,602,4.368,4.0352,1,0,Off,Off,NULL,NULL,NULL,NULL,NULL,NULL,NULL,NULL,120,NULL,NULL,NULL,0,2.1,Yes,NULL,Yes,NULL,NULL,ADMS A,NULL,NULL,NULL,326409,236,236,NULL,NULL,NULL,NULL,NULL,NULL,NULL,NULL,NULL,NULL,NULL,NULL,NULL,NULL,NULL,NULL,NULL,NULL,10,+,In/Out,Normal,NULL,13,117113,NULL,NO.3 CAPS 4KV CB,Closed,NULL,Closed,NULL,NULL,NULL,0,1,8,151526,NULL,1,NULL,NULL,NULL,NULL,NULL,151529,NULL,NULL,NULL,NULL,
87,WALTERIA NO.4 CAP,No,Yes,Yes,604,Variable,2.1,0,2.1,0,0,1,604,4.368,4.0352,1,0,Off,Off,NULL,NULL,NULL,NULL,NULL,NULL,NULL,NULL,120,NULL,NULL,NULL,0,2.1,Yes,NULL,Yes,NULL,NULL,ADMS A,NULL,NULL,NULL,326410,236,236,NULL,NULL,NULL,NULL,NULL,NULL,NULL,NULL,NULL,NULL,NULL,NULL,NULL,NULL,NULL,NULL,NULL,NULL,10,+,In/Out,Normal,NULL,13,117117,NULL,NO.4 CAPS 4KV CB,Closed,NULL,Closed,NULL,NULL,NULL,0,1,8,151535,NULL,1,NULL,NULL,NULL,NULL,NULL,151538,NULL,NULL,NULL,NULL,
88,YUKON CAP 1,No,Yes,Yes,1,Variable,6,0,6,0,0,1,1,17.325,16.005,1,0,OnInBaseCaseAndCa,On,NULL,NULL,NULL,NULL,NULL,NULL,NULL,NULL,120,NULL,NULL,NULL,0,6,Yes,NULL,Yes,NULL,NULL,NULL,NULL,NULL,NULL,328316,238,238,NULL,NULL,NULL,NULL,NULL,NULL,NULL,NULL,NULL,NULL,NULL,NULL,NULL,NULL,NULL,NULL,NULL,NULL,10,+,Out,Block,NULL,1,118428,NULL,1 CAPS CB,Open,NULL,Open,NULL,NULL,NULL,0,1,1,173371,NULL,1,NULL,NULL,NULL,NULL,NULL,173373,NULL,NULL,NULL,NULL,
89,YUKON CAP 2,No,Yes,Yes,51,Variable,6,0,6,0,0,1,51,17.325,16.005,1,0,OnInBaseCaseAndCa,On,NULL,NULL,NULL,NULL,NULL,NULL,NULL,NULL,120,NULL,NULL,NULL,0,6,Yes,NULL,Yes,NULL,NULL,NULL,NULL,NULL,NULL,328317,238,238,NULL,NULL,NULL,NULL,NULL,NULL,NULL,NULL,NULL,NULL,NULL,NULL,NULL,NULL,NULL,NULL,NULL,NULL,1,+,Out,Block,NULL,1,118432,NULL,2 CAPS CB,Open,NULL,Open,NULL,NULL,NULL,0,1,1,173378,NULL,1,NULL,NULL,NULL,NULL,NULL,173380,NULL,NULL,NULL,NULL,
90,YUKON NO.3 CAP,No,Yes,Yes,901,Variable,3,0,3,0,0,1,901,4.5675,4.2195,1,0,OnInBaseCaseAndCa,On,NULL,NULL,NULL,NULL,NULL,NULL,NULL,NULL,120,NULL,NULL,NULL,0,3,Yes,NULL,Yes,NULL,NULL,NULL,NULL,NULL,NULL,328658,239,239,NULL,NULL,NULL,NULL,NULL,NULL,NULL,NULL,NULL,NULL,NULL,NULL,NULL,NULL,NULL,NULL,NULL,NULL,1,+,Out,Block,NULL,1,118436,NULL,NO.3 CAPACITOR CB,Closed,NULL,Closed,NULL,NULL,NULL,0,1,1,173385,NULL,1,NULL,NULL,NULL,NULL,NULL,173387,NULL,NULL,NULL,NULL,
91,YUKON NO.4 CAP,No,Yes,Yes,903,Variable,3,0,3,0,0,1,903,4.5675,4.2195,1,0,OnInBaseCaseAndCa,On,NULL,NULL,NULL,NULL,NULL,NULL,NULL,NULL,120,NULL,NULL,NULL,0,3,Yes,NULL,Yes,NULL,NULL,NULL,NULL,NULL,NULL,328659,239,239,NULL,NULL,NULL,NULL,NULL,NULL,NULL,NULL,NULL,NULL,NULL,NULL,NULL,NULL,NULL,NULL,NULL,NULL,1,+,Out,Block,NULL,1,118440,NULL,NO.4 CAPACITOR CB,Closed,NULL,Closed,NULL,NULL,NULL,0,1,1,173393,NULL,1,NULL,NULL,NULL,NULL,NULL,173395,NULL,NULL,NULL,NULL,
248,LA FRESA CAP 3AB_PSS,No,Yes,No,817,Variable,28.8,0,57.6,0,0,1,999,72.45,66.93,1,0,Off,Off,NULL,NULL,NULL,NULL,NULL,NULL,NULL,NULL,120,NULL,NULL,NULL,0,28.8,Yes,NULL,Yes,NULL,NULL,NULL,NULL,NULL,NULL,302337,200,200,NULL,NULL,NULL,NULL,NULL,NULL,NULL,NULL,NULL,NULL,NULL,NULL,NULL,NULL,NULL,NULL,NULL,NULL,NULL,NULL,NULL,NULL,NULL,NULL,NULL,NULL,NO.3 CAPS CB!NO.3B CAP SW,Open!Open,NULL!NULL,Open!Open,NULL!NULL,NULL!NULL,NULL!NULL,0!0,1!1,8!9,144694!144696,NULL!NULL,1!1,NULL!NULL,NULL,NULL,NULL,NULL,236525,NULL,NULL,NULL,NULL,
249,LA FRESA CAP 4AB_PSS,No,Yes,No,828,Variable,28.8,0,57.6,0,0,1,828,72.45,66.93,1,0,Off,Off,NULL,NULL,NULL,NULL,NULL,NULL,NULL,NULL,120,NULL,NULL,NULL,0,28.8,Yes,NULL,Yes,NULL,NULL,NULL,NULL,NULL,NULL,302338,200,200,NULL,NULL,NULL,NULL,NULL,NULL,NULL,NULL,NULL,NULL,NULL,NULL,NULL,NULL,NULL,NULL,NULL,NULL,NULL,NULL,NULL,NULL,NULL,NULL,NULL,NULL,NO.4 CAPS CB!NO.4B CAP SW,Open!Open,NULL!NULL,Open!Open,NULL!NULL,NULL!NULL,NULL!NULL,0!0,1!1,8!9,144706!144707,NULL!NULL,1!1,NULL!NULL,NULL,NULL,NULL,NULL,144709,NULL,NULL,NULL,NULL,
250,LA FRESA CAP 5AB_PSS,No,Yes,No,206,Variable,28.8,0,57.6,0,0,1,206,72.45,66.93,1,0,Off,Off,NULL,NULL,NULL,NULL,NULL,NULL,NULL,NULL,120,NULL,NULL,NULL,0,28.8,Yes,NULL,Yes,NULL,NULL,NULL,NULL,NULL,NULL,302339,200,200,NULL,NULL,NULL,NULL,NULL,NULL,NULL,NULL,NULL,NULL,NULL,NULL,NULL,NULL,NULL,NULL,NULL,NULL,NULL,NULL,NULL,NULL,NULL,NULL,NULL,NULL,NO.5 CAPS CB!NO.5B CAP SW,Open!Open,NULL!NULL,Open!Open,NULL!NULL,NULL!NULL,NULL!NULL,0!0,1!1,8!9,180212!180213,NULL!NULL,1!1,NULL!NULL,NULL,NULL,NULL,NULL,180218,NULL,NULL,NULL,NULL,
251,LA FRESA CAP 8AB_PSS,No,Yes,No,825,Variable,28.8,0,57.6,0,0,1,50,72.45,66.93,1,0,Off,Off,NULL,NULL,NULL,NULL,NULL,NULL,NULL,NULL,120,NULL,NULL,NULL,0,28.8,Yes,NULL,Yes,NULL,NULL,NULL,NULL,NULL,NULL,302341,200,200,NULL,NULL,NULL,NULL,NULL,NULL,NULL,NULL,NULL,NULL,NULL,NULL,NULL,NULL,NULL,NULL,NULL,NULL,NULL,NULL,NULL,NULL,NULL,NULL,NULL,NULL,NO.8 CAPS CB!NO.8B CAP SW,Open!Open,NULL!NULL,Open!Open,NULL!NULL,NULL!NULL,NULL!NULL,0!0,1!1,8!9,123752!123753,NULL!NULL,1!1,NULL!NULL,NULL,NULL,NULL,NULL,236577,NULL,NULL,NULL,NULL,
302,LA FRESA CAP 3A,Yes,No,Yes,815,Fixed,28.8,0,28.8,0,0,1,999,69.3,64.02,1,0,Off,Off,NULL,NULL,NULL,NULL,NULL,NULL,NULL,NULL,120,NULL,NULL,NULL,0,28.8,Yes,NULL,Yes,NULL,NULL,NULL,NULL,NULL,NULL,358816,200,200,NULL,NULL,NULL,NULL,NULL,NULL,NULL,NULL,NULL,NULL,NULL,NULL,NULL,NULL,NULL,NULL,NULL,NULL,NULL,NULL,NULL,NULL,NULL,NULL,NULL,NULL,NULL,NULL,NULL,NULL,NULL,NULL,NULL,NULL,NULL,NULL,NULL,NULL,NULL,NULL,NULL,NULL,NULL,NULL,NULL,NULL,NULL,NULL,NULL,
304,LA FRESA CAP 3B,Yes,No,Yes,817,Fixed,28.8,0,28.8,0,0,1,999,69.3,64.02,1,0,Off,Off,NULL,NULL,NULL,NULL,NULL,NULL,NULL,NULL,120,NULL,NULL,NULL,0,28.8,Yes,NULL,Yes,NULL,NULL,NULL,NULL,NULL,NULL,358817,200,200,NULL,NULL,NULL,NULL,NULL,NULL,NULL,NULL,NULL,NULL,NULL,NULL,NULL,NULL,NULL,NULL,NULL,NULL,NULL,NULL,NULL,NULL,NULL,NULL,NULL,NULL,NULL,NULL,NULL,NULL,NULL,NULL,NULL,NULL,NULL,NULL,NULL,NULL,NULL,NULL,NULL,NULL,NULL,NULL,NULL,NULL,NULL,NULL,NULL,
314,LA FRESA CAP 4A,Yes,No,Yes,826,Fixed,28.8,0,28.8,0,0,1,826,69.3,64.02,1,0,Off,Off,NULL,NULL,NULL,NULL,NULL,NULL,NULL,NULL,120,NULL,NULL,NULL,0,28.8,Yes,NULL,Yes,NULL,NULL,NULL,NULL,NULL,NULL,358818,200,200,NULL,NULL,NULL,NULL,NULL,NULL,NULL,NULL,NULL,NULL,NULL,NULL,NULL,NULL,NULL,NULL,NULL,NULL,NULL,NULL,NULL,NULL,NULL,NULL,NULL,NULL,NULL,NULL,NULL,NULL,NULL,NULL,NULL,NULL,NULL,NULL,NULL,NULL,NULL,NULL,NULL,NULL,NULL,NULL,NULL,NULL,NULL,NULL,NULL,
315,LA FRESA CAP 7,Yes,No,Yes,202,Fixed,28.8,0,28.8,0,0,1,202,72.45,66.93,1,0,Off,Off,NULL,NULL,NULL,NULL,NULL,NULL,NULL,NULL,120,NULL,NULL,NULL,0,28.8,Yes,NULL,Yes,NULL,NULL,NULL,NULL,NULL,NULL,302340,200,200,NULL,NULL,NULL,NULL,NULL,NULL,NULL,NULL,NULL,NULL,NULL,NULL,NULL,NULL,NULL,NULL,NULL,NULL,NULL,NULL,NULL,NULL,NULL,NULL,NULL,NULL,NULL,NULL,NULL,NULL,NULL,NULL,NULL,NULL,NULL,NULL,NULL,NULL,NULL,NULL,NULL,NULL,NULL,NULL,236563,NULL,NULL,NULL,NULL,
316,LA FRESA CAP 4B,Yes,No,Yes,828,Fixed,28.8,0,28.8,0,0,1,828,69.3,64.02,1,0,Off,Off,NULL,NULL,NULL,NULL,NULL,NULL,NULL,NULL,120,NULL,NULL,NULL,0,28.8,Yes,NULL,Yes,NULL,NULL,NULL,NULL,NULL,NULL,358819,200,200,NULL,NULL,NULL,NULL,NULL,NULL,NULL,NULL,NULL,NULL,NULL,NULL,NULL,NULL,NULL,NULL,NULL,NULL,NULL,NULL,NULL,NULL,NULL,NULL,NULL,NULL,NULL,NULL,NULL,NULL,NULL,NULL,NULL,NULL,NULL,NULL,NULL,NULL,NULL,NULL,NULL,NULL,NULL,NULL,NULL,NULL,NULL,NULL,NULL,
317,LA FRESA CAP 5A,Yes,No,Yes,207,Fixed,28.8,0,28.8,0,0,1,999,69.3,64.02,1,0,Off,Off,NULL,NULL,NULL,NULL,NULL,NULL,NULL,NULL,120,NULL,NULL,NULL,0,28.8,Yes,NULL,Yes,NULL,NULL,NULL,NULL,NULL,NULL,358820,200,200,NULL,NULL,NULL,NULL,NULL,NULL,NULL,NULL,NULL,NULL,NULL,NULL,NULL,NULL,NULL,NULL,NULL,NULL,NULL,NULL,NULL,NULL,NULL,NULL,NULL,NULL,NULL,NULL,NULL,NULL,NULL,NULL,NULL,NULL,NULL,NULL,NULL,NULL,NULL,NULL,NULL,NULL,NULL,NULL,NULL,NULL,NULL,NULL,NULL,
318,LA FRESA CAP 5B,Yes,No,Yes,206,Fixed,28.8,0,28.8,0,0,1,999,69.3,64.02,1,0,Off,Off,NULL,NULL,NULL,NULL,NULL,NULL,NULL,NULL,120,NULL,NULL,NULL,0,28.8,Yes,NULL,Yes,NULL,NULL,NULL,NULL,NULL,NULL,358821,200,200,NULL,NULL,NULL,NULL,NULL,NULL,NULL,NULL,NULL,NULL,NULL,NULL,NULL,NULL,NULL,NULL,NULL,NULL,NULL,NULL,NULL,NULL,NULL,NULL,NULL,NULL,NULL,NULL,NULL,NULL,NULL,NULL,NULL,NULL,NULL,NULL,NULL,NULL,NULL,NULL,NULL,NULL,NULL,NULL,NULL,NULL,NULL,NULL,NULL,
384,LA FRESA CAP 8A,Yes,No,Yes,823,Fixed,28.8,0,28.8,0,0,1,50,69.3,64.02,1,0,Off,Off,NULL,NULL,NULL,NULL,NULL,NULL,NULL,NULL,120,NULL,NULL,NULL,0,28.8,Yes,NULL,Yes,NULL,NULL,NULL,NULL,NULL,NULL,358822,200,200,NULL,NULL,NULL,NULL,NULL,NULL,NULL,NULL,NULL,NULL,NULL,NULL,NULL,NULL,NULL,NULL,NULL,NULL,NULL,NULL,NULL,NULL,NULL,NULL,NULL,NULL,NULL,NULL,NULL,NULL,NULL,NULL,NULL,NULL,NULL,NULL,NULL,NULL,NULL,NULL,NULL,NULL,NULL,NULL,NULL,NULL,NULL,NULL,NULL,
392,LA FRESA CAP 8B,Yes,No,Yes,825,Fixed,28.8,0,28.8,0,0,1,50,69.3,64.02,1,0,Off,Off,NULL,NULL,NULL,NULL,NULL,NULL,NULL,NULL,120,NULL,NULL,NULL,0,28.8,Yes,NULL,Yes,NULL,NULL,NULL,NULL,NULL,NULL,358823,200,200,NULL,NULL,NULL,NULL,NULL,NULL,NULL,NULL,NULL,NULL,NULL,NULL,NULL,NULL,NULL,NULL,NULL,NULL,NULL,NULL,NULL,NULL,NULL,NULL,NULL,NULL,NULL,NULL,NULL,NULL,NULL,NULL,NULL,NULL,NULL,NULL,NULL,NULL,NULL,NULL,NULL,NULL,NULL,NULL,NULL,NULL,NULL,NULL,NULL,
751,MARYMOUNT NO. 1 CAP,No,Yes,Yes,611,Variable,4.5,0,4.5,0,0,1,611,16.48,15.52,1,0,Off,Off,NULL,NULL,NULL,NULL,NULL,NULL,NULL,NULL,120,NULL,NULL,NULL,0,4.5,Yes,NULL,Yes,NULL,NULL,NULL,NULL,NULL,NULL,326210,216,216,NULL,NULL,NULL,NULL,NULL,NULL,NULL,NULL,NULL,NULL,NULL,NULL,NULL,NULL,NULL,NULL,NULL,NULL,NULL,NULL,NULL,NULL,NULL,NULL,NULL,NULL,NO. 1 CAPACITOR CB,Open,NULL,Open,NULL,NULL,NULL,0,1,8,124127,NULL,1,NULL,NULL,NULL,NULL,NULL,124128,NULL,NULL,NULL,NULL,
797,LA FRESA CAP 7_PSS,No,Yes,No,202,Variable,28.8,0,28.8,0,0,1,202,72.45,66.93,1,0,Off,Off,NULL,NULL,NULL,NULL,NULL,NULL,NULL,NULL,120,NULL,NULL,NULL,0,28.8,Yes,NULL,Yes,NULL,NULL,NULL,NULL,NULL,NULL,NULL,200,200,NULL,NULL,NULL,NULL,NULL,NULL,NULL,NULL,NULL,NULL,NULL,NULL,NULL,NULL,NULL,NULL,NULL,NULL,NULL,NULL,NULL,NULL,NULL,NULL,NULL,NULL,NO.7 CAP CB,Closed,NULL,Closed,NULL,NULL,NULL,0,1,1,109966,NULL,1,NULL,NULL,NULL,NULL,NULL,236563,NULL,NULL,NULL,NULL,
1610,LA FRESA NO. 1 CAP,No,Yes,Yes,611,Variable,6,0,6,0,0,1,611,16.48,15.52,1,0,Off,Off,NULL,NULL,NULL,NULL,NULL,NULL,NULL,NULL,120,NULL,NULL,NULL,NULL,6,Yes,NULL,Yes,NULL,NULL,NULL,NULL,NULL,NULL,321831,4105,4105,NULL,NULL,NULL,NULL,NULL,NULL,NULL,NULL,NULL,NULL,NULL,NULL,NULL,NULL,NULL,NULL,NULL,NULL,10,+,Out,Block,NULL,1,114237,NULL,NO. 1 CAPACITOR CB,Open,NULL,Open,NULL,NULL,NULL,0,1,8,144768,NULL,1,NULL,NULL,NULL,NULL,NULL,144770,NULL,NULL,NULL,NULL,
1611,LA FRESA NO. 2 CAP,No,Yes,Yes,621,Variable,6,0,6,0,0,1,621,16.48,15.52,1,0,Off,Off,NULL,NULL,NULL,NULL,NULL,NULL,NULL,NULL,120,NULL,NULL,NULL,NULL,6,Yes,NULL,Yes,NULL,NULL,NULL,NULL,NULL,NULL,321832,4105,4105,NULL,NULL,NULL,NULL,NULL,NULL,NULL,NULL,NULL,NULL,NULL,NULL,NULL,NULL,NULL,NULL,NULL,NULL,10,+,Out,Block,NULL,1,114241,NULL,NO. 2 CAPACITOR CB,Open,NULL,Open,NULL,NULL,NULL,0,1,8,144776,NULL,1,NULL,NULL,NULL,NULL,NULL,144778,NULL,NULL,NULL,NULL,
1612,LUNADA NO.1 CAP,No,No,Yes,613,Variable,.9,0,.9,0,0,1,999,4.12,3.88,1,0,Off,Off,NULL,NULL,NULL,NULL,NULL,NULL,NULL,NULL,120,NULL,NULL,NULL,0,.9,Yes,NULL,No,NULL,NULL,NULL,NULL,NULL,NULL,321882,4107,4107,NULL,NULL,NULL,NULL,NULL,NULL,NULL,NULL,NULL,NULL,NULL,NULL,NULL,NULL,NULL,NULL,NULL,NULL,10,+,Out,Block,NULL,20,120839,NULL,NO.1 CAPACITOR CB,Closed,NULL,Closed,NULL,NULL,NULL,0,1,8,178878,NULL,1,NULL,NULL,NULL,NULL,NULL,178881,NULL,NULL,NULL,NULL,
2087,HOWARD NO.1 CAP,No,Yes,Yes,611,Variable,3,0,3,0,0,1,997,4.12,3.88,1,0,Off,Off,NULL,NULL,NULL,NULL,NULL,NULL,NULL,NULL,120,NULL,NULL,2265116,0,3,Yes,NULL,Yes,NULL,NULL,NULL,NULL,NULL,NULL,326861,3049,3049,NULL,NULL,NULL,NULL,NULL,NULL,NULL,NULL,NULL,NULL,NULL,NULL,NULL,NULL,NULL,NULL,NULL,NULL,10,+,Out,Block,NULL,21,119744,NULL,NO.1 4KV CAPACITOR CB,Closed,NULL,Closed,NULL,NULL,NULL,0,1,30,176464,NULL,1,NULL,NULL,NULL,NULL,NULL,176466,NULL,NULL,NULL,NULL,
2088,HOWARD NO.2 CAP,No,Yes,Yes,621,Variable,3,0,3,0,0,1,621,4.12,3.88,1,0,Off,Off,NULL,NULL,NULL,NULL,NULL,NULL,NULL,NULL,120,NULL,NULL,2252518,0,3,Yes,NULL,Yes,NULL,NULL,NULL,NULL,NULL,NULL,326862,3049,3049,NULL,NULL,NULL,NULL,NULL,NULL,NULL,NULL,NULL,NULL,NULL,NULL,NULL,NULL,NULL,NULL,NULL,NULL,10,+,Out,Block,NULL,21,119748,NULL,NO.2 4KV CAPACITOR CB,Open,NULL,Open,NULL,NULL,NULL,0,1,8,176472,NULL,1,NULL,NULL,NULL,NULL,NULL,176474,NULL,NULL,NULL,NULL,
2095,BRIDGE NO.1 CAP,No,Yes,Yes,109,Variable,3,0,3,0,0,1,999,4.12,3.88,1,0,Off,Off,NULL,NULL,NULL,NULL,NULL,NULL,NULL,NULL,120,NULL,NULL,NULL,0,3,Yes,NULL,Yes,NULL,NULL,NULL,NULL,NULL,NULL,326776,3053,3053,NULL,NULL,NULL,NULL,NULL,NULL,NULL,NULL,NULL,NULL,NULL,NULL,NULL,NULL,NULL,NULL,NULL,NULL,10,+,Out,Block,NULL,20,121486,NULL,NO.1 4KV CAPACITOR CB,Closed,NULL,Closed,NULL,NULL,NULL,0,1,30,180908,NULL,1,NULL,NULL,NULL,NULL,NULL,180911,NULL,NULL,NULL,NULL,
2096,BRIDGE NO.2 CAP,No,Yes,Yes,110,Variable,3,0,3,0,0,1,998,4.12,3.88,1,0,Off,Off,NULL,NULL,NULL,NULL,NULL,NULL,NULL,NULL,120,NULL,NULL,NULL,0,3,Yes,NULL,Yes,NULL,NULL,NULL,NULL,NULL,NULL,326777,3053,3053,NULL,NULL,NULL,NULL,NULL,NULL,NULL,NULL,NULL,NULL,NULL,NULL,NULL,NULL,NULL,NULL,NULL,NULL,10,+,Out,Block,NULL,20,121489,NULL,NO.2 4KV CAPACITOR CB,Closed,NULL,Closed,NULL,NULL,NULL,0,1,30,180918,NULL,1,NULL,NULL,NULL,NULL,NULL,180921,NULL,NULL,NULL,NULL,
2111,MANHATTAN NO.1 CAP,No,No,Yes,612,Variable,1.5,0,1.5,0,0,1,1,4.12,3.88,1,0,Off,Off,NULL,NULL,NULL,NULL,NULL,NULL,NULL,NULL,120,NULL,NULL,NULL,0,1.5,Yes,NULL,No,NULL,NULL,NULL,NULL,NULL,NULL,326871,3097,3097,NULL,NULL,NULL,NULL,NULL,NULL,NULL,NULL,NULL,NULL,NULL,NULL,NULL,NULL,NULL,NULL,NULL,NULL,10,+,Out,Block,NULL,21,120008,NULL,NO.1 4KV CAPACITOR CB,Open,NULL,Open,NULL,NULL,NULL,0,1,9,176914,NULL,1,NULL,NULL,NULL,NULL,NULL,176917,NULL,NULL,NULL,NULL,
2134,BLUFF COVE CAP 1,No,No,Yes,602,Fixed,1.5,0,1.5,0,0,1,602,4.12,3.88,1,0,Off,Off,NULL,NULL,NULL,NULL,NULL,NULL,NULL,NULL,120,NULL,NULL,NULL,0,1.5,Yes,NULL,No,NULL,NULL,NULL,NULL,NULL,NULL,329343,3174,3174,NULL,NULL,NULL,NULL,NULL,NULL,NULL,NULL,NULL,NULL,NULL,NULL,NULL,NULL,NULL,NULL,NULL,NULL,3!3,+!+,In/Out!In/Out,Normal!Normal,NULL!NULL,21!22,NULL!NULL,NULL!NULL,NULL,NULL,NULL,NULL,NULL,NULL,NULL,NULL,NULL,NULL,NULL,NULL,NULL,NULL,NULL,NULL,NULL,NULL,NULL,NULL,NULL,NULL,NULL,
2137,PERRY NO.1A CAP,No,Yes,Yes,50,Fixed,.9,0,.9,0,0,1,50,4.12,3.88,1,0,Off,Off,NULL,NULL,NULL,NULL,NULL,NULL,NULL,NULL,120,NULL,NULL,NULL,0,.9,Yes,NULL,No,NULL,NULL,NULL,NULL,NULL,NULL,326488,3383,3383,NULL,NULL,NULL,NULL,NULL,NULL,NULL,NULL,NULL,NULL,NULL,NULL,NULL,NULL,NULL,NULL,NULL,NULL,3,+,In/Out,Normal,NULL,22,NULL,NULL,NULL,NULL,NULL,NULL,NULL,NULL,NULL,NULL,NULL,NULL,NULL,NULL,NULL,NULL,NULL,NULL,NULL,NULL,NULL,NULL,NULL,NULL,NULL,
2138,PERRY NO.1B CAP,No,Yes,Yes,50,Fixed,1.5,0,1.5,0,0,1,50,4.12,3.88,1,0,Off,Off,NULL,NULL,NULL,NULL,NULL,NULL,NULL,NULL,120,NULL,NULL,NULL,0,1.5,Yes,NULL,No,NULL,NULL,NULL,NULL,NULL,NULL,326489,3383,3383,NULL,NULL,NULL,NULL,NULL,NULL,NULL,NULL,NULL,NULL,NULL,NULL,NULL,NULL,NULL,NULL,NULL,NULL,3,+,In/Out,Normal,NULL,22,NULL,NULL,NULL,NULL,NULL,NULL,NULL,NULL,NULL,NULL,NULL,NULL,NULL,NULL,NULL,NULL,NULL,NULL,NULL,NULL,NULL,NULL,NULL,NULL,NULL,
2142,HAVEDA NO.1 CAP,No,Yes,Yes,602,Fixed,.8,0,.8,0,0,1,602,4.12,3.88,1,0,Off,Off,NULL,NULL,NULL,NULL,NULL,NULL,NULL,NULL,120,NULL,NULL,NULL,0,.8,Yes,NULL,Yes,NULL,NULL,NULL,NULL,NULL,NULL,313099,3190,3190,NULL,NULL,NULL,NULL,NULL,NULL,NULL,NULL,NULL,NULL,NULL,NULL,NULL,NULL,NULL,NULL,NULL,NULL,NULL,NULL,NULL,NULL,NULL,NULL,NULL,NULL,NULL,NULL,NULL,NULL,NULL,NULL,NULL,NULL,NULL,NULL,NULL,NULL,NULL,NULL,NULL,NULL,NULL,NULL,NULL,NULL,NULL,NULL,NULL,
2546,BRIGHTON NO. 2 CAP,No,Yes,Yes,601,Variable,6,0,6,0,0,1,601,16.48,15.52,1,0,Off,Off,NULL,NULL,NULL,NULL,NULL,NULL,NULL,NULL,120,NULL,NULL,NULL,0,6,Yes,NULL,Yes,NULL,NULL,NULL,NULL,NULL,NULL,323253,3264,3264,NULL,NULL,NULL,NULL,NULL,NULL,NULL,NULL,NULL,NULL,NULL,NULL,NULL,NULL,NULL,NULL,NULL,NULL,3,+,In/Out,Normal,NULL,12,121199,NULL,NO. 2 CAPACITOR CB,Closed,NULL,Closed,NULL,NULL,NULL,0,1,13,179866,NULL,1,NULL,NULL,NULL,NULL,NULL,179868,NULL,NULL,NULL,NULL,
2553,TORRANCE NO.1 CAP,No,Yes,Yes,602,Variable,6,0,6,0,0,1,602,16.8,15.52,1,0,Off,Off,NULL,NULL,NULL,NULL,NULL,NULL,NULL,NULL,120,NULL,NULL,NULL,0,6,Yes,NULL,Yes,NULL,NULL,NULL,NULL,NULL,NULL,323305,3274,3274,NULL,NULL,NULL,NULL,NULL,NULL,NULL,NULL,NULL,NULL,NULL,NULL,NULL,NULL,NULL,NULL,NULL,NULL,3,+,In/Out,Normal,NULL,12,138422,NULL,NO.1 16KV CAPACITOR CB,Closed,NULL,Closed,NULL,NULL,NULL,0,1,13,142178,NULL,1,NULL,NULL,NULL,NULL,NULL,142180,NULL,NULL,NULL,NULL,
2554,TORRANCE NO.3 CAP,No,Yes,Yes,603,Variable,6,0,6,0,0,1,603,16.8,15.52,1,0,Off,Off,NULL,NULL,NULL,NULL,NULL,NULL,NULL,NULL,120,NULL,NULL,NULL,0,6,Yes,NULL,Yes,NULL,NULL,NULL,NULL,NULL,NULL,323306,3274,3274,NULL,NULL,NULL,NULL,NULL,NULL,NULL,NULL,NULL,NULL,NULL,NULL,NULL,NULL,NULL,NULL,NULL,NULL,3,+,In/Out,Normal,NULL,12,138426,NULL,NO.3 16KV CAPACITOR CB,Closed,NULL,Closed,NULL,NULL,NULL,0,1,13,142186,NULL,1,NULL,NULL,NULL,NULL,NULL,142188,NULL,NULL,NULL,NULL,
3278,TOPAZ NO.1 CAP,No,Yes,Yes,612,Variable,2.1,0,2.1,0,0,1,999,4.5675,4.2195,1,0,Off,Off,NULL,NULL,NULL,NULL,NULL,NULL,NULL,NULL,120,NULL,NULL,NULL,0,2.1,Yes,NULL,Yes,NULL,NULL,NULL,NULL,NULL,NULL,326778,3552,3552,NULL,NULL,NULL,NULL,NULL,NULL,NULL,NULL,NULL,NULL,NULL,NULL,NULL,NULL,NULL,NULL,NULL,NULL,10,+,Out,Block,NULL,7,124336,NULL,NO.1 CAPACITOR CB,Closed,NULL,Closed,NULL,NULL,NULL,0,1,8,188912,NULL,1,NULL,NULL,NULL,NULL,NULL,188915,NULL,NULL,NULL,NULL,
3279,TOPAZ NO.2 CAP,No,Yes,Yes,622,Variable,2.1,0,2.1,0,0,1,998,4.5675,4.2195,1,0,Off,Off,NULL,NULL,NULL,NULL,NULL,NULL,NULL,NULL,120,NULL,NULL,NULL,0,2.1,Yes,NULL,Yes,NULL,NULL,NULL,NULL,NULL,NULL,326779,3552,3552,NULL,NULL,NULL,NULL,NULL,NULL,NULL,NULL,NULL,NULL,NULL,NULL,NULL,NULL,NULL,NULL,NULL,NULL,10,+,Out,Block,NULL,9,124339,NULL,NO.2 CAPACITOR CB,Closed,NULL,Closed,NULL,NULL,NULL,0,1,8,188921,NULL,1,NULL,NULL,NULL,NULL,NULL,188924,NULL,NULL,NULL,NULL,
